"id","name","address","city","latitude","longitude"
1,"CHASE","13 KNOLLS CRES # B","BRONX",40.8788669,-73.917234
2,"CAPITAL ONE BANK","5977 RIVERDALE AVE","BRONX",40.90808,-73.90408
3,"CHASE","5656 RIVERDALE AVE","BRONX",40.905593,-73.904395
4,"CITIBANK","5671 RIVERDALE AVE","BRONX",40.9060069,-73.904403
5,"BANK OF AMERICA","3508 JOHNSON AVE","BRONX",40.88576,-73.909731
6,"CAPITAL ONE BANK","3517 JOHNSON AVE","BRONX",40.885856,-73.909992
7,"COUNTRY BANK","583 W 235TH ST","BRONX",40.885908,-73.911034
8,"CHASE","3775 RIVERDALE AVE","BRONX",40.887626,-73.907369
9,"WELLS FARGO BANK","3709 RIVERDALE AVE","BRONX",40.886734,-73.907131
10,"APPLE BANK FOR SAVINGS","3552 JOHNSON AVE","BRONX",40.886168,-73.90974
11,"HSBC BANK","569 W 235TH ST","BRONX",40.885792,-73.910388
12,"CHASE","90 W 225TH ST","BRONX",40.874358,-73.90948
13,"TD BANK","281 W 230TH ST","BRONX",40.87945,-73.909121
14,"CHASE","5581 BROADWAY","BRONX",40.8792599,-73.904871
15,"CHASE","201 W 231ST ST","BRONX",40.878984,-73.904786
16,"CAPITAL ONE BANK","185 W 231ST ST","BRONX",40.87894,-73.903931
17,"PONCE DE LEON FEDERAL BANK","5560 BROADWAY","BRONX",40.8783,-73.9048
18,"CITIBANK","5660 BROADWAY","BRONX",40.880612,-73.903514
19,"BANK OF AMERICA","4361 KATONAH AVE","BRONX",40.90071,-73.868081
20,"COUNTRY BANK","4349 KATONAH AVE","BRONX",40.900282,-73.867768
21,"RIDGEWOOD SAVINGS BANK","3899 SEDGWICK AVE","BRONX",40.883062,-73.893983
22,"CITIBANK","3475 JEROME AVE # 77","BRONX",40.881785,-73.882408
23,"CHASE","3408 JEROME AVE","BRONX",40.88078,-73.88296
24,"RIDGEWOOD SAVINGS BANK","3445 JEROME AVE","BRONX",40.8813839,-73.88287
25,"CAPITAL ONE BANK","3159 BAINBRIDGE AVE","BRONX",40.8747,-73.879721
26,"CHASE","3169 BAINBRIDGE AVE","BRONX",40.87515,-73.879553
27,"CHASE","3514 WHITE PLAINS RD","BRONX",40.8775599,-73.865983
28,"RBC","4338 ELY AVE","BRONX",40.89727,-73.84788
29,"EZ DEBIT CARD INTL","1847 NEREID AVE","BRONX",40.89883,-73.848951
30,"CHASE","1215 E 233RD ST","BRONX",40.888895,-73.843052
31,"CITIBANK","3955 BAYCHESTER AVE","BRONX",40.88985,-73.84291
32,"CITIBANK","3200 BAYCHESTER AVE","BRONX",40.875974,-73.835741
33,"RIDGEWOOD SAVINGS BANK","3824 WHITE PLAINS RD","BRONX",40.88422,-73.862315
34,"CHASE","725 E 233RD ST","BRONX",40.893178,-73.856465
35,"CAPITAL ONE BANK","4201 WHITE PLAINS RD","BRONX",40.8936999,-73.857377
36,"CITIBANK","1910 VICTORY BLVD","STATEN ISLAND",40.612628,-74.127766
37,"CHASE","280 PAGE AVE","STATEN ISLAND",40.5171789,-74.234124
38,"CAPITAL ONE BANK","240 PAGE AVE","STATEN ISLAND",40.518228,-74.234638
39,"S I BANK & TRUST","6975 AMBOY RD","STATEN ISLAND",40.5163649,-74.23292
40,"RICHMOND COUNTY SAVINGS BANK","2730 ARTHUR KILL RD # 5","STATEN ISLAND",40.548925,-74.223396
41,"TD BANK","126 PAGE AVE","STATEN ISLAND",40.5212669,-74.235156
42,"CHASE","6390 AMBOY RD # 1","STATEN ISLAND",40.521898,-74.216851
43,"NORTHFIELD BANK","6420 AMBOY RD","STATEN ISLAND",40.520895,-74.217406
44,"HOME SAVINGS OF AMERICA","101 ELLIS ST # 8","STATEN ISLAND",40.516162,-74.243482
45,"QUEENS COUNTY SAVINGS BANK","179 MAIN ST","STATEN ISLAND",40.510783,-74.248438
46,"RICHMOND COUNTY SAVINGS","179 MAIN ST","STATEN ISLAND",40.510783,-74.248438
47,"HUDSON CITY SAVINGS BANK","2935 VETERANS RD W # F","STATEN ISLAND",40.527863,-74.234111
48,"S I BANK & TRUST","1320 HYLAN BLVD","STATEN ISLAND",40.596131,-74.085686
49,"STATEN ISLAND SAVINGS BANK","1320 HYLAN BLVD","STATEN ISLAND",40.596131,-74.085686
50,"IDB BANK","201 EDWARD CURRY AVE","STATEN ISLAND",40.610641,-74.184626
51,"STATEN ISLAND SAVINGS BANK","985 RICHMOND AVE","STATEN ISLAND",40.6229499,-74.149341
52,"BANK OF AMERICA","2196 FOREST AVE","STATEN ISLAND",40.62673,-74.162741
53,"HUDSON CITY SAVINGS BANK","2220 FOREST AVE # 9","STATEN ISLAND",40.62682,-74.16356
54,"RICHMOND COUNTY SAVINGS BANK","1460 RICHMOND AVE","STATEN ISLAND",40.613029,-74.158809
55,"RICHMOND COUNTY SAVINGS BANK","1445 RICHMOND AVE # K","STATEN ISLAND",40.613062,-74.158602
56,"NORTHFIELD BANK","1497 RICHMOND AVE","STATEN ISLAND",40.611753,-74.159446
57,"SOVEREIGN BANK","1535 RICHMOND AVE","STATEN ISLAND",40.610911,-74.159824
58,"HSBC BANK","2960 VICTORY BLVD","STATEN ISLAND",40.607317,-74.160831
59,"TD BANK","1837 RICHMOND AVE","STATEN ISLAND",40.6033699,-74.16267
60,"QUEENS COUNTY SAVINGS BANK","2800 VICTORY BLVD","STATEN ISLAND",40.60872,-74.153778
61,"BANK OF AMERICA","260 CHRISTOPHER LN # 202","STATEN ISLAND",40.613496,-74.156806
62,"NORTHFIELD BANK","1731 VICTORY BLVD","STATEN ISLAND",40.613228,-74.121394
63,"RICHMOND COUNTY SAVINGS BANK","1785 VICTORY BLVD","STATEN ISLAND",40.613098,-74.123126
64,"TD BANK","1818 VICTORY BLVD","STATEN ISLAND",40.612937,-74.124079
65,"S I BANK & TRUST","1837 VICTORY BLVD","STATEN ISLAND",40.6130079,-74.124778
66,"UNIVERSAL MERCHANT SVC","1676 VICTORY BLVD","STATEN ISLAND",40.613254,-74.119614
67,"CHASE","754 MANOR RD","STATEN ISLAND",40.609048,-74.12126
68,"NORTHFIELD BANK","385 BAY ST # 3","STATEN ISLAND",40.631421,-74.091526
69,"CHASE","1500 FOREST AVE","STATEN ISLAND",40.624212,-74.138305
70,"NORTHFIELD BANK","1351 FOREST AVE # 14","STATEN ISLAND",40.625954,-74.134539
71,"CHASE","1317 FOREST AVE","STATEN ISLAND",40.626409,-74.133652
72,"NORTHFIELD BANK","1481 FOREST AVE","STATEN ISLAND",40.624414,-74.137055
73,"CAPITAL ONE BANK","1411 FOREST AVE # 10302","STATEN ISLAND",40.625014,-74.13601
74,"RICHMOND COUNTY SAVINGS BANK","1351 FOREST AVE # 10","STATEN ISLAND",40.625954,-74.134539
75,"TD BANK","1600 FOREST AVE","STATEN ISLAND",40.624657,-74.141992
76,"SIB & T","1460 FOREST AVE","STATEN ISLAND",40.6243159,-74.136988
77,"S I BANK & TRUST","1630 FOREST AVE","STATEN ISLAND",40.624806,-74.14293
78,"MARATHON NATIONAL BANK OF NY","1200 FOREST AVE","STATEN ISLAND",40.626411,-74.129751
79,"FEDERAL HOME LOAN BANK-NY","101 PARK AVE","NEW YORK",40.638119,-74.13172
80,"RICHMOND COUNTY SAVINGS BANK","282 PORT RICHMOND AVE","STATEN ISLAND",40.634831,-74.135626
81,"UNITED CENTRAL BANK","221 PORT RICHMOND AVE","STATEN ISLAND",40.6358759,-74.134787
82,"RICHMOND COUNTY SAVINGS BANK","1214 CASTLETON AVE","STATEN ISLAND",40.634029,-74.123027
83,"VICTORY STATE BANK","755 FOREST AVE","STATEN ISLAND",40.629233,-74.114227
84,"S I BANK & TRUST","800 FOREST AVE","STATEN ISLAND",40.6289309,-74.115827
85,"SIB & T","800 FOREST AVE","STATEN ISLAND",40.6289309,-74.115827
86,"BANK OF AMERICA","261 BROADWAY","NEW YORK",40.635105,-74.117261
87,"VALLEY NATIONAL BANK","120 BROADWAY # 1050","NEW YORK",40.638375,-74.11774
88,"CITIBANK","120 BROADWAY","NEW YORK",40.638375,-74.11774
89,"BANCO POPULAR","120 BROADWAY # 16","NEW YORK",40.638375,-74.11774
90,"HUDSON VALLEY BANK","233 BROADWAY # 2205","NEW YORK",40.635757,-74.117382
91,"ESQUIRE BANK","233 BROADWAY","NEW YORK",40.635757,-74.117382
92,"S I BANK & TRUST","475 FOREST AVE","STATEN ISLAND",40.630648,-74.1055
93,"SIB & T","475 FOREST AVE","STATEN ISLAND",40.630648,-74.1055
94,"CHASE","666 FOREST AVE","STATEN ISLAND",40.629626,-74.111262
95,"NORTHFIELD SAVINGS BANK","519 FOREST AVE","STATEN ISLAND",40.630523,-74.106933
96,"QUEENS COUNTY SAVINGS BANK","631 HOWARD AVE","STATEN ISLAND",40.616564,-74.094287
97,"RICHMOND COUNTY SAVINGS BANK","631 HOWARD AVE","STATEN ISLAND",40.616564,-74.094287
98,"RICHMOND COUNTY SAVINGS BANK","1270 CLOVE RD","STATEN ISLAND",40.6161169,-74.103381
99,"CITIBANK","445 FOREST AVE # 1","STATEN ISLAND",40.630795,-74.104321
100,"CAPITAL ONE BANK","386 FOREST AVE","STATEN ISLAND",40.630919,-74.10227
101,"QUEENS COUNTY SAVINGS BANK","300 HOWARD AVE","STATEN ISLAND",40.622503,-74.088621
102,"NEW YORK COMMUNITY BANK","300 HOWARD AVE","STATEN ISLAND",40.622503,-74.088621
103,"QUEENS COUNTY SAVINGS BANK","5770 HYLAN BLVD","STATEN ISLAND",40.519066,-74.197133
104,"QUEENS COUNTY SAVINGS BANK","375 SEGUINE AVE","STATEN ISLAND",40.516424,-74.196784
105,"CHASE","230 ARDEN AVE","STATEN ISLAND",40.553259,-74.191984
106,"NORTHFIELD BANK","5775 AMBOY RD","STATEN ISLAND",40.527225,-74.200806
107,"CITIBANK","5810 AMBOY RD","STATEN ISLAND",40.526539,-74.201213
108,"RICHMOND COUNTY SAVINGS BANK","820 ANNADALE RD","STATEN ISLAND",40.541957,-74.177523
109,"TD BANK","929 HUGUENOT AVE","STATEN ISLAND",40.531617,-74.191453
110,"S I BANK & TRUST","900 HUGUENOT AVE","STATEN ISLAND",40.532315,-74.192047
111,"RICHMOND COUNTY SAVINGS BANK","4523 AMBOY RD","STATEN ISLAND",40.543323,-74.164355
112,"NORTHFIELD BANK","4355 AMBOY RD","STATEN ISLAND",40.545487,-74.160422
113,"TD BANK","4401 AMBOY RD","STATEN ISLAND",40.545148,-74.161038
114,"VICTORY STATE BANK","4142 HYLAN BLVD","STATEN ISLAND",40.538814,-74.148801
115,"HUDSON CITY SAVINGS BANK","4106 HYLAN BLVD","STATEN ISLAND",40.539849,-74.147941
116,"NEW YORK COMMUNITY BANK","2555 RICHMOND AVE","STATEN ISLAND",40.5849399,-74.168491
117,"CITIBANK","2825 RICHMOND AVE","STATEN ISLAND",40.577372,-74.169503
118,"CHASE","2845 RICHMOND AVE # 17","STATEN ISLAND",40.57661,-74.169547
119,"CHASE","2655 RICHMOND AVE # 2200","STATEN ISLAND",40.581367,-74.169013
120,"RICHMOND COUNTY SAVINGS BANK","2875 RICHMOND AVE","STATEN ISLAND",40.575897,-74.169596
121,"RICHMOND COUNTY SAVINGS BANK","2555 RICHMOND AVE # 1","STATEN ISLAND",40.5849399,-74.168491
122,"APPLE BANK FOR SAVINGS","2655 RICHMOND AVE # 1414","STATEN ISLAND",40.581367,-74.169013
123,"HSBC BANK","2655 RICHMOND AVE","STATEN ISLAND",40.581367,-74.169013
124,"SOVEREIGN BANK","2655 RICHMOND AVE","STATEN ISLAND",40.581367,-74.169013
125,"S I BANK & TRUST","43 RICHMOND HILL RD","STATEN ISLAND",40.588319,-74.166307
126,"S I BANK & TRUST","4310 AMBOY RD","STATEN ISLAND",40.54588,-74.159459
127,"NORTHFIELD BANK","3227 RICHMOND AVE","STATEN ISLAND",40.560333,-74.169707
128,"CAPITAL ONE BANK","150 GREAVES LN","STATEN ISLAND",40.554203,-74.143351
129,"RICHMOND COUNTY SAVINGS BANK","3879 AMBOY RD","STATEN ISLAND",40.551699,-74.147823
130,"S I BANK & TRUST","4025 AMBOY RD","STATEN ISLAND",40.549976,-74.150911
131,"QUEENS COUNTY SAVINGS BANK","3501 AMBOY RD","STATEN ISLAND",40.555717,-74.139908
132,"BANK OF AMERICA","2820 HYLAN BLVD","STATEN ISLAND",40.564145,-74.115937
133,"RICHMOND COUNTY SAVINGS BANK","3501 AMBOY RD","STATEN ISLAND",40.555717,-74.139908
134,"NORTHFIELD BANK","2706 HYLAN BLVD","STATEN ISLAND",40.566287,-74.113775
135,"CHASE","2754 HYLAN BLVD","STATEN ISLAND",40.565374,-74.114711
136,"CHASE","3155 AMBOY RD # 2","STATEN ISLAND",40.56456,-74.131818
137,"RBS CITIZENS","2754 HYLAN BLVD","STATEN ISLAND",40.565374,-74.114711
138,"S I BANK & TRUST","2700 HYLAN BLVD","STATEN ISLAND",40.56641,-74.11365
139,"RICHMOND COUNTY SAVINGS BANK","2595 HYLAN BLVD","STATEN ISLAND",40.568819,-74.111612
140,"CHASE","2626 HYLAN BLVD # 11","STATEN ISLAND",40.567614,-74.112437
141,"EMPIRE STATE BANK","1361 N RAILROAD AVE","STATEN ISLAND",40.575047,-74.115576
142,"CHASE","200 NEW DORP LN","STATEN ISLAND",40.57299,-74.114577
143,"S I BANK & TRUST","257 NEW DORP LN","STATEN ISLAND",40.572592,-74.113592
144,"INDEPENDENCE COMMUNITY BANK","260 NEW DORP LN","STATEN ISLAND",40.5724389,-74.113558
145,"RICHMOND COUNTY SAVINGS BANK","2424 HYLAN BLVD","STATEN ISLAND",40.5719629,-74.108076
146,"CHASE","1657 RICHMOND RD","STATEN ISLAND",40.589621,-74.101357
147,"HUDSON CITY SAVINGS BANK","1591 RICHMOND RD","STATEN ISLAND",40.590979,-74.100954
148,"SIB & T","1550 RICHMOND RD","STATEN ISLAND",40.592595,-74.100736
149,"STATEN ISLAND SAVINGS BANK","1630 RICHMOND RD","STATEN ISLAND",40.590128,-74.100822
150,"SOVERGIEN BANK","1630 RICHMOND RD","STATEN ISLAND",40.590128,-74.100822
151,"SIGNATURE BANK","2066 HYLAN BLVD","STATEN ISLAND",40.579803,-74.10015
152,"CAPITAL ONE BANK","2083 HYLAN BLVD","STATEN ISLAND",40.579527,-74.100698
153,"HUDSON CITY SAVINGS BANK","2212 HYLAN BLVD","STATEN ISLAND",40.576849,-74.103271
154,"CITIBANK","1492 HYLAN BLVD","STATEN ISLAND",40.592139,-74.087332
155,"RICHMOND COUNTY SAVINGS BANK","1833 HYLAN BLVD","STATEN ISLAND",40.584618,-74.094285
156,"CHASE","1690 HYLAN BLVD","STATEN ISLAND",40.587583,-74.091082
157,"VICTORY STATE BANK","1762 HYLAN BLVD","STATEN ISLAND",40.58622,-74.092268
158,"QUEENS COUNTY SAVINGS BANK","475 SEAVIEW AVE","STATEN ISLAND",40.583499,-74.085768
159,"TD BANK","1540 HYLAN BLVD","STATEN ISLAND",40.591077,-74.087989
160,"PATRIOT NATIONAL BANK","45 W END AVE","NEW YORK",40.773038,-73.989489
161,"LEFT BANK","117 PERRY ST","NEW YORK",40.735101,-74.006672
162,"CHASE","302 W 12TH ST","NEW YORK",40.73726,-74.00468
163,"WELLS FARGO BANK","66 9TH AVE","NEW YORK",40.741585,-74.004729
164,"CITIBANK","322 W 23RD ST","NEW YORK",40.74545,-73.99953
165,"CHASE","475 W 23RD ST","NEW YORK",40.7474289,-74.003394
166,"CAPITAL ONE BANK","401 W 23RD ST","NEW YORK",40.746577,-74.00138
167,"MARATHON BANK","250 9TH AVE","NEW YORK",40.74784,-73.999601
168,"FIFTH THIRD BANK","5 PENN PLZ # 2300","NEW YORK",40.751891,-73.993776
169,"CHASE","2 PENN PLZ","NEW YORK",40.7520339,-73.993234
170,"SIGNATURE BANK","2 PENN PLZ # 1712","NEW YORK",40.7520339,-73.993234
171,"BANK OF NEW YORK MELLON","330 W 38TH ST","NEW YORK",40.75524,-73.993501
172,"BANK OF AMERICA","625 8TH AVE","NEW YORK",40.756158,-73.990653
173,"CHASE","615 8TH AVE","NEW YORK",40.755889,-73.990849
174,"CHASE","601 8TH AVE # 1","NEW YORK",40.75565,-73.991351
175,"MANUFACTURERS HANOVER TRUST CO","530 FASHION AVE","NEW YORK",40.75409,-73.988861
176,"CAPITAL ONE BANK","520 8TH AVE # F","NEW YORK",40.75357,-73.991861
177,"CHASE","498 FASHION AVE # A","NEW YORK",40.75284,-73.990031
178,"STERLING NATIONAL BANK","512 FASHION AVE","NEW YORK",40.75343,-73.989281
179,"STERLING NATIONAL BANK","500 FASHION AVE # 10A","NEW YORK",40.7534199,-73.989691
180,"MIDDLE MARKET BANKING","500 FASHION AVE # 3","NEW YORK",40.7534199,-73.989691
181,"CITIBANK","201 W 34TH ST # 2","NEW YORK",40.75105,-73.990604
182,"TD BANK","469 FASHION AVE","NEW YORK",40.75191,-73.989431
183,"TD BANK","200 W 26TH ST # 2","NEW YORK",40.7458399,-73.994811
184,"CHASE","305 7TH AVE","NEW YORK",40.74662,-73.993431
185,"AMALGAMATED BANK","275 7TH AVE # 2","NEW YORK",40.7455299,-73.994141
186,"CAPITAL ONE BANK","370 7TH AVE # 4","NEW YORK",40.74891,-73.992541
187,"EMIGRANT SAVINGS BANK","371 7TH AVE # A","NEW YORK",40.74869,-73.991631
188,"SONNENSCHEIN SHERMAN & DEUTSCH","370 7TH AVE","NEW YORK",40.74891,-73.992541
189,"CAPITAL ONE BANK","1 PENN PLZ # 8","NEW YORK",40.75055,-73.991512
190,"BANK OF AMERICA","1 PENN PLZ","NEW YORK",40.75055,-73.991512
191,"HUDSON VALLEY BANK","112 W 34TH ST # 1903","NEW YORK",40.74981,-73.98901
192,"SAEHAN BANK","875 AVENUE OF THE AMERICAS","NEW YORK",40.74821,-73.989341
193,"VALLEY NATIONAL BANK","776 AVENUE OF THE AMERICAS # 6","NEW YORK",40.74491,-73.990761
194,"BANK OF AMERICA","800 AVENUE OF THE AMERICAS","NEW YORK",40.74552,-73.990461
195,"HSBC BANK","800 AVENUE OF THE AMERICAS","NEW YORK",40.74552,-73.990461
196,"CHASE","158 W 14TH ST # 2","NEW YORK",40.738067,-73.998674
197,"FIRST AMERICAN INTL BANK","41 W 8TH ST # 1","NEW YORK",40.73328,-73.998231
198,"TD BANK","122 GREENWICH AVE # 1","NEW YORK",40.738813,-74.002351
199,"BANK OF AMERICA","224 W 4TH ST","NEW YORK",40.734007,-74.002971
200,"VALLEY NATIONAL BANK","157 8TH AVE","NEW YORK",40.74223,-74.001031
201,"SOVEREIGN BANK","169 7TH AVE","NEW YORK",40.74219,-73.996956
202,"NORTH EAST COMMUNITY BANK","242 W 23RD ST","NEW YORK",40.744574,-73.996912
203,"EMIGRANT SAVINGS BANK","250 W 23RD ST","NEW YORK",40.74464,-73.997701
204,"BANK OF AMERICA","127 8TH AVE","NEW YORK",40.74144,-74.001671
205,"CAPITAL ONE BANK","144 8TH AVE","NEW YORK",40.74163,-74.000721
206,"CHASE","111 8TH AVE # 1","NEW YORK",40.740714,-74.00191
207,"HSBC BANK","80 8TH AVE # 1","NEW YORK",40.73986,-74.002031
208,"BANK OF NEW YORK","111 8TH AVE # 14","NEW YORK",40.740714,-74.00191
209,"WELLS FARGO BANK","120 7TH AVE","NEW YORK",40.740595,-73.998281
210,"PEOPLE'S UNITED BANK","127 7TH AVE","NEW YORK",40.74074,-73.997721
211,"BANK OF AMERICA","670 AVENUE OF THE AMERICAS","NEW YORK",40.74137,-73.993541
212,"CAPITAL ONE BANK","120 W 23RD ST # 2","NEW YORK",40.743121,-73.993476
213,"CITIBANK","717 AVENUE OF THE AMERICAS","NEW YORK",40.743089,-73.992757
214,"CHASE","611 AVENUE OF THE AMERICAS # 1","NEW YORK",40.739807,-73.995139
215,"CHASE","245 7TH AVE # 1","NEW YORK",40.744755,-73.99508
216,"CHASE","71 W 23RD ST # 3","NEW YORK",40.742544,-73.991807
217,"CITIBANK","1107 BROADWAY # 1","NEW YORK",40.742583,-73.989288
218,"CHASE","162 5TH AVE # 1","NEW YORK",40.74058,-73.990811
219,"KEY BANK","11 E 22ND ST # B","NEW YORK",40.740535,-73.989102
220,"M&T BANK","200 5TH AVE","NEW YORK",40.7419209,-73.989348
221,"VALLEY NATIONAL BANK","924 BROADWAY # 1","NEW YORK",40.73994,-73.98922
222,"SIGNATURE BANK","200 PARK AVE S # 501","NEW YORK",40.73692,-73.989181
223,"CAPITAL ONE BANK","31 E 17TH ST","NEW YORK",40.7372,-73.98962
224,"CITIBANK","72 5TH AVE","NEW YORK",40.735358,-73.994157
225,"AMALGAMATED BANK","10 E 14TH ST","NEW YORK",40.73536,-73.993221
226,"CHASE","90 5TH AVE # 2","NEW YORK",40.736374,-73.993432
227,"COMMERCE BANK","90 5TH AVE # 1","NEW YORK",40.736374,-73.993432
228,"CHASE","69 5TH AVE # A","NEW YORK",40.7361499,-73.9932
229,"BANK OF AMERICA","116 5TH AVE","NEW YORK",40.737921,-73.992294
230,"CITIBANK","79 5TH AVE # 1","NEW YORK",40.7369499,-73.992381
231,"CHASE","835 BROADWAY","NEW YORK",40.73392,-73.991161
232,"BANK OF AMERICA","36 E 14TH ST","NEW YORK",40.73504,-73.992071
233,"HSBC BANK","15 UNION SQ W # C","NEW YORK",40.735838,-73.991309
234,"CHASE","471 W 42ND ST","NEW YORK",40.75941,-73.994792
235,"CITIBANK","401 W 42ND ST","NEW YORK",40.758498,-73.992632
236,"BANK OF CHINA","359 W 48TH ST","NEW YORK",40.7621299,-73.98901
237,"TD BANK","582 9TH AVE","NEW YORK",40.7584269,-73.99255
238,"ANTWERP DIAMOND BANK NV","1177 AVENUE OF THE AMERICAS#7","NEW YORK",40.7591429,-73.988207
239,"MANUFACTURERS HANOVER TRUST CO","2921 BRIDGE PLZ","NEW YORK",40.7591429,-73.988207
240,"CHASE","3 TIMES SQ","NEW YORK",40.75657,-73.987071
241,"CHASE","810 7TH AVE # 1","NEW YORK",40.762651,-73.982206
242,"BANK OF AMERICA","1680 BROADWAY","NEW YORK",40.76291,-73.98252
243,"OPEN SOCIETY INSTITUTE","1700 BROADWAY","NEW YORK",40.763813,-73.982511
244,"BANCO DE LA REPUBLICA","1700 BROADWAY # 3102","NEW YORK",40.763813,-73.982511
245,"FIRST NATIONAL BANK-LONG ISLND","1501 BROADWAY # 301","NEW YORK",40.7570119,-73.986323
246,"CHASE","1251 AVENUE OF THE AMERICAS","NEW YORK",40.76007,-73.981631
247,"DEVELOPMENT BANK OF JAPAN","1251 AVENUE OF THE AMERICAS","NEW YORK",40.76007,-73.981631
248,"PEOPLES BANK OF CHINA","1251 AVE OF THE AMERICAS #2380","NEW YORK",40.76007,-73.981631
249,"ROTHSCHILD NORTH AMERICA INC","1251 AVE OF THE AMERICAS # 51","NEW YORK",40.76007,-73.981631
250,"LLOYDS BANK","1251 AVENUE OF THE AMERICAS","NEW YORK",40.76007,-73.981631
251,"BANK OF TOKYO","1251 AVENUE OF THE AMERICAS","NEW YORK",40.76007,-73.981631
252,"SHINKIN CENTRAL BANK","1251 AVE OF THE AMERICAS # 38","NEW YORK",40.76007,-73.981631
253,"NATEXIS BANK","1251 AVENUE OF THE AMERICAS","NEW YORK",40.76007,-73.981631
254,"M&T BANK","830 8TH AVE","NEW YORK",40.76228,-73.98575
255,"BANK OF AMERICA","1633 BROADWAY","NEW YORK",40.761534,-73.984066
256,"TD BANK","1633 BROADWAY # 5","NEW YORK",40.761534,-73.984066
257,"INDUSTRIAL & COMMERCIAL BANK","1633 BROADWAY","NEW YORK",40.761534,-73.984066
258,"CITIBANK","787 7TH AVE # 2","NEW YORK",40.76168,-73.981791
259,"CHASE","787 7TH AVE # 1","NEW YORK",40.76168,-73.981791
260,"BNP PARIBAS","787 7TH AVE # 27","NEW YORK",40.76168,-73.981791
261,"BNP INTERNATIONAL FINANCIAL","787 7TH AVE # 29","NEW YORK",40.76168,-73.981791
262,"B & P POWEBALL BANK","787 7TH AVE","NEW YORK",40.76168,-73.981791
263,"SANOCH MANAGEMENT LLC","153 W 51ST ST","NEW YORK",40.761509,-73.982191
264,"BBVA","135 W 50TH ST # 16B","NEW YORK",40.76095,-73.982061
265,"MIZUHO TRUST & BANKING","135 W 50TH ST # 16A","NEW YORK",40.76095,-73.982061
266,"CITY NATIONAL BANK","120 W 45TH ST # 16R","NEW YORK",40.75701,-73.98391
267,"BANK OF AMERICA","1155 AVENUE OF THE AMERICAS 17","NEW YORK",40.75666,-73.98335
268,"CITIBANK","1155 AVENUE OF THE AMERICAS #2","NEW YORK",40.75666,-73.98335
269,"BANK OF TOKYO-MITSUBISHI UFJ","1251 AVE OF AMERICAS # C3-06","NEW YORK",40.75865,-73.981338
270,"SG AMERICAS SECURITIES LLC","1221 AVENUE OF THE AMERICAS","NEW YORK",40.7593699,-73.98209
271,"SHINKIN CENTRAL BANK","114 W 47TH ST # C-1","NEW YORK",40.758218,-73.982417
272,"WELLS FARGO BANK","1156 AVENUE OF THE AMERICAS","NEW YORK",40.756663,-73.982706
273,"KBC BANK","1177 AVENUE OF THE AMERICAS #7","NEW YORK",40.75728,-73.98289
274,"BANK HAPOALIM","1177 AVE OF THE AMERICAS # 11","NEW YORK",40.75728,-73.98289
275,"VALLEY NATIONAL BANK","62 W 47TH ST # A","NEW YORK",40.75755,-73.98129
276,"MICHAEL BASCH CO","71 W 47TH ST","NEW YORK",40.757799,-73.981095
277,"CAPITAL ONE BANK","1166 AVE OF THE AMERICAS # 51","NEW YORK",40.75676,-73.98177
278,"ALLIED IRISH BANK PLC","1166 AVE OF THE AMERICAS # 18","NEW YORK",40.75676,-73.98177
279,"CAPITAL ONE BANK","840 9TH AVE","NEW YORK",40.76622,-73.98639
280,"HSBC BANK","885 8TH AVE","NEW YORK",40.764049,-73.984901
281,"SOVEREIGN BANK","864 8TH AVE","NEW YORK",40.763364,-73.985235
282,"CHASE","839 9TH AVE","NEW YORK",40.7666309,-73.986737
283,"HSBC BANK","1790 BROADWAY","NEW YORK",40.7668989,-73.981677
284,"FIRST REPUBLIC BANK","10 COLUMBUS CIR # 102A","NEW YORK",40.767758,-73.982359
285,"CITIBANK","4 COLUMBUS CIR # A","NEW YORK",40.767923,-73.981418
286,"WELLS FARGO BANK","1755 BROADWAY","NEW YORK",40.765659,-73.98201
287,"CITIBANK","1748 BROADWAY","NEW YORK",40.765352,-73.981926
288,"SAVOY BANK","250 W 57TH ST # 1801","NEW YORK",40.7664549,-73.982397
289,"BANK OF AMERICA","1775 BROADWAY","NEW YORK",40.766507,-73.981885
290,"CHASE","1775 BROADWAY # 2","NEW YORK",40.766507,-73.981885
291,"TD BANK","224 W 57TH ST # 1","NEW YORK",40.766112,-73.981585
292,"CAPITAL ONE BANK","1745 BROADWAY","NEW YORK",40.7652949,-73.982093
293,"AMALGAMATED BANK","1745 BROADWAY","NEW YORK",40.7652949,-73.982093
294,"CHASE","1370 AVENUE OF THE AMERICAS #2","NEW YORK",40.7633379,-73.977817
295,"CITIBANK","1345 AVENUE OF THE AMERICAS #A","NEW YORK",40.762647,-73.978504
296,"TD BANK","1350 AVENUE OF THE AMERICAS #1","NEW YORK",40.76256,-73.977781
297,"MACQUARIE BANK","125 W 55TH ST # 8","NEW YORK",40.763507,-73.979116
298,"CENTRAL PARK CREDIT BANK","156 W 56TH ST # 1003","NEW YORK",40.76436,-73.97951
299,"KBC BANK","125 W 55TH ST","NEW YORK",40.763507,-73.979116
300,"CHASE","171 W 57TH ST","NEW YORK",40.76522,-73.979155
301,"CHASE","9 W 57TH ST","NEW YORK",40.76388,-73.975001
302,"CAPITAL ONE BANK","57 W 57TH ST # 2","NEW YORK",40.764068,-73.976408
303,"BANK OF AMERICA","4 W 57TH ST","NEW YORK",40.762999,-73.974184
304,"INDUSTRIAL & COMMERCIAL BANK","725 5TH AVE # 20","NEW YORK",40.762469,-73.974247
305,"BANCO POPULAR","11 W 51ST ST","NEW YORK",40.75978,-73.97763
306,"HERALD NATIONAL BANK","623 5TH AVE # 11","NEW YORK",40.758522,-73.97713
307,"TRISTATE CAPITAL BANK","623 5TH AVE","NEW YORK",40.758522,-73.97713
308,"DORAL BANK","623 5TH AVE # 13","NEW YORK",40.758522,-73.97713
309,"DEPFA BANK PLC","623 5TH AVE # 22","NEW YORK",40.758522,-73.97713
310,"CHASE","51 W 51ST ST # 4","NEW YORK",40.760067,-73.978758
311,"BANK OF AMERICA","25 W 51ST ST","NEW YORK",40.75999,-73.978151
312,"MERCANTIL COMMERCEBANK","11 E 51ST ST","NEW YORK",40.75893,-73.975611
313,"NATIONAL BANK-EGYPT","40 E 52ND ST # 22","NEW YORK",40.7589809,-73.974524
314,"BANK OF THAILAND","40 E 52ND ST","NEW YORK",40.7589809,-73.974524
315,"DEPFA BANK PLC NEW YORK","10 E 50TH ST","NEW YORK",40.758218,-73.976585
316,"M&T BANK","350 PARK AVE # 6","NEW YORK",40.7583,-73.973721
317,"VALLEY NATIONAL BANK","350 PARK AVE # 3","NEW YORK",40.7583,-73.973721
318,"HUDSON VALLEY BANK","350 PARK AVE # 2401","NEW YORK",40.7583,-73.973721
319,"FIRST REPUBLIC BANK","1230 AVENUE OF THE AMERICAS","NEW YORK",40.75841,-73.979831
320,"HUNTINGTON BANCSHARES INC","1230 AVENUE OF THE AMERICAS #7","NEW YORK",40.75841,-73.979831
321,"COTIA TRADING USA LTD","1230 AVENUE OF THE AMERICAS","NEW YORK",40.75841,-73.979831
322,"INTERVEST NATIONAL BANK","1 ROCKEFELLER PLZ # 4","NEW YORK",40.757808,-73.979366
323,"CITIBANK","1 ROCKEFELLER PLZ # 1","NEW YORK",40.757808,-73.979366
324,"BANK OF FUKUOKA LTD","1 ROCKEFELLER PLZ # 120","NEW YORK",40.757808,-73.979366
325,"UNITED BANK FOR AFRICA PLC","1 ROCKEFELLER PLZ # 8","NEW YORK",40.757808,-73.979366
326,"WELLS FARGO BANK","49 ROCKEFELLER PLZ","NEW YORK",40.759259,-73.978281
327,"KEY BANK","45 ROCKEFELLER PLZ # 630","NEW YORK",40.759175,-73.978345
328,"GREAT BANC TRUST CO","45 ROCKEFELLER PLZ","NEW YORK",40.759175,-73.978345
329,"AGRICULTURAL BANK OF CHINA","45 ROCKEFELLER PLZ # 630","NEW YORK",40.759175,-73.978345
330,"LAZARD PRIVATE FUND ADVISORY","30 ROCKEFELLER PLZ # 50","NEW YORK",40.758474,-73.979047
331,"TD BANK","75 ROCKEFELLER PLZ","NEW YORK",40.759414,-73.977219
332,"BANCO DE LA PROVINCIA DE","609 5TH AVE # 10","NEW YORK",40.75747,-73.977251
333,"RZB AUSTRIA","609 5TH AVE","NEW YORK",40.75747,-73.977251
334,"D Z BANK AG","609 5TH AVE","NEW YORK",40.75747,-73.977251
335,"BANK OF AMERICA","592 5TH AVE","NEW YORK",40.7573,-73.97862
336,"UNITED OVERSEAS BANK LTD","592 5TH AVE # 10","NEW YORK",40.7573,-73.97862
337,"CHASE","589 5TH AVE # 2","NEW YORK",40.75694,-73.977831
338,"BANK LEUMI USA","579 5TH AVE # A","NEW YORK",40.75663,-73.97801
339,"BANK LEUMI PRIVATE BANKING","579 5TH AVE # 1","NEW YORK",40.75663,-73.97801
340,"BANK LEUMI","579 5TH AVE # A","NEW YORK",40.75663,-73.97801
341,"HSBC BANK","1271 AVENUE OF THE AMERICAS #1","NEW YORK",40.76054,-73.980991
342,"AURORA BANK","1271 AVE OF THE AMERICAS # 46A","NEW YORK",40.76054,-73.980991
343,"HOLLIDAY FENOGLIO FOWLER LP","1301 AVENUE OF THE AMERICAS","NEW YORK",40.76175,-73.980031
344,"DEKA BANK","1330 AVE OF THE AMERICAS # 23","NEW YORK",40.762086,-73.978746
345,"CALYON NEW YORK","1301 AVENUE OF THE AMERICAS #7","NEW YORK",40.76175,-73.980031
346,"BANK OF THAILAND NY RPRSNTTV","1270 AVE OF THE AMERICAS # 27","NEW YORK",40.760222,-73.980116
347,"BANCO DE LA REPUBLICA ORIENTAL","1270 AVENUE OF THE AMERICAS","NEW YORK",40.760222,-73.980116
348,"CHASE","1290 AVENUE OF THE AMERICAS","NEW YORK",40.7609109,-73.979603
349,"CITIBANK","640 5TH AVE","NEW YORK",40.75961,-73.977031
350,"HELLMOLD ASSOCIATES INC","640 5TH AVE","NEW YORK",40.75961,-73.977031
351,"CITIBANK","55TH ST","NEW YORK",40.761674,-73.974907
352,"VAKIFBANK","680 5TH AVE # 23","NEW YORK",40.76099,-73.97587
353,"G H PARTNERS LLC","712 5TH AVE # 1102","NEW YORK",40.76229,-73.9751
354,"JAPAN BANK-INTL","712 5TH AVE # 26","NEW YORK",40.76229,-73.9751
355,"JC FLOWERS INCO LLC","717 5TH AVE # 25","NEW YORK",40.762164,-73.974471
356,"HSBC BANK","666 5TH AVE","NEW YORK",40.76037,-73.9767
357,"UFJ TRUST CO OF NEW YORK","666 5TH AVE # 33","NEW YORK",40.76037,-73.9767
358,"TOYO TRUST CO OF NEW YORK","666 5TH AVE # 33","NEW YORK",40.76037,-73.9767
359,"SHOKO CHUKIN BANK","666 5TH AVE # 1407","NEW YORK",40.76037,-73.9767
360,"STERLING NATIONAL BANK","650 5TH AVE # 4","NEW YORK",40.759801,-73.976366
361,"HANA BANK","650 5TH AVE # 1501","NEW YORK",40.759801,-73.976366
362,"N H BANK","650 5TH AVE # 24","NEW YORK",40.759801,-73.976366
363,"SAN-IN GODO BANK LTD","650 5TH AVE # 1600","NEW YORK",40.759801,-73.976366
364,"DELTA NATIONAL BANK & TRUST CO","650 5TH AVE # 26","NEW YORK",40.759801,-73.976366
365,"BURNHAM HILL CAPITOL","650 5TH AVE","NEW YORK",40.759801,-73.976366
366,"WILMINGTON TRUST FSB","520 MADISON AVE # 3300","NEW YORK",40.76027,-73.97438
367,"WELLS FARGO BANK","540 MADISON AVE","NEW YORK",40.76092,-73.973771
368,"METROPOLITAN BANK & TRUST CO","10 E 53RD ST # 2","NEW YORK",40.760024,-73.975037
369,"ARAB BANK PLC","520 MADISON AVE # 202","NEW YORK",40.76027,-73.97438
370,"BANQUE TRANSATLANTQUE","520 MADISON AVE","NEW YORK",40.76027,-73.97438
371,"EURO CANADIAN BANK","520 MADISON AVE","NEW YORK",40.76027,-73.97438
372,"INTERAUDI BANK","19 E 54TH ST","NEW YORK",40.76072,-73.97403
373,"BANCO DE SANTANDER INC","45 E 53RD ST # 16","NEW YORK",40.759646,-73.973849
374,"SANTANDER CENTRAL HISPANO","45 E 53RD ST","NEW YORK",40.759646,-73.973849
375,"CHUO MITSUI TRUST & BANKING","527 MADISON AVE # 4","NEW YORK",40.76002,-73.9735
376,"SUMITOMO TRUST & BANKING CO US","527 MADISON AVE","NEW YORK",40.76002,-73.9735
377,"CHOU MITSUI TRUST & BANKING CO","527 MADISON AVE # 4","NEW YORK",40.76002,-73.9735
378,"WELLS FARGO BANK","12 E 49TH ST # 37","NEW YORK",40.757553,-73.976968
379,"ROYAL BANK-CANADA","12 E 49TH ST # 35","NEW YORK",40.757553,-73.976968
380,"LOMBARD ODIER INC","12 E 49TH ST","NEW YORK",40.757553,-73.976968
381,"WELLS FARGO BANK","437 MADISON AVE","NEW YORK",40.75736,-73.97539
382,"TD BANK","444 MADISON AVE","NEW YORK",40.757722,-73.975781
383,"NORDEA BANK FINLAND PLC","437 MADISON AVE # 21","NEW YORK",40.75736,-73.97539
384,"BANCO INTERNATIONAL SA","437 MADISON AVE","NEW YORK",40.75736,-73.97539
385,"CAPITAL ONE BANK","424 MADISON AVE # 2","NEW YORK",40.75718,-73.976391
386,"SQUARE 1 BANK","424 MADISON AVE # 601","NEW YORK",40.75718,-73.976391
387,"REPUBLIC BANK FOR SAVINGS","415 MADISON AVE","NEW YORK",40.756659,-73.976378
388,"KRUNG THAI BANK","415 MADISON AVE","NEW YORK",40.756659,-73.976378
389,"SIGNATURE BANK","300 PARK AVE # 2","NEW YORK",40.7570399,-73.9747
390,"FIRST REPUBLIC BANK","320 PARK AVE # 3","NEW YORK",40.75768,-73.974211
391,"CAPITAL ONE BANK","320 PARK AVE # 4","NEW YORK",40.75768,-73.974211
392,"STANDARD BANK OF SOUTH AFRICA","320 PARK AVE","NEW YORK",40.75768,-73.974211
393,"KOREA DEVELOPMENT BANK","320 PARK AVE # 32","NEW YORK",40.75768,-73.974211
394,"BANCO ESPIRITO","320 PARK AVE # 29","NEW YORK",40.75768,-73.974211
395,"BANK OF AMERICA","1886 BROADWAY","NEW YORK",40.77077,-73.981571
396,"CHASE","1860 BROADWAY","NEW YORK",40.769718,-73.981926
397,"CHASE","2099 BROADWAY","NEW YORK",40.779578,-73.981904
398,"BANK OF AMERICA","2077 BROADWAY","NEW YORK",40.778691,-73.982135
399,"APPLE BANK FOR SAVINGS","2100 BROADWAY","NEW YORK",40.77976,-73.981191
400,"WELLS FARGO BANK","2040 BROADWAY","NEW YORK",40.777074,-73.981917
401,"CITIBANK","170 W 72ND ST","NEW YORK",40.77819,-73.981411
402,"CHASE","2030 BROADWAY # 1","NEW YORK",40.776688,-73.981936
403,"CAPITAL ONE BANK","2025 BROADWAY # 1","NEW YORK",40.776654,-73.982301
404,"CITIBANK","162 AMSTERDAM AVE","NEW YORK",40.775535,-73.983972
405,"TD BANK","1995 BROADWAY # 1","NEW YORK",40.77546,-73.982581
406,"CHASE","335 COLUMBUS AVE","NEW YORK",40.779824,-73.976949
407,"CAPITAL ONE BANK","175 W 72ND ST # 1","NEW YORK",40.778342,-73.980848
408,"CHASE","260 COLUMBUS AVE","NEW YORK",40.77746,-73.978836
409,"HSBC BANK","301 COLUMBUS AVE","NEW YORK",40.7787299,-73.977401
410,"CHASE","941 LEXINGTON AVE","NEW YORK",40.768447,-73.963568
411,"CHASE","801 MADISON AVE","NEW YORK",40.76876,-73.967281
412,"CHASE","35 E 72ND ST","NEW YORK",40.77186,-73.964881
413,"CITIBANK","976 MADISON AVE","NEW YORK",40.7745489,-73.963503
414,"CHASE","1025 MADISON AVE","NEW YORK",40.7761349,-73.962183
415,"SIGNATURE BANK","1020 MADISON AVE # 4","NEW YORK",40.7760799,-73.96258
416,"HSBC BANK","1002 MADISON AVE","NEW YORK",40.7755099,-73.96303
417,"BANK OF AMERICA","1143 LEXINGTON AVE","NEW YORK",40.775,-73.958789
418,"FIRST REPUBLIC BANK","148 E 79TH ST","NEW YORK",40.774871,-73.958826
419,"EMIGRANT SAVINGS BANK","1174 LEXINGTON AVE","NEW YORK",40.775939,-73.958268
420,"BANK OF AMERICA","1066 LEXINGTON AVE","NEW YORK",40.772691,-73.960631
421,"HSBC BANK","1340 3RD AVE","NEW YORK",40.772711,-73.95853
422,"CHASE","1003 LEXINGTON AVE","NEW YORK",40.77058,-73.961841
423,"CITIBANK","171 E 72ND ST","NEW YORK",40.770126,-73.961342
424,"WELLS FARGO BANK","731 LEXINGTON AVE","NEW YORK",40.76157,-73.967631
425,"BRITTANIA HOLDINGS","250 E 54TH ST","NEW YORK",40.7573299,-73.967151
426,"BANK AUDI","250 E 54TH ST","NEW YORK",40.7573299,-73.967151
427,"CAPITAL ONE BANK","1034 2ND AVE","NEW YORK",40.75749,-73.96613
428,"CAPITAL ONE BANK","643 LEXINGTON AVE","NEW YORK",40.759191,-73.970319
429,"STERLING NATIONAL BANK","425 PARK AVE # 3","NEW YORK",40.7604299,-73.971031
430,"BANCO VOTORANTIM SEC INC","126 E 56TH ST # 9R","NEW YORK",40.760391,-73.970104
431,"SHANGHAI COMMERCIAL BANK","125 E 56TH ST","NEW YORK",40.76068,-73.970061
432,"TD BANK","880 3RD AVE # C","NEW YORK",40.75802,-73.969541
433,"BAYERNLB","560 LEXINGTON AVE # 22","NEW YORK",40.7568499,-73.972631
434,"G E CREDIT CORP","570 LEXINGTON AVE","NEW YORK",40.7569839,-73.972092
435,"CITIBANK NA","399 PARK AVE","NEW YORK",40.75907,-73.971671
436,"CHASE","360 PARK AVE","NEW YORK",40.7588999,-73.973211
437,"CITIBANK","399 PARK AVE","NEW YORK",40.75907,-73.971671
438,"MOELIS & CO","399 PARK AVE # 5","NEW YORK",40.75907,-73.971671
439,"VAKIFBANK","399 PARK AVE","NEW YORK",40.75907,-73.971671
440,"SHIZUOKA BANK LTD","600 LEXINGTON AVE # 4","NEW YORK",40.75806,-73.971591
441,"BANCO LATINAMERICANO-EXPRTCNS","600 LEXINGTON AVE # 12","NEW YORK",40.75806,-73.971591
442,"BANCO DO ESTADO DE SAO PAULO","399 PARK AVE # 39","NEW YORK",40.75907,-73.971671
443,"BANCO DE BOGOTA NY","375 PARK AVE # 3407","NEW YORK",40.75845,-73.972121
444,"MC CONNELL WETENHALL & CO","375 PARK AVE # 2004","NEW YORK",40.75845,-73.972121
445,"INTERNATIONAL BANK-AZERBAI JAN","375 PARK AVE # 2502","NEW YORK",40.75845,-73.972121
446,"BANK OF AMERICA","345 PARK AVE","NEW YORK",40.75775,-73.972421
447,"J P MORGAN","345 PARK AVE # L-2","NEW YORK",40.75775,-73.972421
448,"DEUTSCHE BANK","345 PARK AVE # 1","NEW YORK",40.75775,-73.972421
449,"CAPITAL ONE BANK","845 3RD AVE # 1","NEW YORK",40.759104,-73.969419
450,"GULF BANK","520 MAD AV","NEW YORK",40.759104,-73.969419
451,"SVENSKA HANDELS BANKEN","875 3RD AVE # 4","NEW YORK",40.759104,-73.969419
452,"DORAL BANK","875 3RD AVE # 4","NEW YORK",40.759104,-73.969419
453,"PNC CAPITAL MARKET","450 PARK AVE # 1202","NEW YORK",40.759104,-73.969419
454,"FREDERICKS MICHAEL & CO","430 PARK AVE # 801","NEW YORK",40.759104,-73.969419
455,"AUSTRIAN NATIONAL BANK","450 PARK AVE # 1202","NEW YORK",40.759104,-73.969419
456,"CHASE","850 3RD AVE","NEW YORK",40.7569,-73.97051
457,"WESTDEUTSCHE IMMOBILIEN BANK","850 3RD AVE # 21","NEW YORK",40.7569,-73.97051
458,"WESTDEUTSCHE LANDESBANK","850 3RD AVE # 21","NEW YORK",40.7569,-73.97051
459,"STATE STREET CORP","601 LEXINGTON AVE # 153","NEW YORK",40.757921,-73.971243
460,"CITIBANK","601 LEXINGTON AVE # LL1","NEW YORK",40.757921,-73.971243
461,"CHUGOKU BANK LTD","150 E 52ND ST","NEW YORK",40.757575,-73.971177
462,"COMMONWEALTH BANK OF AUSTRALIA","599 LEXINGTON AVE # 1701","NEW YORK",40.7578599,-73.970741
463,"AMSOUTH CAPITAL CORP","599 LEXINGTON AVE","NEW YORK",40.7578599,-73.970741
464,"WELLS FARGO BANK","866 3RD AVE","NEW YORK",40.757451,-73.969663
465,"HONG KONG MONETARY AUTHORITY","115 E 54TH ST # 3","NEW YORK",40.7595999,-73.971351
466,"ATLANTIC BANK","405 PARK AVE # 1","NEW YORK",40.75972,-73.97165
467,"CHASE","410 PARK AVE # 2","NEW YORK",40.7602899,-73.972251
468,"NORTHERN TRUST BANK","65 E 55TH ST # 24","NEW YORK",40.760721,-73.972511
469,"WELLS FARGO ADVISORS","535 MADISON AVE # 16","NEW YORK",40.7604299,-73.97326
470,"CITY NATIONAL BANK","400 PARK AVE # 7","NEW YORK",40.76005,-73.972441
471,"MALAYAN BANKING BERHAD","400 PARK AVE # 9","NEW YORK",40.76005,-73.972441
472,"G H VENTURE","410 PARK AVE # 1710","NEW YORK",40.7602899,-73.972251
473,"CITIC BANK INTL LTD","410 PARK AVE # 18","NEW YORK",40.7602899,-73.972251
474,"CHINA MERCHANT BANK","535 MADISON AVE","NEW YORK",40.7604299,-73.97326
475,"BANK OF EAST ASIA","410 PARK AVE","NEW YORK",40.7602899,-73.972251
476,"HSBC BANK","555 MADISON AVE","NEW YORK",40.76117,-73.97267
477,"CAULDWELL BANKER HUNT","555 MADISON AVE","NEW YORK",40.76117,-73.97267
478,"FIRST NATIONAL METALS","575 MADISON AVE","NEW YORK",40.76175,-73.972669
479,"UNI BANCO","555 MADISON AVE","NEW YORK",40.76117,-73.97267
480,"CHASE","445 PARK AVE # 5","NEW YORK",40.76109,-73.97064
481,"CITIBANK","460 PARK AVE","NEW YORK",40.76202,-73.97099
482,"WELLS FARGO BANK","445 PARK AVE # 9","NEW YORK",40.76109,-73.97064
483,"KOREA EXCHANGE BANK NY BRANCH","460 PARK AVE # 1401","NEW YORK",40.76202,-73.97099
484,"PARK AVENUE BANK NA","460 PARK AVE # 1301","NEW YORK",40.76202,-73.97099
485,"RICHTER & CO INC","450 PARK AVE","NEW YORK",40.76145,-73.971082
486,"KOREA EXCHANGE BANK","460 PARK AVE # 14","NEW YORK",40.76202,-73.97099
487,"DEXIA BANK","445 PARK AVE # 500","NEW YORK",40.76109,-73.97064
488,"BANCO MERCANTIL DE SAO PAULO","450 PARK AVE","NEW YORK",40.76145,-73.971082
489,"SIGNATURE BANK","950 3RD AVE # 901A","NEW YORK",40.7601999,-73.968091
490,"ATLANTIC BANK OF NEW YORK","936 3RD AVE","NEW YORK",40.759706,-73.968017
491,"CITIBANK","974 3RD AVE","NEW YORK",40.761106,-73.966992
492,"BANK OF AMERICA","988 3RD AVE","NEW YORK",40.76156,-73.966656
493,"CAPITAL ONE BANK","991 3RD AVE","NEW YORK",40.76152,-73.966221
494,"CHASE","993 2ND AVE","NEW YORK",40.75666,-73.967531
495,"BANK OF AMERICA","900 3RD AVE","NEW YORK",40.75871,-73.96909
496,"SEVENSKA HANDELS BANKER","875 3RD AVE","NEW YORK",40.757657,-73.969347
497,"BANCO INDUSTRIAL DE VENEZEULA","900 3RD AVE # 1400","NEW YORK",40.75871,-73.96909
498,"BANK ENGARA MALAYSIA","900 3RD AVE # 1804","NEW YORK",40.75871,-73.96909
499,"CHASE","919 3RD AVE # 3","NEW YORK",40.75896,-73.967581
500,"BNP PARIBAS","919 3RD AVE","NEW YORK",40.75896,-73.967581
501,"NEW YORK COMMUNITY TRUST","909 3RD AVE # 22","NEW YORK",40.7582899,-73.967901
502,"CAPITAL ONE BANK","502 PARK AVE # 3","NEW YORK",40.76325,-73.970311
503,"TD BANK","500 PARK AVE # A","NEW YORK",40.76289,-73.97035
504,"BANCA MONTE DEI PASCHI DI","55 E 59TH ST # 9","NEW YORK",40.76349,-73.970631
505,"MODERN BANK NA","667 MADISON AVE # 2","NEW YORK",40.7645,-73.970311
506,"MODERN BANK","667 MADISON AVE # 2","NEW YORK",40.7645,-73.970311
507,"GRUSS & CO","667 MADISON AVE # 3","NEW YORK",40.7645,-73.970311
508,"CHASE","510 PARK AVE # A","NEW YORK",40.76351,-73.96989
509,"DEUTSCHE BUNDESBANK","499 PARK AVE # 25","NEW YORK",40.7625299,-73.9696
510,"CITIBANK","785 5TH AVE","NEW YORK",40.76454,-73.972331
511,"CHASE","610 MADISON AVE","NEW YORK",40.762968,-73.971947
512,"MODERN BANK","5 E 59TH ST # 3","NEW YORK",40.76419,-73.97224
513,"HONG KONG & SHANGHAI BANKING","5 E 59TH ST","NEW YORK",40.76419,-73.97224
514,"MORGAN GUARANTY TRUST CO","616 MADISON AVE","NEW YORK",40.763155,-73.97181
515,"CHASE","745 5TH AVE","NEW YORK",40.76324,-73.973161
516,"BANK OF AMERICA","767 5TH AVE","NEW YORK",40.764049,-73.973101
517,"ITAU SECURITIES","767 5TH AVE","NEW YORK",40.764049,-73.973101
518,"BANCO ITAU SA","767 5TH AVE # 5004","NEW YORK",40.764049,-73.973101
519,"CHASE","726 MADISON AVE","NEW YORK",40.76666,-73.96944
520,"CITIBANK","757 MADISON AVE","NEW YORK",40.767511,-73.96846
521,"EMIGRANT SAVINGS BANK","812 LEXINGTON AVE","NEW YORK",40.76449,-73.966617
522,"VISCOGLIOSI & CO LLC","505 PARK AVE # 1400","NEW YORK",40.76293,-73.969271
523,"CHASE","770 LEXINGTON AVE","NEW YORK",40.76316,-73.967871
524,"CHASE","1180 2ND AVE","NEW YORK",40.7625299,-73.962481
525,"CITIBANK","1078 3RD AVE","NEW YORK",40.764367,-73.964611
526,"CHASE","1100 3RD AVE","NEW YORK",40.765056,-73.964115
527,"BANK OF AMERICA","1107 3RD AVE","NEW YORK",40.765201,-73.963845
528,"SOVEREIGN BANK","1062 3RD AVE","NEW YORK",40.763873,-73.964972
529,"TD BANK","1091 3RD AVE","NEW YORK",40.764675,-73.964223
530,"DATA BANK NY","250 E 63RD ST","NEW YORK",40.763531,-73.963642
531,"CAPITAL ONE BANK","1295 2ND AVE","NEW YORK",40.766251,-73.960305
532,"VALLEY NATIONAL BANK","1328 2ND AVE","NEW YORK",40.76758,-73.958861
533,"CHASE","1191 3RD AVE","NEW YORK",40.767914,-73.961863
534,"CAPITAL ONE BANK","1180 3RD AVE","NEW YORK",40.767655,-73.962216
535,"HSBC BANK","1165 3RD AVE","NEW YORK",40.7670159,-73.962514
536,"ROYAL BANK OF SCOTLAND","101 PARK AVE # 10","NEW YORK",40.765526,-73.96533
537,"APPLE BANK FOR SAVINGS","1168 1ST AVE","NEW YORK",40.76284,-73.95897
538,"CHASE","360 E 57TH ST","NEW YORK",40.758587,-73.963735
539,"CITIBANK","1044 1ST AVE","NEW YORK",40.758267,-73.962868
540,"CHASE","1006 1ST AVE","NEW YORK",40.7570899,-73.96311
541,"CHASE","994 1ST AVE","NEW YORK",40.75668,-73.9637
542,"M&T BANK","401 E 55TH ST # 1","NEW YORK",40.75703,-73.963764
543,"APPLE BANK FOR SAVINGS","4 IRVING PL","NEW YORK",40.734097,-73.988606
544,"CHASE","233 3RD AVE","NEW YORK",40.736614,-73.984683
545,"AMALGAMATED BANK","301 3RD AVE","NEW YORK",40.7389,-73.982671
546,"CHASE","230 PARK AVE S # A","NEW YORK",40.73776,-73.988284
547,"BANK OF AMERICA","240 PARK AVE S","NEW YORK",40.73808,-73.98821
548,"SOVEREIGN BANK","251 PARK AVE S # A","NEW YORK",40.73834,-73.987311
549,"TD BANK","260 PARK AVE S # 1","NEW YORK",40.7389499,-73.987761
550,"FLUSHING SAVINGS BANK","225 PARK AVE S # 2","NEW YORK",40.73714,-73.987881
551,"CITIBANK","115 E 23RD ST # 1","NEW YORK",40.7401199,-73.98543
552,"BANK OF AMERICA","345 PARK AVE S","NEW YORK",40.74151,-73.985247
553,"AMERICA BANK-FLUSHING BRANCH","241 5TH AVE","NEW YORK",40.744346,-73.987459
554,"HABIB AMERICAN BANK","99 MADISON AVE","NEW YORK",40.74467,-73.984861
555,"LAKELAND BANK INC","230 5TH AVE # 2006","NEW YORK",40.7440699,-73.987825
556,"CHASE","225 5TH AVE # B","NEW YORK",40.743823,-73.98784
557,"CATHAY BANK","235 5TH AVE","NEW YORK",40.74409,-73.987291
558,"CHASE","386 PARK AVE S","NEW YORK",40.74306,-73.984851
559,"DORAL BANK","387 PARK AVE S # 9","NEW YORK",40.74271,-73.98396
560,"CHASE","450 3RD AVE","NEW YORK",40.743866,-73.97956
561,"BANCO POPULAR","441 2ND AVE","NEW YORK",40.73952,-73.980231
562,"BANK OF AMERICA","399 3RD AVE","NEW YORK",40.742085,-73.980677
563,"CHASE","501 2ND AVE","NEW YORK",40.74138,-73.97881
564,"M&T BANK","397 1ST AVE","NEW YORK",40.737098,-73.978471
565,"CHASE","333 E 23RD ST # 3","NEW YORK",40.737605,-73.980067
566,"ESQUIRE BANK","20 E 46TH ST # 302","NEW YORK",40.755522,-73.977967
567,"CHINA TRUST BANK","366 MADISON AVE # 8","NEW YORK",40.75525,-73.977781
568,"CHINATRUST COMMERCIAL BANK","366 MADISON AVE","NEW YORK",40.75525,-73.977781
569,"LLOYDS BANK CORPORATE MARKETS","1095 AVE OF THE AMERICAS # 33C","NEW YORK",40.75465,-73.98476
570,"CHINA CONSTRUCTION BANK INC","1095 AVE OF THE AMERICAS # 33C","NEW YORK",40.75465,-73.98476
571,"STANDARD CHARTERED BANK","1095 AVE OF THE AMERICAS # 37","NEW YORK",40.75465,-73.98476
572,"SAFRA NATIONAL BANK OF NY","1095 AVENUE OF THE AMERICAS","NEW YORK",40.75465,-73.98476
573,"BANK OF AMERICA","115 W 42ND ST","NEW YORK",40.75539,-73.98471
574,"BB&T","1133 AVE OF THE AMERICAS #2702","NEW YORK",40.75605,-73.983861
575,"CHIBA BANK LTD","1133 AVE OF THE AMERICAS #1516","NEW YORK",40.75605,-73.983861
576,"SIGNATURE BANK","565 5TH AVE # 9","NEW YORK",40.756174,-73.978842
577,"KEY BANK","575 5TH AVE","NEW YORK",40.7565439,-73.978572
578,"KOOKMIN BANK","565 5TH AVE # 24","NEW YORK",40.756174,-73.978842
579,"CITIBANK","1 PARK AVE # 4","NEW YORK",40.74586,-73.98145
580,"BANK OF BARODA","1 PARK AVE","NEW YORK",40.74586,-73.98145
581,"FIRST NATIONAL BANK-LONG ISLND","232 MADISON AVE # 1","NEW YORK",40.75,-73.982001
582,"CITIBANK","411 5TH AVE # A","NEW YORK",40.7503499,-73.982701
583,"MARATHON NATIONAL BANK OF NY","267 5TH AVE # A","NEW YORK",40.74529,-73.986431
584,"SHINHAN BANK AMERICA","313 5TH AVE # 1","NEW YORK",40.74681,-73.985231
585,"BNB BANK","250 5TH AVE # 1","NEW YORK",40.74501,-73.987601
586,"BROADWAY NATIONAL BANK","250 5TH AVE # 1","NEW YORK",40.74501,-73.987601
587,"CITIBANK","22 W 32ND ST # 2","NEW YORK",40.74751,-73.986941
588,"PUSAN BANK","29 W 30TH ST","NEW YORK",40.74679,-73.98789
589,"WILSHIRE STATE BANK","308 5TH AVE # 1","NEW YORK",40.74695,-73.986061
590,"VALLEY NATIONAL BANK","295 5TH AVE # A","NEW YORK",40.7463519,-73.986003
591,"SHINHAN BANK AMERICA","330 5TH AVE # 4","NEW YORK",40.747563,-73.985285
592,"NARA BANK","16 W 32ND ST # 1","NEW YORK",40.74742,-73.986721
593,"WILSHIRE STATE BANK","11 W 32ND ST","NEW YORK",40.7477099,-73.98623
594,"BANK OF AMERICA","1293 BROADWAY","NEW YORK",40.749524,-73.988051
595,"WOORI AMERICA BANK","35 W 35TH ST # 6","NEW YORK",40.75002,-73.98567
596,"CHASE","1260 BROADWAY","NEW YORK",40.74844,-73.9877
597,"BANK OF AMERICA","100 W 33RD ST # 901","NEW YORK",40.749086,-73.988316
598,"WOORI AMERICA BANK","1250 BROADWAY # 16","NEW YORK",40.747938,-73.988163
599,"HANVITAMERICA BANK","1250 BROADWAY","NEW YORK",40.747938,-73.988163
600,"INDUSTRIAL BANK OF KOREA","1250 BROADWAY # 3701","NEW YORK",40.747938,-73.988163
601,"KOREA COMMERCIAL BANK OF NY","1250 BROADWAY # 1","NEW YORK",40.747938,-73.988163
602,"CAPITAL ONE BANK","10 E 34TH ST # A","NEW YORK",40.748192,-73.984112
603,"CHASE","349 5TH AVE","NEW YORK",40.74811,-73.984381
604,"BANK OF AMERICA","350 5TH AVE","NEW YORK",40.748389,-73.984682
605,"IDB BANK","350 5TH AVE # 2001","NEW YORK",40.748389,-73.984682
606,"AMERICAN CHINESE INTL CORP","350 5TH AVE # 7313","NEW YORK",40.748389,-73.984682
607,"FIRST BLACK REPUBLIC","350 5TH AVE","NEW YORK",40.748389,-73.984682
608,"COLDWELL BANKER","390 5TH AVE","NEW YORK",40.749739,-73.983695
609,"TD BANK","401 5TH AVE # 3","NEW YORK",40.750074,-73.983295
610,"CAPITAL ONE BANK","404 5TH AVE # 1","NEW YORK",40.750164,-73.983395
611,"CHASE","2 PARK AVE # 2","NEW YORK",40.7463299,-73.982591
612,"METROPOLITAN NATIONAL BANK","2 PARK AVE","NEW YORK",40.7463299,-73.982591
613,"WELLS FARGO BANK","180 MADISON AVE","NEW YORK",40.74757,-73.983187
614,"CITIBANK","1375 BROADWAY # 1100","NEW YORK",40.75257,-73.98789
615,"SHINSEI BANK","7 TIMES SQ # 2504","NEW YORK",40.755792,-73.986474
616,"MANUFACTURERS HANOVER TRUST CO","1460 BROADWAY","NEW YORK",40.7551,-73.98623
617,"HFBC LIMITED","135 W 36TH ST # 1801","NEW YORK",40.75191,-73.988321
618,"METROPOLITAN NATIONAL BANK","1359 BROADWAY","NEW YORK",40.75186,-73.987961
619,"HSBC BANK","1350 BROADWAY # 1","NEW YORK",40.75094,-73.98738
620,"IDB BANK","1350 BROADWAY # 1814","NEW YORK",40.75094,-73.98738
621,"BANK OF AMERICA","515 FASHION AVE","NEW YORK",40.7531099,-73.98845
622,"CAPITAL ONE BANK","1407 BROADWAY # 8","NEW YORK",40.75353,-73.98775
623,"EVEREST AMERICA INC","525 FASHION AVE # 510","NEW YORK",40.7535,-73.988161
624,"BANK LEUMI USA","1400 BROADWAY # S1","NEW YORK",40.7529499,-73.986671
625,"VALLEY NATIONAL BANK","1040 AVENUE OF THE AMERICAS #1","NEW YORK",40.75299,-73.98503
626,"CAPITAL ONE BANK","1001 AVENUE OF THE AMERICAS #1","NEW YORK",40.75202,-73.986571
627,"BANK CAPITAL CORP","1441 BROADWAY","NEW YORK",40.75499,-73.987161
628,"WELLS FARGO BANK","535 7TH AVE","NEW YORK",40.754089,-73.988288
629,"CHASE","1411 BROADWAY # 2","NEW YORK",40.75418,-73.98754
630,"HSBC BANK","550 FASHION AVE","NEW YORK",40.75445,-73.988511
631,"GOTHAM BANK OF NEW YORK","1412 BROADWAY","NEW YORK",40.75364,-73.98658
632,"GOTHAM BANK OF NEW YORK","1450 BROADWAY # 32","NEW YORK",40.7546599,-73.986271
633,"CITIBANK","1440 BROADWAY # 1","NEW YORK",40.75439,-73.98623
634,"PROVIDENT BANK","1412 BROADWAY","NEW YORK",40.75364,-73.98658
635,"BANK OF AMERICA","1140 AVENUE OF THE AMERICAS","NEW YORK",40.7561599,-73.982671
636,"CHASE","1120 AVENUE OF THE AMERICAS #D","NEW YORK",40.75559,-73.982851
637,"TD BANK","1120 AVENUE OF THE AMERICAS #E","NEW YORK",40.75559,-73.982851
638,"VALLEY NATIONAL BANCORP","36 W 44TH ST","NEW YORK",40.755235,-73.981144
639,"M&T BANK","11 W 42ND ST # 3","NEW YORK",40.75432,-73.981791
640,"NORD LB","1114 AVENUE OF THE AMERICAS","NEW YORK",40.75483,-73.982851
641,"EUROHYPO AG","1114 AVENUE OF THE AMERICAS #2","NEW YORK",40.75483,-73.982851
642,"HUDSON VALLEY BANK","500 5TH AVE","NEW YORK",40.75393,-73.981201
643,"SQUARE 1 BANK","500 5TH AVE # 46","NEW YORK",40.75393,-73.981201
644,"ICICCI BANK","500 5TH AVE","NEW YORK",40.75393,-73.981201
645,"WESTWOOD CAPITAL LLC","489 5TH AVE # 33","NEW YORK",40.753097,-73.981082
646,"US BANK","461 5TH AVE # 7","NEW YORK",40.75223,-73.981341
647,"SIGNATURE BANK","29 W 38TH ST # 7","NEW YORK",40.75185,-73.984251
648,"BERKSHIRE BANK","4 E 39TH ST","NEW YORK",40.75114,-73.981811
649,"HSBC USA INC","452 5TH AVE","NEW YORK",40.75206,-73.982481
650,"MITSUBISHI UFJ TRUST & BANKING","420 5TH AVE # 6","NEW YORK",40.750971,-73.982793
651,"HSBC PRIVATE BANK","452 5TH AVE","NEW YORK",40.75206,-73.982481
652,"REPUBLIC NATIONAL BANK OF NY","452 5TH AVE # 2","NEW YORK",40.75206,-73.982481
653,"CHASE","260 MADISON AVE","NEW YORK",40.75073,-73.98124
654,"BANK OF AMERICA","200 PARK AVE","NEW YORK",40.7534,-73.97718
655,"DEN NORSKE BANK","200 PARK AVE # 3110","NEW YORK",40.7534,-73.97718
656,"CITIBANK","90 PARK AVE # 3","NEW YORK",40.7507399,-73.979361
657,"SILICON VALLEY BANK","505 5TH AVE # 11","NEW YORK",40.75357,-73.980341
658,"RESERVE BANK OF AUSTRALIA","505 5TH AVE # 1601","NEW YORK",40.75357,-73.980341
659,"NORGES BANK","505 5TH AVE # A","NEW YORK",40.75357,-73.980341
660,"CITIBANK","330 MADISON AVE # 1","NEW YORK",40.7533199,-73.9794
661,"HSBC BANK","330 MADISON AVE # 5","NEW YORK",40.7533199,-73.9794
662,"HUA NAN COMMERCIAL BANK","330 MADISON AVE # 38","NEW YORK",40.7533199,-73.9794
663,"CHICAGO PRIVATE BANK & TRUST","5 E 42ND ST","NEW YORK",40.7535,-73.979791
664,"PEACE DIVIDEND TRUST","50 E 42ND ST # 1801","NEW YORK",40.75244,-73.979171
665,"GULF INTERNATIONAL BANK","330 MADISON AVE # 37","NEW YORK",40.7533199,-73.9794
666,"EMIGRANT BANK","5 E 42ND ST","NEW YORK",40.7535,-73.979791
667,"CHASE","60 E 42ND ST # D","NEW YORK",40.752425,-73.978521
668,"MIDTOWN PRIVATE BANK","60 E 42ND ST","NEW YORK",40.752425,-73.978521
669,"MIDFIRST BANK","60 E 42ND ST # 5220","NEW YORK",40.752425,-73.978521
670,"HABIB BANK LTD","60 E 42ND ST # 535","NEW YORK",40.752425,-73.978521
671,"ECOBAN FINANCE LLC","60 E 42ND ST","NEW YORK",40.752425,-73.978521
672,"VALLEY BANK HUDSON","60 E 42ND ST # 1836","NEW YORK",40.752425,-73.978521
673,"BANK OF AMERICA","56 E 42ND ST","NEW YORK",40.75214,-73.978851
674,"WELLS FARGO FINANCIAL","100 PARK AVE # 3","NEW YORK",40.7513399,-73.97892
675,"NORSTAR BANK","56 E 42ND ST","NEW YORK",40.75214,-73.978851
676,"CHOICE FOREX INC","89 E 42ND ST","NEW YORK",40.752143,-73.977566
677,"MERCHANTS BANK OF NEW YORK","555 5TH AVE # 301","NEW YORK",40.755839,-73.979089
678,"SOVEREIGN BANK","550 5TH AVE # A","NEW YORK",40.75579,-73.97961
679,"SAFRA NATIONAL BANK OF NY","546 5TH AVE","NEW YORK",40.75576,-73.979811
680,"BANK LEUMI LEASING CORP","562 5TH AVE","NEW YORK",40.7563099,-73.979281
681,"BANK LEUMI INTL PVT BANKING","564 5TH AVE","NEW YORK",40.75637,-73.979171
682,"BANK LEUMI USA","562 5TH AVE","NEW YORK",40.7563099,-73.979281
683,"IDB BANK","511 5TH AVE","NEW YORK",40.75386,-73.980151
684,"EMIGRANT SAVINGS BANK","6 E 43RD ST # 1","NEW YORK",40.7540119,-73.980203
685,"STATE STREET BANK & TRUST CO","522 5TH AVE","NEW YORK",40.7548099,-73.980641
686,"MANUFACTURERS HANOVER TRUST CO","510 5TH AVE","NEW YORK",40.75412,-73.98089
687,"MADISON PARK GROUP","521 5TH AVE","NEW YORK",40.75416,-73.9798
688,"METROPOLITAN NATIONAL BANK","16 W 46TH ST # 1","NEW YORK",40.75629,-73.98022
689,"CHASE BANK ATM","530 5TH AVE","NEW YORK",40.75522,-73.980131
690,"WELLS FARGO BANK","360 MADISON AVE","NEW YORK",40.75508,-73.978341
691,"BANK OF AMERICA","335 MADISON AVE","NEW YORK",40.753639,-73.978584
692,"JP MORGAN CHASE BANK NA","270 PARK AVE # 12","NEW YORK",40.75597,-73.975961
693,"CHASE","401 MADISON AVE","NEW YORK",40.756264,-73.976666
694,"CHASE","270 PARK AVE","NEW YORK",40.75597,-73.975961
695,"NATIONAL COOPERATIVE BANK FSB","250 PARK AVE # 950","NEW YORK",40.75516,-73.975991
696,"HSBC BANK","250 PARK AVE","NEW YORK",40.75516,-73.975991
697,"NATIONAL COOPERATIVE BANK","250 PARK AVE","NEW YORK",40.75516,-73.975991
698,"COMERICA BANK","230 PARK AVE # 634","NEW YORK",40.754611,-73.975798
699,"BANCO DE LA NACION ARGENTINA","230 PARK AVE # B","NEW YORK",40.754611,-73.975798
700,"HSH NORDBANK","230 PARK AVE # 32","NEW YORK",40.754611,-73.975798
701,"WELLS FARGO BANK","280 PARK AVE # 2900W","NEW YORK",40.7564099,-73.97507
702,"GIBRALTAR PRIVATE BANK & TRUST","280 PARK AVE # 2E","NEW YORK",40.7564099,-73.97507
703,"GILBRALTAR PRIVATE TRUST CO","280 PARK AVE","NEW YORK",40.7564099,-73.97507
704,"LANDESBANK","280 PARK AVE # 31W","NEW YORK",40.7564099,-73.97507
705,"BANKER'S TRUST PRIVATE BANKING","280 PARK AVE","NEW YORK",40.7564099,-73.97507
706,"LANDESBANK BADEN WURTTEMBERT","280 PARK AVE # 31W","NEW YORK",40.7564099,-73.97507
707,"ERSTE BANK","280 PARK AVE # 32W","NEW YORK",40.7564099,-73.97507
708,"WELLS FARGO BANK","299 PARK AVE # 2","NEW YORK",40.7560099,-73.974181
709,"UBS INVESTMENT BANK","299 PARK AVE","NEW YORK",40.7560099,-73.974181
710,"UBS SECURITIES LLC","299 PARK AVE","NEW YORK",40.7560099,-73.974181
711,"NATIONAL BANK OF KUWAIT","299 PARK AVE","NEW YORK",40.7560099,-73.974181
712,"BANK OF NEW YORK MELLON","277 PARK AVE","NEW YORK",40.75519,-73.97414
713,"CHASE","277 PARK AVE # 8","NEW YORK",40.75519,-73.97414
714,"BANK OF INDIA","277 PARK AVE","NEW YORK",40.75519,-73.97414
715,"APPLE BANK","277 PARK AVE","NEW YORK",40.75519,-73.97414
716,"CHEMICAL BANK","277 PARK AVE","NEW YORK",40.75519,-73.97414
717,"SMBC","277 PARK AVE","NEW YORK",40.75519,-73.97414
718,"CHASE","466 LEXINGTON AVE # 2","NEW YORK",40.75381,-73.974404
719,"RABOBANK INTERNATIONAL","245 PARK AVE # 37","NEW YORK",40.75462,-73.974711
720,"S'E BANKEN INTL","245 PARK AVE # 39","NEW YORK",40.75462,-73.974711
721,"SKANDINAVISKA ENSKILDA BANKEN","245 PARK AVE # 4200","NEW YORK",40.75462,-73.974711
722,"NORINCHUKIN BANK","245 PARK AVE # 21","NEW YORK",40.75462,-73.974711
723,"RABO BANK NEDERLAND","245 PARK AVE # 37","NEW YORK",40.75462,-73.974711
724,"NATIONAL AUSTRALIA BANK LTD","245 PARK AVE # 2800","NEW YORK",40.75462,-73.974711
725,"WOORI BANK","245 PARK AVE # 4302","NEW YORK",40.75462,-73.974711
726,"WELLS FARGO FOOTHILL","140 E 45TH ST # 3200","NEW YORK",40.753139,-73.974249
727,"NORTHEAST SAVINGS","441 LEXINGTON AVE","NEW YORK",40.752853,-73.974937
728,"CHASE","405 LEXINGTON AVE # A","NEW YORK",40.751745,-73.975747
729,"CAPITAL ONE BANK","109 E 42ND ST # A","NEW YORK",40.75204,-73.976321
730,"APPLE BANK FOR SAVINGS","122 E 42ND ST # 9","NEW YORK",40.7515599,-73.97648
731,"T C ZIRAAT BANK","122 E 42ND ST # 310","NEW YORK",40.7515599,-73.97648
732,"WELLS FARGO BANK","150 E 42ND ST","NEW YORK",40.751181,-73.975575
733,"UNICREDIT BANK AG","150 E 42ND ST # 32","NEW YORK",40.751181,-73.975575
734,"HYPOVEREINS BANK","150 E 42ND ST # 29","NEW YORK",40.751181,-73.975575
735,"BANK OF AMERICA","425 LEXINGTON AVE","NEW YORK",40.752372,-73.975289
736,"VALLEY NATIONAL BANK","780 3RD AVE # 16","NEW YORK",40.753112,-73.975006
737,"CHASE","125 PARK AVE # 1","NEW YORK",40.753112,-73.975006
738,"US BANK","317 MADISON AVE # 521","NEW YORK",40.753112,-73.975006
739,"TD BANK","685 3RD AVE # 5","NEW YORK",40.753112,-73.975006
740,"TD BANK","317 MADISON AVE # 2","NEW YORK",40.753112,-73.975006
741,"CHANG HWA COMMERCIAL BANK","685 3RD AVE # 29","NEW YORK",40.753112,-73.975006
742,"IYO BANK","780 3RD AVE # 1800","NEW YORK",40.753112,-73.975006
743,"BANK OF YOKOHAMA LTD","780 3RD AVE # 32","NEW YORK",40.753112,-73.975006
744,"AOZORA BANK LTD","780 3RD AVE # 1100","NEW YORK",40.753112,-73.975006
745,"BANK OF KOREA","780 3RD AVE # 2303","NEW YORK",40.753112,-73.975006
746,"GUNMA BANK","780 3RD AVE # 6","NEW YORK",40.753112,-73.975006
747,"WELLS FARGO BANK","666 3RD AVE","NEW YORK",40.75135,-73.97462
748,"CITIBANK","145 E 42ND ST","NEW YORK",40.7513399,-73.97515
749,"BANK OF AMERICA","201 E 42ND ST # 675","NEW YORK",40.7508089,-73.97439
750,"COUNTRY BANK","655 3RD AVE # 9","NEW YORK",40.75025,-73.9744
751,"MITSUI TRUST CO","655 3RD AVE # 26","NEW YORK",40.75025,-73.9744
752,"CHASE","633 3RD AVE","NEW YORK",40.74959,-73.97486
753,"CAPITAL ONE BANK","245 E 34TH ST # 1","NEW YORK",40.74525,-73.976852
754,"SOVEREIGN BANK","250 LEXINGTON AVE","NEW YORK",40.746989,-73.979381
755,"MANUFACTURERS HANOVER TRUST CO","510 3RD AVE","NEW YORK",40.7458649,-73.978103
756,"CHASE","460 PARK AVE S # A","NEW YORK",40.745951,-73.979639
757,"M&T BANK","95 MADISON AVE # 1","NEW YORK",40.745951,-73.979639
758,"CAPITAL ONE BANK","470 PARK AVE S # 1","NEW YORK",40.745951,-73.979639
759,"VALLEY NATIONAL BANK","275 MADISON AVE # 1","NEW YORK",40.745951,-73.979639
760,"TD BANK","475 PARK AVE S # B","NEW YORK",40.745951,-73.979639
761,"SIGNATURE BANK","261 MADISON AVE # 2","NEW YORK",40.7504599,-73.9806
762,"WELLS FARGO BANK","99 PARK AVE","NEW YORK",40.75031,-73.978401
763,"METROPOLITAN NATIONAL BANK","99 PARK AVE # 4","NEW YORK",40.75031,-73.978401
764,"ANCHOR SAVINGS BANK","99 PARK AVE","NEW YORK",40.75031,-73.978401
765,"MANHATTAN CRYO BANK","110 E 40TH ST # 101","NEW YORK",40.750494,-73.977937
766,"CHASE","355 LEXINGTON AVE # B","NEW YORK",40.75016,-73.97646
767,"STERLING NATIONAL BANK","622 3RD AVE # A","NEW YORK",40.75008,-73.97587
768,"SHIN HAN BANK","600 3RD AVE # 17","NEW YORK",40.74935,-73.97595
769,"COUNTRY BANK","902 2ND AVE","NEW YORK",40.75372,-73.968911
770,"TD BANK","919 2ND AVE","NEW YORK",40.754205,-73.969103
771,"CITIBANK","866 UNITED NATIONS PLZ # 3","NEW YORK",40.75257,-73.965931
772,"BANK OF AMERICA","882 1ST AVE","NEW YORK",40.753537,-73.966326
773,"CHASE","900 1ST AVE","NEW YORK",40.75407,-73.965938
774,"CHASE","1 UNITED NATIONS PLZ # 1","NEW YORK",40.751715,-73.967621
775,"CAPITAL ONE BANK","220 E 42ND ST # B","NEW YORK",40.74976,-73.973181
776,"CITIBANK","800 3RD AVE # L1","NEW YORK",40.75563,-73.971341
777,"BANCA D'ITALIA","800 3RD AVE # 26","NEW YORK",40.75563,-73.971341
778,"CITIBANK","734 3RD AVE","NEW YORK",40.753198,-73.972761
779,"CITIBANK","747 3RD AVE","NEW YORK",40.75347,-73.972041
780,"CAIXA GERAL DE DEPOSITOS","733 3RD AVE # 22","NEW YORK",40.75288,-73.972201
781,"CITY BANK","734 3RD AVE","NEW YORK",40.753198,-73.972761
782,"SOVEREIGN BANK","711 3RD AVE # B","NEW YORK",40.7521499,-73.972811
783,"CAPITAL ONE BANK","750 3RD AVE # B","NEW YORK",40.75385,-73.972811
784,"BANK OF AMERICA","750 3RD AVE","NEW YORK",40.75385,-73.972811
785,"WELLS FARGO BANK","757 3RD AVE","NEW YORK",40.75392,-73.97147
786,"HSBC BANK","777 3RD AVE # 1","NEW YORK",40.7547099,-73.971081
787,"CHINOOK EQUITIES","147 E 48TH ST","NEW YORK",40.75515,-73.972906
788,"BANK-FOREIGN ECONOMIC AFFAIRS","777 3RD AVE # 2901","NEW YORK",40.7547099,-73.971081
789,"CTL CAPITAL","767 3RD AVE","NEW YORK",40.75421,-73.97139
790,"FIRST COMMERCIAL BANK","750 3RD AVE # 34","NEW YORK",40.75385,-73.972811
791,"HUDSON BAY CAPITAL","777 3RD AVE # 30","NEW YORK",40.7547099,-73.971081
792,"CHASE","136 FRONT ST","BROOKLYN",40.7023739,-73.98712
793,"SIGNATURE BANK","71 BROADWAY # 1","NEW YORK",40.707472,-74.012026
794,"BANK OF NEW YORK MELLON","1 WALL ST","NEW YORK",40.707712,-74.01173
795,"CHASE","1 WALL ST # 80","NEW YORK",40.707712,-74.01173
796,"FIRST REPUBLIC BANK","80 BROAD ST # D","NEW YORK",40.7043,-74.01186
797,"CHASE","80 BROAD ST","NEW YORK",40.7043,-74.01186
798,"UNITED BANK LTD","80 BROAD ST # 2400","NEW YORK",40.7043,-74.01186
799,"ONTECHNOLOGY","26 BROADWAY","NEW YORK",40.70543,-74.01288
800,"CHASE","23 BROADWAY","NEW YORK",40.705694,-74.013497
801,"CITIBANK","1 BROADWAY # 2","NEW YORK",40.70496,-74.014441
802,"BERKSHIRE BANK","5 BROADWAY","NEW YORK",40.70526,-74.014221
803,"BANK OF AMERICA","29 BROADWAY","NEW YORK",40.70616,-74.0136
804,"BANGKOK BANK PUBLIC CO LTD","29 BROADWAY # 19","NEW YORK",40.70616,-74.0136
805,"STERLING NATIONAL BANK","42 BROADWAY # 4","NEW YORK",40.70598,-74.012571
806,"CHASE","42 BROADWAY # 2","NEW YORK",40.70598,-74.012571
807,"PHILIPPINE NATIONAL BANK","30 BROAD ST # 36","NEW YORK",40.70626,-74.011641
808,"AMALGAMATED BANK","52 BROADWAY # 1","NEW YORK",40.7064299,-74.01221
809,"BANCO CENTRAL HISPANOAMERICANO","50 BROADWAY","NEW YORK",40.70622,-74.01242
810,"MASHREQ BANK PSC","50 BROADWAY # 1500","NEW YORK",40.70622,-74.01242
811,"CHASE","20 BROAD ST","NEW YORK",40.7066,-74.01146
812,"BANK NEGARA INDONESIA","1 EXCHANGE PLZ # 502","NEW YORK",40.706832,-74.012497
813,"BANK OF COMMUNICATIONS","1 EXCHANGE PLZ # 31","NEW YORK",40.706832,-74.012497
814,"CAPITAL ONE BANK","1 BATTERY PARK # 2","NEW YORK",40.703538,-74.013756
815,"AMERICAN BANKER","1 STATE ST # 26","NEW YORK",40.703048,-74.014496
816,"BANCA ANTONIANA POPLARE VENETA","17 STATE ST","NEW YORK",40.70287,-74.013861
817,"GOLDMAN SACHS BANK USA","85 BROAD ST","NEW YORK",40.704002,-74.011496
818,"WELLS FARGO BANK","1 NEW YORK PLZ","NEW YORK",40.7026579,-74.012588
819,"BPD BANK","90 BROAD ST # 5","NEW YORK",40.70379,-74.011951
820,"BPD INTERNATIONAL BANK","90 BROAD ST # 5","NEW YORK",40.70379,-74.011951
821,"BANCO WORLDWIDE CONSULTANTS","2 RECTOR ST # 1701","NEW YORK",40.70809,-74.013161
822,"SIGNATURE BANK","111 BROADWAY # 811","NEW YORK",40.70869,-74.011641
823,"BANK OF INDONESIA","1 LIBERTY PLZ # 3101","NEW YORK",40.709497,-74.011383
824,"BANK OF INDONESIA ADM","1 LIBERTY PLZ # 3101","NEW YORK",40.709497,-74.011383
825,"FEDERAL RESERVE BANK OF NY","33 LIBERTY ST","NEW YORK",40.708153,-74.008702
826,"FEDERAL RESERVE BANK","33 LIBERTY ST","NEW YORK",40.708153,-74.008702
827,"BANK OF JAPAN","140 BROADWAY # 1802","NEW YORK",40.70864,-74.01007
828,"INTERNATIONAL COMMERCIAL BANK","65 LIBERTY ST # 4","NEW YORK",40.70889,-74.009807
829,"MARINE MIDLAND BANK","140 BROADWAY","NEW YORK",40.70864,-74.01007
830,"BANK OF AMERICA","150 BROADWAY","NEW YORK",40.70919,-74.010041
831,"CENTRAL BANK OF CHINA","59 LIBERTY ST","NEW YORK",40.70899,-74.00965
832,"ATLANTIC BANK OF NEW YORK","15 MAIDEN LN # A","NEW YORK",40.70957,-74.00906
833,"STATE STREET BANK & TRUST CO","33 MAIDEN LN # 4","NEW YORK",40.708947,-74.008717
834,"BANK TRADE","33 MAIDEN LN # 9","NEW YORK",40.708947,-74.008717
835,"DEPOSITORY TRUST CO","15 MAIDEN LN","NEW YORK",40.70957,-74.00906
836,"EUROCLEAR BANK","40 WALL ST # 39","NEW YORK",40.70701,-74.00973
837,"CHASE","1 CHASE MANHATTAN PLZ","NEW YORK",40.707284,-74.009638
838,"BB&T","14 WALL ST","NEW YORK",40.7076199,-74.010761
839,"TD BANK","2 WALL ST # 1","NEW YORK",40.7077299,-74.011311
840,"BANCO PORTUGUES DO ATLANTICO","2 WALL ST","NEW YORK",40.7077299,-74.011311
841,"STATE EXPORT IMPORT BANK","14 WALL ST # 20","NEW YORK",40.7076199,-74.010761
842,"SOVEREIGN BANK","2 GOLD ST","NEW YORK",40.707207,-74.007379
843,"CITIBANK","100 WILLIAM ST # 1","NEW YORK",40.708462,-74.007438
844,"HSBC BANK","110 WILLIAM ST","NEW YORK",40.70876,-74.006731
845,"H SB C","110 WILLIAM ST","NEW YORK",40.70876,-74.006731
846,"GUARDIAN TRUST CO FSB","7 HANOVER SQ","NEW YORK",40.70403,-74.009641
847,"CLS BANK INTL","1 FINANCIAL SQ # 21","NEW YORK",40.70353,-74.008106
848,"CHASE","55 WATER ST # 105","NEW YORK",40.7035869,-74.009618
849,"BANK OF NEW YORK","32 OLD SLIP 15F","NEW YORK",40.703807,-74.008236
850,"CHINA TRUST BANK","88 PINE ST","NEW YORK",40.70565,-74.006131
851,"INTESA SANPAOLO","1 WILLIAM ST # 1","NEW YORK",40.70477,-74.010031
852,"CLEARSTREAM BANKING","55 BROAD ST # 8B","NEW YORK",40.70528,-74.01106
853,"CHASE","45 WALL ST # 3","NEW YORK",40.7062,-74.009931
854,"BANK OF NEW YORK","45 WALL ST # 506","NEW YORK",40.7062,-74.009931
855,"DEUTSCHE BANK AMERICAS","60 WALL ST","NEW YORK",40.70625,-74.0085
856,"DEUTSCHE ASSET MANAGEMENT","60 WALL ST","NEW YORK",40.70625,-74.0085
857,"DEUTSCHE BANK","60 WALL ST","NEW YORK",40.70625,-74.0085
858,"NATIONAL BANK OF PAKISTAN","100 WALL ST # 2103","NEW YORK",40.70523,-74.006721
859,"DOHA BANK","100 WALL ST # 1902","NEW YORK",40.70523,-74.006721
860,"LAND BANK OF TAIWAN NY","100 WALL ST","NEW YORK",40.70523,-74.006721
861,"BANK OF TAIWAN","100 WALL ST # 1100","NEW YORK",40.70523,-74.006721
862,"CITIBANK","111 WALL ST","NEW YORK",40.70425,-74.007
863,"CITI PWM","111 WALL ST","NEW YORK",40.70425,-74.007
864,"CHASE","155 WATER ST","NEW YORK",40.706132,-74.005926
865,"NATIONAL BANK-NEW ZEALAND LTD","199 WATER ST","NEW YORK",40.70684,-74.00436
866,"SOVEREIGN BANK","40 WASHINGTON ST","BROOKLYN",40.703205,-73.989673
867,"CHASE","129 MONTAGUE ST","BROOKLYN",40.69495,-73.99403
868,"BANK OF AMERICA","205 MONTAGUE ST","BROOKLYN",40.69419,-73.99088
869,"CHASE","177 MONTAGUE ST","BROOKLYN",40.69456,-73.992061
870,"DIME SAVINGS BANK","188 MONTAGUE ST # G","BROOKLYN",40.69372,-73.991511
871,"FLUSHING SAVINGS BANK","186 MONTAGUE ST # G","BROOKLYN",40.69384,-73.991641
872,"SOVEREIGN BANK","195 MONTAGUE ST # GRD","BROOKLYN",40.694244,-73.99206
873,"HSBC BANK","200 MONTAGUE ST # 2","BROOKLYN",40.69373,-73.9912
874,"TD BANK","205 MONTAGUE ST","BROOKLYN",40.69419,-73.99088
875,"CAPITAL ONE BANK","50 COURT ST # 1","BROOKLYN",40.69243,-73.991541
876,"SIGNATURE BANK","26 COURT ST # GN4","BROOKLYN",40.69339,-73.990941
877,"CHASE","86 COURT ST","BROOKLYN",40.69127,-73.99192
878,"CHASE","101 COURT ST","BROOKLYN",40.690905,-73.991709
879,"SOVEREIGN BANK","215 ATLANTIC AVE","BROOKLYN",40.689696,-73.992187
880,"INVESTORS BANK","81 COURT ST","BROOKLYN",40.6913499,-73.99133
881,"ESQUIRE BANK","64 COURT ST","BROOKLYN",40.69205,-73.99165
882,"INVESTORS SAVINGS BANK","81 COURT ST","BROOKLYN",40.6913499,-73.99133
883,"CITIBANK","390 GREENWICH ST","NEW YORK",40.72079,-74.010136
884,"DEUTSCHE BANK","130 LIBERTY ST","NEW YORK",40.7102199,-74.01297
885,"FIRST REPUBLIC BANK","250 VESEY ST","NEW YORK",40.71401,-74.015831
886,"BANK OF AMERICA","260 GREENWICH ST","NEW YORK",40.7150279,-74.01137
887,"BANK OF AMERICA","270 GREENWICH ST","NEW YORK",40.7153699,-74.011243
888,"BANK OF NEW YORK MELLON","101 BARCLAY ST","NEW YORK",40.713706,-74.011681
889,"WEST LB AG","250 GREENWICH ST # 50","NEW YORK",40.713508,-74.011649
890,"RFN","90 WEST ST","NEW YORK",40.70997,-74.014261
891,"CHASE","331 S END AVE","NEW YORK",40.710572,-74.016265
892,"MID FIRST BANK","2 WORLD FINANCIAL CTR","NEW YORK",40.711364,-74.015168
893,"COMMERZBANK AG","2 WORLD FINANCIAL CTR # 3101","NEW YORK",40.711364,-74.015168
894,"NEW YORK CLEARING HOUSE","2 WORLD FINANCIAL CTR","NEW YORK",40.711364,-74.015168
895,"CHASE","101 BARCLAY ST # 3","NEW YORK",40.713706,-74.011681
896,"BANK OF NEW YORK","101 BARCLAY ST # A","NEW YORK",40.713706,-74.011681
897,"CITIBANK","127 HUDSON ST","NEW YORK",40.720285,-74.00859
898,"SOVEREIGN BANK","108 HUDSON ST","NEW YORK",40.719467,-74.008595
899,"SOVEREIGN BANK","110 HUDSON ST","NEW YORK",40.719544,-74.00858
900,"SUFFOLK COUNTY NATIONAL BANK","137 W BROADWAY","NEW YORK",40.71675,-74.00794
901,"TD BANK","25 HUDSON ST","NEW YORK",40.7165559,-74.00922
902,"SOFT BANK","60 HUDSON ST","NEW YORK",40.717916,-74.008869
903,"VALLEY NATIONAL BANK","90 FRANKLIN ST # 1","NEW YORK",40.718213,-74.005062
904,"CHASE","65 WORTH ST","NEW YORK",40.71707,-74.00583
905,"CHASE","253 BROADWAY # 1","NEW YORK",40.71338,-74.007451
906,"CITIBANK","250 BROADWAY # 1","NEW YORK",40.71298,-74.007811
907,"CHEMICAL BANK","265 BROADWAY","NEW YORK",40.71404,-74.006801
908,"CHASE","214 BROADWAY","NEW YORK",40.710972,-74.008905
909,"ABACUS FEDERAL SAVINGS BANK","116 NASSAU ST","NEW YORK",40.710792,-74.00699
910,"ABACUS BANK","104 NASSAU ST","NEW YORK",40.710562,-74.007311
911,"CITIZENS UNION-CITIZENS UNION","198 BROADWAY","NEW YORK",40.71036,-74.008991
912,"CAPITAL ONE BANK","176 BROADWAY # 3","NEW YORK",40.70982,-74.00949
913,"BANK OF AMERICA","140 NASSAU ST","NEW YORK",40.71126,-74.006324
914,"STERLING NATIONAL BANK","622 3 AV E 40TH ST","NEW YORK",40.712634,-74.009711
915,"FIRST NATIONAL BANK-LONG ISLND","225 BROADWAY # 703","NEW YORK",40.71199,-74.008671
916,"ELLYN BANK","225 BROADWAY # 715","NEW YORK",40.71199,-74.008671
917,"CAPITAL ONE BANK","90 W BROADWAY # A","NEW YORK",40.71549,-74.00959
918,"EMIGRANT SAVINGS BANK","110 CHURCH ST # 1","NEW YORK",40.713308,-74.00931
919,"CHASE","270 BROADWAY # A","NEW YORK",40.714193,-74.006383
920,"BLACK BAG COMMUNICATIONS INC","100 AVENUE OF THE AMERICAS","NEW YORK",40.7233,-74.00439
921,"VALLEY NATIONAL BANK","170 HUDSON ST","NEW YORK",40.7222,-74.008112
922,"CHASE","345 HUDSON ST","NEW YORK",40.727496,-74.007365
923,"EMIGRANT SAVINGS BANK","375 HUDSON ST","NEW YORK",40.728846,-74.00715
924,"CAPITAL ONE BANK","156 BLEECKER ST","NEW YORK",40.72842,-74.00022
925,"CHASE","623 BROADWAY","NEW YORK",40.72607,-73.996811
926,"CITIBANK","555 LAGUARDIA PL","NEW YORK",40.729076,-73.997999
927,"BANKABLE ENTERPRISES","155 SPRING ST # 3B","NEW YORK",40.724498,-74.001678
928,"BANC OF MANHATTAN CAPITAL","400 W BROADWAY","NEW YORK",40.7244,-74.002371
929,"BANK OF AMERICA","589 BROADWAY","NEW YORK",40.72505,-73.997691
930,"CHASE","525 BROADWAY","NEW YORK",40.72304,-73.999161
931,"EMIGRANT SAVINGS BANK","10 DOWNING ST # C","NEW YORK",40.72927,-74.002831
932,"CHASE","204 W 4TH ST","NEW YORK",40.732732,-74.002105
933,"CHASE","340 AVENUE OF THE AMERICAS","NEW YORK",40.73173,-74.000581
934,"CAPITAL ONE BANK","347 AVENUE OF THE AMERICAS","NEW YORK",40.731862,-74.000924
935,"BANK OF NEW YORK","110 WASHINGTON PL","NEW YORK",40.73242,-74.001191
936,"CHASE","32 UNIVERSITY PL","NEW YORK",40.7320059,-73.994527
937,"CAPITAL ONE BANK","21 UNIVERSITY PL","NEW YORK",40.731591,-73.994712
938,"SOVEREIGN BANK","43 E 8TH ST","NEW YORK",40.731341,-73.994015
939,"CHASE","785 BROADWAY","NEW YORK",40.731736,-73.991527
940,"BANK OF AMERICA","770 BROADWAY","NEW YORK",40.731115,-73.991852
941,"WELLS FARGO BANK","784 BROADWAY","NEW YORK",40.731606,-73.991444
942,"VALLEY NATIONAL BANK","111 4TH AVE # 2","NEW YORK",40.732777,-73.989951
943,"CHASE","26 ASTOR PL # 1","NEW YORK",40.72978,-73.991331
944,"EMIGRANT SAVINGS BANK","105 2ND AVE","NEW YORK",40.72769,-73.988721
945,"TAIB BANK","295 LAFAYETTE ST","NEW YORK",40.72439,-73.995815
946,"TD BANK","666 BROADWAY # 1","NEW YORK",40.727191,-73.995182
947,"BANK OF SMITHTOWN","41 E HOUSTON ST","NEW YORK",40.72464,-73.99491
948,"BANK OF AMERICA","72 2ND AVE","NEW YORK",40.72615,-73.989041
949,"CHASE","305 BOWERY","NEW YORK",40.72486,-73.99165
950,"FIRST AMERICAN INTL BANK","29 BOWERY","NEW YORK",40.71459,-73.99703
951,"CITIBANK","2 MOTT ST # C","NEW YORK",40.713522,-73.998507
952,"BANK OF AMERICA","50 BAYARD ST","NEW YORK",40.7153799,-73.997595
953,"CHASE","2 BOWERY","NEW YORK",40.71424,-73.99771
954,"FIRST AMERICAN INTL BANK","79 BAYARD ST # 2","NEW YORK",40.715636,-73.998674
955,"CATHAY BANK","16 E BROADWAY","NEW YORK",40.71368,-73.997171
956,"GREAT EASTERN BANK","16 E BROADWAY # 1","NEW YORK",40.71368,-73.997171
957,"ABACUS FEDERAL SAVINGS BANK","6 BOWERY","NEW YORK",40.714198,-73.997491
958,"ASIA BANK","23 CHATHAM SQ","NEW YORK",40.713941,-73.997742
959,"GLOBAL BANK","30 E BROADWAY","NEW YORK",40.71372,-73.996581
960,"VALLEY NATIONAL BANK","434 BROADWAY # 1","NEW YORK",40.71992,-74.001041
961,"BANK OF AMERICA","277 CANAL ST","NEW YORK",40.719111,-74.001368
962,"CITIBANK","164 CANAL ST","NEW YORK",40.71634,-73.997351
963,"CHASE","180 CANAL ST","NEW YORK",40.716735,-73.997694
964,"UNITED ORIENT BANK","185 CANAL ST # 4","NEW YORK",40.71714,-73.99779
965,"ABACUS FEDERAL SAVINGS BANK","183 CANAL ST # 1","NEW YORK",40.71699,-73.997511
966,"CHINATOWN FEDERAL SAVINGS BANK","172 1/2 CANAL ST","NEW YORK",40.716632,-73.997404
967,"HSBC BANK","254 CANAL ST","NEW YORK",40.71839,-74.000981
968,"TD BANK","254 CANAL ST # 2","NEW YORK",40.71839,-74.000981
969,"HONG KONG BANK","254 CANAL ST","NEW YORK",40.71839,-74.000981
970,"SOVEREIGN BANK","336 BROADWAY","NEW YORK",40.71635,-74.004051
971,"CITIBANK","309 CANAL ST","NEW YORK",40.72006,-74.002231
972,"WELLS FARGO BANK","463 BROADWAY","NEW YORK",40.720899,-74.000693
973,"WELLS FARGO BANK","40 MERCER ST","NEW YORK",40.721323,-74.001303
974,"CHASE","407 BROADWAY","NEW YORK",40.71905,-74.00257
975,"CITIBANK","476 BROADWAY # A","NEW YORK",40.721361,-74.000129
976,"CAPITAL ONE BANK","200 LAFAYETTE ST","NEW YORK",40.7212919,-73.99809
977,"CATHAY BANK","129 LAFAYETTE ST # 1","NEW YORK",40.719137,-73.999801
978,"EAST WEST BANK","208 CANAL ST","NEW YORK",40.717098,-73.998758
979,"BANK OF EAST ASIA","202 CANAL ST # A","NEW YORK",40.71679,-73.99857
980,"CHASE","221 CANAL ST # A","NEW YORK",40.7176159,-73.999278
981,"EAST BANK NA","183 CENTRE ST # 2","NEW YORK",40.718509,-73.999641
982,"HSBC BANK","235 CANAL ST # 1","NEW YORK",40.717994,-73.999803
983,"BANK OF AMERICA","92 DELANCEY ST","NEW YORK",40.71921,-73.98906
984,"EAST WEST BANK","77 BOWERY","NEW YORK",40.71657,-73.99542
985,"TD BANK","155 CANAL ST","NEW YORK",40.716349,-73.99624
986,"EAST WEST BANK","131 BOWERY # 1","NEW YORK",40.7185399,-73.994441
987,"CHINATOWN FEDERAL SAVINGS BANK","109 BOWERY","NEW YORK",40.717767,-73.995062
988,"FIRST AMERICAN INTL BANK","240 GRAND ST","NEW YORK",40.718403,-73.994483
989,"CHASE","231 GRAND ST","NEW YORK",40.7185199,-73.99513
990,"CAPITAL ONE BANK","116 BOWERY","NEW YORK",40.71837,-73.9952
991,"BANK OF AMERICA","318 GRAND ST","NEW YORK",40.717281,-73.990764
992,"HSBC BANK","307 GRAND ST","NEW YORK",40.717376,-73.991479
993,"FIRST AMERICAN INTL BANK","123 E BROADWAY","NEW YORK",40.713821,-73.992311
994,"CATHAY BANK","45 E BROADWAY","NEW YORK",40.71336,-73.995891
995,"VALLEY NATIONAL BANK","93 CANAL ST","NEW YORK",40.715497,-73.993673
996,"BANK OF CHINA","42 E BROADWAY","NEW YORK",40.71377,-73.996
997,"CITIBANK","411 GRAND ST","NEW YORK",40.71586,-73.986592
998,"EMIGRANT SAVINGS BANK","465 GRAND ST","NEW YORK",40.7148,-73.984021
999,"DRYDOCK SAVINGS BANK","465 GRAND ST # 1","NEW YORK",40.7148,-73.984021
1000,"CHASE","109 DELANCEY ST","NEW YORK",40.7183399,-73.98863
1001,"CHASE","104 DELANCEY ST # 106","NEW YORK",40.719,-73.98861
1002,"BANCO POPULAR","134 DELANCEY ST","NEW YORK",40.7183889,-73.987204
1003,"BANCO POPULAR","310 E HOUSTON ST # 1","NEW YORK",40.72151,-73.98321
1004,"CHASE","20 AVENUE A # 1","NEW YORK",40.722903,-73.985741
1005,"SOVEREIGN BANK","57 AVENUE A","NEW YORK",40.724288,-73.984903
1006,"CAPITAL ONE BANK","159 2ND AVE # A","NEW YORK",40.7298,-73.98719
1007,"CHASE","130 2ND AVE","NEW YORK",40.72836,-73.987481
1008,"CHASE","156 2ND AVE # 1","NEW YORK",40.72946,-73.98655
1009,"CHASE","255 1ST AVE","NEW YORK",40.731975,-73.98221
1010,"CITIBANK","262 1ST AVE","NEW YORK",40.732113,-73.981698
1011,"CAPITAL ONE BANK","273 E 3RD ST # W","NEW YORK",40.721658,-73.980391
1012,"CAPITAL ONE BANK","185 BROADWAY","BROOKLYN",40.709895,-73.962021
1013,"SIGNATURE BANK","84 BROADWAY # 1","BROOKLYN",40.71016,-73.965761
1014,"HSBC BANK","252 BEDFORD AVE","BROOKLYN",40.715624,-73.960186
1015,"CARVER FEDERAL SAVINGS BANK","330 JAY ST # 26","BROOKLYN",40.69446,-73.987981
1016,"CHASE","4 CHASE METROTECH CTR","BROOKLYN",40.6935359,-73.983912
1017,"CAPITAL ONE BANK","356 FULTON ST # 1","BROOKLYN",40.69146,-73.98834
1018,"BANK OF AMERICA","350 FULTON ST","BROOKLYN",40.69166,-73.9885
1019,"BANCO POPULAR","166 LIVINGSTON ST","BROOKLYN",40.6899199,-73.987521
1020,"MIDTOWN FUNDING CORP","9 BOND ST","BROOKLYN",40.689388,-73.983093
1021,"MARATHON NATIONAL BANK OF NY","399 ATLANTIC AVE # 1","BROOKLYN",40.686998,-73.984871
1022,"CHASE","9 DEKALB AVE","BROOKLYN",40.69039,-73.98239
1023,"APPLE BANK FOR SAVINGS","414 FLUSHING AVE # 2","BROOKLYN",40.698775,-73.957968
1024,"APPLE BANK FOR SAVINGS","44 LEE AVE","BROOKLYN",40.70609,-73.96079
1025,"BANK OF AMERICA","266 BROADWAY","BROOKLYN",40.70857,-73.959221
1026,"CHASE","225 HAVEMEYER ST","BROOKLYN",40.70909,-73.959059
1027,"DIME SAVINGS BANK","209 HAVEMEYER ST","BROOKLYN",40.709585,-73.958761
1028,"IFC CORP","185 MARCY AVE","BROOKLYN",40.70776,-73.957891
1029,"CHASE","402 MYRTLE AVE","BROOKLYN",40.6929,-73.969591
1030,"CITIBANK","430 MYRTLE AVE # 1","BROOKLYN",40.693094,-73.968431
1031,"CHASE","210 FLUSHING AVE","BROOKLYN",40.69746,-73.96746
1032,"BANK OF AMERICA","449 MYRTLE AVE","BROOKLYN",40.693315,-73.967516
1033,"EMIGRANT SAVINGS BANK","418 MYRTLE AVE","BROOKLYN",40.69289,-73.96904
1034,"SOVEREIGN BANK","200 WILLOUGHBY AVE","BROOKLYN",40.692017,-73.963678
1035,"AMALGAMATED BANK","564 W 125TH ST","NEW YORK",40.815159,-73.957912
1036,"CHASE","2875 BROADWAY # 1","NEW YORK",40.805377,-73.966031
1037,"CHASE","2824 BROADWAY # 26","NEW YORK",40.80358,-73.96655
1038,"BANCO POPULAR","2852 BROADWAY","NEW YORK",40.80453,-73.965961
1039,"TD BANK","2831 BROADWAY","NEW YORK",40.8038989,-73.967111
1040,"BANK OF AMERICA","2380 BROADWAY","NEW YORK",40.7890999,-73.97531
1041,"CHASE","2438 BROADWAY # 1","NEW YORK",40.790766,-73.97442
1042,"HSBC BANK","2411 BROADWAY","NEW YORK",40.790008,-73.975389
1043,"CHASE","2219 BROADWAY","NEW YORK",40.783898,-73.98015
1044,"CHASE","2139 BROADWAY","NEW YORK",40.78156,-73.981651
1045,"TD BANK","2109 BROADWAY # 1","NEW YORK",40.78008,-73.98239
1046,"FIRST REPUBLIC BANK","2160 BROADWAY","NEW YORK",40.7817,-73.980631
1047,"CITIBANK","2350 BROADWAY # 6","NEW YORK",40.78778,-73.976391
1048,"CAPITAL ONE BANK","2379 BROADWAY","NEW YORK",40.789012,-73.976117
1049,"WELLS FARGO BANK","2330 BROADWAY","NEW YORK",40.7873099,-73.97686
1050,"SOVEREIGN BANK","2275 BROADWAY","NEW YORK",40.785698,-73.978793
1051,"CITIBANK","441 COLUMBUS AVE","NEW YORK",40.78332,-73.97406
1052,"CITIGROUP","441 COLUMBUS AVE","NEW YORK",40.78332,-73.97406
1053,"BANCO POPULAR","90 W 96TH ST","NEW YORK",40.792691,-73.967266
1054,"SOVEREIGN BANK","2702 BROADWAY","NEW YORK",40.799309,-73.968253
1055,"CHASE","775 COLUMBUS AVE # 3","NEW YORK",40.794028,-73.966592
1056,"BANK OF AMERICA","2574 BROADWAY","NEW YORK",40.7952429,-73.97115
1057,"CITIBANK","2560 BROADWAY","NEW YORK",40.79473,-73.971211
1058,"CHASE","2551 BROADWAY # 2","NEW YORK",40.79459,-73.972391
1059,"HSBC BANK","739 AMSTERDAM AVE","NEW YORK",40.794004,-73.970321
1060,"TD BANK","2521 BROADWAY # 3","NEW YORK",40.79368,-73.973021
1061,"BANK OF AMERICA","808 COLUMBUS AVE","NEW YORK",40.795154,-73.96593
1062,"BANK OF AMERICA","2770 BROADWAY","NEW YORK",40.80186,-73.967421
1063,"CHASE","12 E 86TH ST # 1","NEW YORK",40.781322,-73.960055
1064,"CHATSWORTH HOLDING LLC","1049 5TH AVE","NEW YORK",40.7810599,-73.959971
1065,"CAPITAL ONE BANK","215 W 91ST ST","NEW YORK",40.791092,-73.973055
1066,"CHASE","59 W 86TH ST","NEW YORK",40.786089,-73.971081
1067,"TD BANK","535 COLUMBUS AVE","NEW YORK",40.786318,-73.97222
1068,"CAPITAL ONE BANK","1999 1ST AVE","NEW YORK",40.787702,-73.941556
1069,"CHASE","1886 EASTCHESTER RD","BRONX",40.85113,-73.84387
1070,"CITIBANK","1275 MADISON AVE","NEW YORK",40.784104,-73.95637
1071,"CITIBANK","123 E 86TH ST","NEW YORK",40.77996,-73.955961
1072,"CHASE","1221 MADISON AVE","NEW YORK",40.782118,-73.95781
1073,"CHASE","181 E 90TH ST # 1","NEW YORK",40.781671,-73.952652
1074,"VALLEY NATIONAL BANK","1569 3RD AVE","NEW YORK",40.78011,-73.952711
1075,"CHASE","2065 2ND AVE","NEW YORK",40.79068,-73.942479
1076,"PONCE DE LEON FEDERAL BANK","1925 3RD AVE","NEW YORK",40.791564,-73.944591
1077,"CHASE","1801 2ND AVE","NEW YORK",40.78275,-73.94856
1078,"NORTH EAST COMMUNITY BANK","1751 2ND AVE # 3","NEW YORK",40.7811809,-73.949416
1079,"BANK OF AMERICA","106 W 117TH ST","NEW YORK",40.80262,-73.94981
1080,"WELLS FARGO BANK","143 MALCOLM X BLVD","NEW YORK",40.8027749,-73.949309
1081,"CARVER FEDERAL SAVINGS BANK","130 MALCOLM X BLVD","NEW YORK",40.80189,-73.94893
1082,"CHASE","1924 3RD AVE","NEW YORK",40.7918199,-73.944831
1083,"HUDSON VALLEY BANK","2256 2ND AVE","NEW YORK",40.7967099,-73.93761
1084,"CITIBANK","2261 1ST AVE","NEW YORK",40.79628,-73.93556
1085,"CHASE","179 E 116TH ST","NEW YORK",40.79839,-73.940331
1086,"BANCO POPULAR","164 E 116TH ST","NEW YORK",40.79837,-73.941164
1087,"CHASE","2195 FREDERICK DOUGLASS BLVD","NEW YORK",40.806036,-73.954278
1088,"SYNERGON 2000 INC","321 W 118TH ST","NEW YORK",40.806038,-73.954996
1089,"CITIBANK","1310 AMSTERDAM AVE","NEW YORK",40.812339,-73.957108
1090,"CHASE","322 W 125TH ST","NEW YORK",40.8104,-73.951849
1091,"CAPITAL ONE BANK","2310 FREDERICK DOUGLASS BLVD","NEW YORK",40.8096699,-73.951111
1092,"CHASE","350 W 125TH ST","NEW YORK",40.81067,-73.9531
1093,"TD BANK","300 W 125TH ST","NEW YORK",40.81014,-73.951238
1094,"CITY NATIONAL BANK-NEW JERSEY","382 W 125TH ST","NEW YORK",40.811126,-73.953554
1095,"BANK OF AMERICA","215 W 125TH ST","NEW YORK",40.80969,-73.94893
1096,"BANCO POPULAR","231 W 125TH ST","NEW YORK",40.8094269,-73.949246
1097,"CITIBANK","201 W 125TH ST # 2","NEW YORK",40.8090929,-73.948455
1098,"CARVER FEDERAL SAVINGS BANK","75 W 125TH ST","NEW YORK",40.80776,-73.94471
1099,"CHASE","55 W 125TH ST","NEW YORK",40.80753,-73.9441
1100,"CHASE","3515 BROADWAY","NEW YORK",40.825811,-73.951094
1101,"BANCO POPULAR","3540 BROADWAY","NEW YORK",40.826395,-73.950292
1102,"CAPITAL ONE BANK","700 SAINT NICHOLAS AVE","NEW YORK",40.8242419,-73.944527
1103,"CHASE","330 W 145TH ST # 1","NEW YORK",40.82322,-73.94346
1104,"CHASE","300 W 135TH ST # 1","NEW YORK",40.81625,-73.947021
1105,"CITIBANK","2481 ADAM CLAYTON POWELL JR BL","NEW YORK",40.82092,-73.93908
1106,"BANK OF AMERICA","301 W 145TH ST","NEW YORK",40.82312,-73.941971
1107,"CARVER FEDERAL SAVINGS BANK","300 W 145TH ST","NEW YORK",40.822807,-73.941983
1108,"CHASE","103 E 125TH ST # 1","NEW YORK",40.80514,-73.93849
1109,"BANK OF AMERICA","157 E 125TH ST","NEW YORK",40.80432,-73.936511
1110,"APPLE BANK FOR SAVINGS","124 E 125TH ST","NEW YORK",40.804584,-73.938051
1111,"CHASE","2218 5TH AVE","NEW YORK",40.812741,-73.937732
1112,"CHASE","270 E 137TH ST","BRONX",40.81013,-73.928071
1113,"BANK OF AMERICA","329 E 149TH ST # A","BRONX",40.81716,-73.92026
1114,"BANK OF AMERICA","200 E 161ST ST & MORRIS AVE","BRONX",40.8221629,-73.921068
1115,"HUDSON VALLEY BANK","369 E 149TH ST","BRONX",40.81661,-73.918691
1116,"CHASE","557 MELROSE AVE","BRONX",40.816636,-73.917589
1117,"CHASE","360 E 149TH ST","BRONX",40.81617,-73.919051
1118,"BANCO POPULAR","2923 3RD AVE","BRONX",40.817456,-73.9158
1119,"EMIGRANT SAVINGS BANK","370 E 149TH ST # 1","BRONX",40.81609,-73.918751
1120,"NEW YORK NATIONAL BANK","369 E 149TH ST","BRONX",40.81661,-73.918691
1121,"99 CENT VALUE","3251 3RD AVE # 1","BRONX",40.82437,-73.908931
1122,"BANK OF AMERICA","210 DYCKMAN ST","NEW YORK",40.865265,-73.927152
1123,"CHASE","1755 DR MARTIN L KING JR BLVD","BRONX",40.850169,-73.916157
1124,"APPLE BANK FOR SAVINGS","3815 BROADWAY","NEW YORK",40.8352169,-73.944218
1125,"CAPITAL ONE BANK","620 W 181ST ST # 3","NEW YORK",40.849547,-73.934413
1126,"BANCO POPULAR","615 W 181ST ST # 1","NEW YORK",40.849566,-73.93416
1127,"CHASE","1421 SAINT NICHOLAS AVE","NEW YORK",40.849367,-73.933779
1128,"CHASE","180 FORT WASHINGTON AVE # 1","NEW YORK",40.84069,-73.94164
1129,"CHASE","3940 BROADWAY # 1","NEW YORK",40.83924,-73.94036
1130,"BANK OF AMERICA","4061 BROADWAY","NEW YORK",40.843251,-73.939247
1131,"BANCO POPULAR","4043 BROADWAY","NEW YORK",40.842526,-73.939301
1132,"BANCO POPULAR","1200 SAINT NICHOLAS AVE","NEW YORK",40.84233,-73.938371
1133,"NEW YORK COMMUNITY BANK","4246 BROADWAY","NEW YORK",40.849706,-73.936095
1134,"ATLANTIC BANK OF NEW YORK","4246 BROADWAY","NEW YORK",40.849706,-73.936095
1135,"CITIBANK","4249 BROADWAY","NEW YORK",40.84992,-73.93636
1136,"APPLE BANK FOR SAVINGS","706 W 181ST ST","NEW YORK",40.850253,-73.936105
1137,"BERKSHIRE BANK","210 PINEHURST AVE","NEW YORK",40.8552199,-73.93801
1138,"CHASE","596 FORT WASHINGTON AVE","NEW YORK",40.854982,-73.936854
1139,"APPLE BANK FOR SAVINGS","4950 BROADWAY","NEW YORK",40.867805,-73.920649
1140,"CITIGROUP TECHNOLOGY INC","4949 BROADWAY","NEW YORK",40.867876,-73.920802
1141,"CHASE","161 DYCKMAN ST","NEW YORK",40.86394,-73.925831
1142,"CAPITAL ONE BANK","211 DYCKMAN ST","NEW YORK",40.865177,-73.926939
1143,"BANCO POPULAR","175 DYCKMAN ST # 1","NEW YORK",40.86418,-73.925991
1144,"CHASE","570 W 207TH ST","NEW YORK",40.8665599,-73.920561
1145,"EMIGRANT SAVINGS BANK","2526 GRAND CONCOURSE","BRONX",40.862915,-73.896508
1146,"CITIBANK","2481 CRESTON AVE","BRONX",40.86263,-73.898511
1147,"CAPITAL ONE BANK","151 E FORDHAM RD","BRONX",40.862457,-73.897848
1148,"CHASE","128 E FORDHAM RD","BRONX",40.86201,-73.898081
1149,"HSDC BANK","1 E FORDHAM RD","BRONX",40.86283,-73.900301
1150,"CHASE","5 W BURNSIDE AVE","BRONX",40.853895,-73.907593
1151,"REMESAS QUISQUEYANA INC","2110 GRAND CONCOURSE","BRONX",40.8539149,-73.902117
1152,"CHASE","75 E 161ST ST","BRONX",40.827753,-73.924964
1153,"CHASE","76 E 161ST ST","BRONX",40.82703,-73.924871
1154,"APPLE BANK FOR SAVINGS","44 E 161ST ST","BRONX",40.827573,-73.926035
1155,"PONCE DE LEON FEDERAL BANK","30 E 170TH ST","BRONX",40.839822,-73.916786
1156,"EMIGRANT SAVINGS BANK","101 E 170TH ST","BRONX",40.83966,-73.915491
1157,"CAPITAL ONE BANK","19 E MOUNT EDEN AVE","BRONX",40.8441869,-73.91418
1158,"CAPITAL ONE BANK","2159 WHITE PLAINS RD","BRONX",40.85535,-73.86806
1159,"CHASE","2126 WHITE PLAINS RD","BRONX",40.854138,-73.86764
1160,"BANK OF AMERICA","2198 WHITE PLAINS RD","BRONX",40.856578,-73.867559
1161,"TD BANK","650 PELHAM PKWY S","BRONX",40.8565679,-73.868357
1162,"AMALGAMATED BANK","2178 WHITE PLAINS RD","BRONX",40.855884,-73.867581
1163,"APPLE BANK FOR SAVINGS","626 PELHAM PKWY S","BRONX",40.85636,-73.868371
1164,"CITIBANK","1463 SOUTHERN BLVD","BRONX",40.83276,-73.890881
1165,"CHASE","74 HORIZON PLZ","BRONX",40.836471,-73.88511
1166,"CHASE","695 E TREMONT AVE","BRONX",40.845531,-73.891208
1167,"MONEY GRAM OF NEW YORK","689 E TREMONT AVE","BRONX",40.845614,-73.891376
1168,"CHASE","601 E TREMONT AVE # 1","BRONX",40.84648,-73.892961
1169,"BANCO POPULAR","752 E TREMONT AVE","BRONX",40.84427,-73.88939
1170,"CHASE","1536 WESTCHESTER AVE","BRONX",40.82835,-73.878321
1171,"BANK OF AMERICA","1620 WESTCHESTER AVE","BRONX",40.82936,-73.874191
1172,"TD BANK","640 E FORDHAM RD","BRONX",40.857943,-73.883766
1173,"CHASE","2402 ARTHUR AVE","BRONX",40.85561,-73.886931
1174,"NORTH EAST COMMUNITY BANK","590 E 187TH ST","BRONX",40.85548,-73.887841
1175,"CHASE","257 E FORDHAM RD","BRONX",40.8622869,-73.895705
1176,"BANK OF AMERICA","248 E FORDHAM RD","BRONX",40.86195,-73.89575
1177,"BANCO POPULAR","301 E FORDHAM RD","BRONX",40.8624499,-73.89481
1178,"EMIGRANT BANK","2530 GRAND CONCOURSE","BRONX",40.86347,-73.895761
1179,"CHASE","66 E KINGSBRIDGE RD","BRONX",40.86642,-73.895781
1180,"FBHC","2751 GRAND CONCOURSE","BRONX",40.86845,-73.89332
1181,"CITIBANK","234 E 198TH ST","BRONX",40.86915,-73.889801
1182,"CHASE","748 ALLERTON AVE","BRONX",40.865406,-73.865427
1183,"CITIBANK","704 ALLERTON AVE","BRONX",40.865398,-73.86702
1184,"CHASE","699 ALLERTON AVE","BRONX",40.865507,-73.867576
1185,"BANK OF AMERICA","700 ALLERTON AVE","BRONX",40.865398,-73.867162
1186,"RIDGEWOOD SAVINGS BANK","711 ALLERTON AVE","BRONX",40.86569,-73.866681
1187,"BANK OF AMERICA","299 E 204TH ST","BRONX",40.873113,-73.878596
1188,"CHASE","311 E 204TH ST","BRONX",40.8729,-73.87807
1189,"CHASE","1308 E GUN HILL RD","BRONX",40.87115,-73.84836
1190,"CHASE","1650 E GUN HILL RD","BRONX",40.866585,-73.838878
1191,"RIDGEWOOD SAVINGS BANK","1770 E GUN HILL RD","BRONX",40.86347,-73.834921
1192,"CAPITAL ONE BANK","1941 WILLIAMSBRIDGE RD","BRONX",40.85302,-73.853931
1193,"TD BANK","1864 WILLIAMSBRIDGE RD","BRONX",40.85217,-73.85239
1194,"CITIBANK","1800 WILLIAMSBRIDGE RD","BRONX",40.85081,-73.851361
1195,"HUDSON VALLEY BANK","3130 E TREMONT AVE","BRONX",40.83793,-73.835311
1196,"CHASE","1489 METROPOLITAN AVE","BRONX",40.8372449,-73.860793
1197,"BANK OF AMERICA","65 METROPOLITAN OVAL","BRONX",40.83795,-73.860604
1198,"CHASE","11 HUGH J GRANT CIR","BRONX",40.833579,-73.861341
1199,"SOVEREIGN BANK","1416 EAST AVE","BRONX",40.835798,-73.860379
1200,"EMIGRANT SAVINGS BANK","74 HUGH J GRANT CIR","BRONX",40.83256,-73.860171
1201,"BANCO POPULAR","1170 CASTLE HILL AVE","BRONX",40.83166,-73.850591
1202,"CHASE","1309 CASTLE HILL AVE","BRONX",40.83457,-73.851852
1203,"CITIBANK","1265 CASTLE HILL AVE","BRONX",40.833441,-73.851461
1204,"PONCE DE LEON FEDERAL BANK","2244 WESTCHESTER AVE","BRONX",40.8340099,-73.850451
1205,"RIDGEWOOD SAVINGS BANK","1010 MORRIS PARK AVE # 1","BRONX",40.848215,-73.855871
1206,"CROSS COUNTY SAVINGS BANK","791 MORRIS PARK AVE","BRONX",40.8461,-73.862931
1207,"CHASE","1068 MORRIS PARK AVE","BRONX",40.8488399,-73.853851
1208,"RIDGEWOOD SAVINGS BANK","1134 MORRIS PARK AVE","BRONX",40.84998,-73.85148
1209,"HUDSON VALLEY BANK","1250 WATERS PL","BRONX",40.846343,-73.842378
1210,"CHASE","2700 E TREMONT AVE","BRONX",40.84247,-73.846051
1211,"CHASE","2725 E TREMONT AVE","BRONX",40.84261,-73.844881
1212,"CAPITAL ONE BANK","35 WESTCHESTER SQ","BRONX",40.84138,-73.84379
1213,"APPLE BANK FOR SAVINGS","12 WESTCHESTER SQ","BRONX",40.840343,-73.843395
1214,"RIDGEWOOD SAVINGS BANK","1626 BRUCKNER BLVD","BRONX",40.82396,-73.874172
1215,"CITIBANK","550 HUNTS POINT AVE","BRONX",40.8117699,-73.882361
1216,"CHASE","1355 OAKPOINT AVE","BRONX",40.81098,-73.883191
1217,"SIGNATURE BANK","421 HUNTS POINT AVE","BRONX",40.8098,-73.881371
1218,"CHASE","1051 WESTCHESTER AVE # 7","BRONX",40.824382,-73.892599
1219,"PONCE DE LEON FEDERAL BANK","952 SOUTHERN BLVD # 201","BRONX",40.821464,-73.891576
1220,"BANCO POPULAR","1046 SOUTHERN BLVD","BRONX",40.82416,-73.89129
1221,"BANK OF POPULAR","1046 SOUTHERN BLVD","BRONX",40.82416,-73.89129
1222,"NYNB BANK","1042 WESTCHESTER AVE","BRONX",40.8246249,-73.891872
1223,"DIME SAVINGS BANK","1931 TURNBULL AVE","BRONX",40.822958,-73.857465
1224,"CHASE","784 CASTLE HILL AVE","BRONX",40.822927,-73.848865
1225,"CITIBANK","13505 20TH AVE","FLUSHING",40.78167,-73.849047
1226,"CAPITAL ONE BANK","12203 14TH AVE","FLUSHING",40.785413,-73.845778
1227,"CHASE","13201 14TH AVE # A","FLUSHING",40.785413,-73.845778
1228,"CHASE","970 BEDFORD AVE","BROOKLYN",40.69163,-73.955861
1229,"DIME SAVINGS BANK-WILLIAMSBURG","275 S 5TH ST","BROOKLYN",40.709221,-73.957744
1230,"DIME SAVINGS BANK","150 MARCY AVE","BROOKLYN",40.70956,-73.957571
1231,"DIME SAVINGS BANK","275 S 5TH ST","BROOKLYN",40.709221,-73.957744
1232,"BANCO POPULAR","15 GRAHAM AVE","BROOKLYN",40.70186,-73.942651
1233,"BANK OF AMERICA","47 GRAHAM AVE","BROOKLYN",40.703059,-73.942563
1234,"CHASE","12 GRAHAM AVE","BROOKLYN",40.7012,-73.94186
1235,"CROSS COUNTY SAVINGS BANK","175 BEDFORD AVE","BROOKLYN",40.71794,-73.957221
1236,"CROSS COUNTY SAVINGS BANK","731 METROPOLITAN AVE","BROOKLYN",40.7147,-73.944721
1237,"BUILDERS BANK","190 CONSELYEA ST","BROOKLYN",40.715287,-73.943292
1238,"CHASE","726 GRAND ST","BROOKLYN",40.711581,-73.943848
1239,"APPLE BANK FOR SAVINGS","776 MANHATTAN AVE","BROOKLYN",40.7272409,-73.952677
1240,"SOVEREIGN BANK","717 MANHATTAN AVE # 2","BROOKLYN",40.72585,-73.952311
1241,"DIME SAVINGS BANK","814 MANHATTAN AVE # 1","BROOKLYN",40.7283,-73.953091
1242,"BANK OF AMERICA","826 MANHATTAN AVE","BROOKLYN",40.72858,-73.953201
1243,"CHASE","798 MANHATTAN AVE","BROOKLYN",40.727773,-73.952993
1244,"CITIBANK","836 MANHATTAN AVE # A","BROOKLYN",40.72881,-73.953271
1245,"CAPITAL ONE BANK","807 MANHATTAN AVE","BROOKLYN",40.72778,-73.953591
1246,"HSBC BANK","896 MANHATTAN AVE # 36","BROOKLYN",40.73007,-73.953881
1247,"CHASE","819 GRAND ST # 1","BROOKLYN",40.7120019,-73.940634
1248,"CHASE","6602 GRAND AVE","FLUSHING",40.71649,-73.922778
1249,"CHASE","6955 GRAND AVE","FLUSHING",40.71649,-73.922778
1250,"VALLEY NATIONAL BANK","6401 GRAND AVE","FLUSHING",40.71649,-73.922778
1251,"VALLEY NATIONAL BANK","4901 GRAND AVE","MASPETH",40.71649,-73.922778
1252,"CHASE","5412 48TH ST","FLUSHING",40.720393,-73.922301
1253,"AMALGAMATED BANK","6973 GRAND AVE","MASPETH",40.71649,-73.922778
1254,"BANCO POPULAR","918 SENECA AVE","RIDGEWOOD",40.7105309,-73.920748
1255,"VALLEY NATIONAL BANK","6309 FLUSHING AVE","MASPETH",40.713502,-73.915677
1256,"CROSS COUNTY SAVINGS BANK","6020 FRESH POND RD","FLUSHING",40.7146299,-73.901157
1257,"CROSS COUNTY FEDERAL SAVINGS","6041 FRESH POND RD","FLUSHING",40.7146299,-73.901157
1258,"CITIBANK","5110 METROPOLITAN AVE # 1","FLUSHING",40.7127119,-73.900609
1259,"CHASE","5115 METROPOLITAN AVE","RIDGEWOOD",40.7127119,-73.900609
1260,"CHASE","7407 ELIOT AVE","MIDDLE VILLAGE",40.7146299,-73.901157
1261,"CROSS COUNTY SAVINGS BANK","8010 ELIOT AVE","FLUSHING",40.7146299,-73.901157
1262,"BANK OF AMERICA","880 QUINCY ST","BROOKLYN",40.6897699,-73.92384
1263,"BANK OF AMERICA","386 KNICKERBOCKER AVE","BROOKLYN",40.69992,-73.920811
1264,"CITIBANK","1455 MYRTLE AVE # 1","BROOKLYN",40.69909,-73.91764
1265,"CAPITAL ONE BANK","315 WYCKOFF AVE # 1","BROOKLYN",40.70039,-73.911701
1266,"CAPITAL ONE BANK","7001 FOREST AVE # 1","FLUSHING",40.698551,-73.896907
1267,"RIDGEWOOD SAVINGS BANK","7102 FOREST AVE","RIDGEWOOD",40.698551,-73.896907
1268,"BANK OF AMERICA","7011 MYRTLE AVE","GLENDALE",40.699554,-73.911068
1269,"BANK OF AMERICA","5901 MYRTLE AVE","RIDGEWOOD",40.699554,-73.911068
1270,"CAPITAL ONE BANK","7024 MYRTLE AVE","GLENDALE",40.699554,-73.911068
1271,"NEW YORK COMMERCIAL BANK","5732 MYRTLE AVE","FLUSHING",40.699554,-73.911068
1272,"CHASE","6067 MYRTLE AVE","FLUSHING",40.699554,-73.911068
1273,"RIDGEWOOD SAVINGS BANK","6710 MYRTLE AVE","GLENDALE",40.699554,-73.911068
1274,"TD BANK","5801 MYRTLE AVE","FLUSHING",40.699554,-73.911068
1275,"AMALGAMATED BANK","5623 MYRTLE AVE","RIDGEWOOD",40.699554,-73.911068
1276,"RIDGEWOOD SAVINGS BANK","6501 MYRTLE AVE","GLENDALE",40.699554,-73.911068
1277,"FIRST CENTRAL SAVINGS BANK","5802 MYRTLE AVE # 1","FLUSHING",40.699554,-73.911068
1278,"BANK AUDI","4215 CRESCENT ST","LONG ISLAND CITY",40.739551,-73.945308
1279,"BANK OF AMERICA","2410 JACKSON AVE","LONG ISLAND CITY",40.741643,-73.954211
1280,"CHASE","1051 JACKSON AVE","LONG ISLAND CITY",40.741643,-73.954211
1281,"SOVEREIGN BANK","2429 JACKSON AVE","LONG ISLAND CITY",40.741643,-73.954211
1282,"MANUFACTURERS & TRADERS TRUST","1030 JACKSON AVE","LONG ISLAND CITY",40.741643,-73.954211
1283,"CITIBANK","1 COURT SQ # 7","LONG ISLAND CITY",40.746591,-73.943892
1284,"CHASE","2515 QUEENS PLZ N # 1B","LONG ISLAND CITY",40.749671,-73.936177
1285,"QUEENS COUNTY SAVINGS BANK","4202 NORTHERN BLVD # G","LONG ISLAND CITY",40.749743,-73.93611
1286,"MARATHON NATIONAL BANK OF NY","3133 31ST ST","ASTORIA",40.75497,-73.931048
1287,"SIGNATURE BANK","3636 33RD ST # 400","LONG ISLAND CITY",40.754123,-73.92954
1288,"BANK OF AMERICA","4526 GREENPOINT AVE","SUNNYSIDE",40.738601,-73.927246
1289,"METROPOLITAN NATIONAL BANK","4709 30TH ST # 500","LONG ISLAND CITY",40.7381229,-73.938657
1290,"LCR INC","3814 30TH ST # C","LONG ISLAND CITY",40.7381229,-73.938657
1291,"AMALGAMATED BANK","3618 21ST ST","ASTORIA",40.758744,-73.937948
1292,"AMALGAMATED BANK","619 MAIN ST","NEW YORK",40.763445,-73.948568
1293,"CITIBANK","1285 1ST AVE","NEW YORK",40.76618,-73.957571
1294,"CHASE","1324 YORK AVE","NEW YORK",40.765961,-73.954319
1295,"BANK OF AMERICA","1330 1ST AVE","NEW YORK",40.76723,-73.95606
1296,"CHASE","360 E 72ND ST","NEW YORK",40.7681369,-73.956931
1297,"CAPITAL ONE BANK","1345 3RD AVE # 1","NEW YORK",40.77299,-73.955559
1298,"CAPITAL ONE BANK","1510 2ND AVE","NEW YORK",40.773,-73.954921
1299,"WELLS FARGO BANK","1370 3RD AVE","NEW YORK",40.773651,-73.957835
1300,"TD BANK","1470 2ND AVE","NEW YORK",40.771756,-73.956121
1301,"NORTH EAST COMMUNITY BANK","1470 1ST AVE # 1","NEW YORK",40.77059,-73.95358
1302,"APPLE BANK FOR SAVINGS","1555 1ST AVE","NEW YORK",40.773569,-73.951874
1303,"CAPITAL ONE BANK","1432 2ND AVE","NEW YORK",40.770511,-73.957034
1304,"RIDGEWOOD SAVINGS BANK","1404 2ND AVE","NEW YORK",40.76948,-73.95745
1305,"CITIBANK","1512 1ST AVE","NEW YORK",40.77203,-73.952501
1306,"CITI PWM","1512 1ST AVE","NEW YORK",40.77203,-73.952501
1307,"CHASE","1495 YORK AVE","NEW YORK",40.771581,-73.950381
1308,"CITIBANK","1445 3RD AVE","NEW YORK",40.775972,-73.955986
1309,"CHASE","201 E 79TH ST","NEW YORK",40.774301,-73.957186
1310,"CENTRAL FEDERAL SAVINGS","1388 3RD AVE","NEW YORK",40.774288,-73.957366
1311,"CHASE","126 E 86TH ST","NEW YORK",40.7796589,-73.956112
1312,"CAPITAL ONE BANK","1536 3RD AVE # 2","NEW YORK",40.77927,-73.954051
1313,"BANK OF AMERICA","1275 LEXINGTON AVE","NEW YORK",40.7792919,-73.955649
1314,"TD BANK","1504 3RD AVE","NEW YORK",40.778018,-73.954653
1315,"CHASE","255 E 86TH ST","NEW YORK",40.778354,-73.95272
1316,"SOVEREIGN BANK","225 E 86TH ST # A","NEW YORK",40.77859,-73.95267
1317,"CHASE","453 E 86TH ST","NEW YORK",40.776427,-73.948144
1318,"RIDGEWOOD SAVINGS BANK","1646 1ST AVE # 1","NEW YORK",40.77638,-73.94933
1319,"CAPITAL ONE BANK","3117 BROADWAY","ASTORIA",40.759721,-73.920596
1320,"CHASE","2121 BROADWAY","LONG ISLAND CITY",40.759721,-73.920596
1321,"CHASE","3212 BROADWAY # 1","ASTORIA",40.759721,-73.920596
1322,"PONCE DE LEON FEDERAL BANK","3405 BROADWAY # A","LONG ISLAND CITY",40.759721,-73.920596
1323,"MARATHON NATIONAL BANK OF NY","3101 BROADWAY","LONG ISLAND CITY",40.759721,-73.920596
1324,"QUONTIC BANK","3105 BROADWAY","ASTORIA",40.759721,-73.920596
1325,"MARATHON NATIONAL BANK","3101 BROADWAY # 1","ASTORIA",40.759721,-73.920596
1326,"MARATHON BANK","3204 BROADWAY","LONG ISLAND CITY",40.759721,-73.920596
1327,"INVESTOR SAVINGS BANK","3502 BROADWAY","ASTORIA",40.759721,-73.920596
1328,"SOVEREIGN BANK","2428 34TH AVE","LONG ISLAND CITY",40.757432,-73.922469
1329,"BANK OF AMERICA","3181 STEINWAY ST","ASTORIA",40.756683,-73.92086
1330,"CHASE","2856 STEINWAY ST","ASTORIA",40.756683,-73.92086
1331,"ROSLYN SAVINGS BANK","3142 STEINWAY ST","LONG ISLAND CITY",40.756683,-73.92086
1332,"ATLANTIC BANK OF NEW YORK","2807 STEINWAY ST","LONG ISLAND CITY",40.756683,-73.92086
1333,"CITIBANK","2591 STEINWAY ST","ASTORIA",40.756683,-73.92086
1334,"ATLANTIC BANK OF NEW YORK","3018 STEINWAY ST","ASTORIA",40.756683,-73.92086
1335,"CAPITAL ONE BANK","3098 STEINWAY ST","ASTORIA",40.756683,-73.92086
1336,"TD BANK","3190 STEINWAY ST","ASTORIA",40.756683,-73.92086
1337,"BANCO POPULAR","2836 STEINWAY ST","LONG ISLAND CITY",40.756683,-73.92086
1338,"MARATHON NATIONAL BANK OF NY","2822 STEINWAY ST","ASTORIA",40.756683,-73.92086
1339,"ALMA BANK","2831 31ST ST","ASTORIA",40.764342,-73.923459
1340,"CHASE","3105 30TH AVE # 1","LONG ISLAND CITY",40.766144,-73.919789
1341,"FLUSHING SAVINGS BANK","3116 30TH AVE # A","ASTORIA",40.766144,-73.919789
1342,"CHASE","2230 31ST ST","ASTORIA",40.77229,-73.915399
1343,"CITIBANK","2216 31ST ST","ASTORIA",40.77229,-73.915399
1344,"CHASE","2245 31ST ST # 5","ASTORIA",40.77229,-73.915399
1345,"CAPITAL ONE BANK","2204 31ST ST","ASTORIA",40.77229,-73.915399
1346,"SOVEREIGN BANK","2259 31ST ST","LONG ISLAND CITY",40.77229,-73.915399
1347,"INVESTORS BANK","2302 31ST ST # 3","ASTORIA",40.77229,-73.915399
1348,"BANK OF AMERICA","1950 37TH ST","ASTORIA",40.7700329,-73.912167
1349,"ATLANTIC BANK OF NEW YORK","2910 DITMARS BLVD","ASTORIA",40.768811,-73.900329
1350,"TD BANK","3104 DITMARS BLVD","ASTORIA",40.768811,-73.900329
1351,"MARATHON NATIONAL BANK OF NY","3302 DITMARS BLVD","LONG ISLAND CITY",40.768811,-73.900329
1352,"RIDGEWOOD SAVINGS BANK","4314 DITMARS BLVD","LONG ISLAND CITY",40.768811,-73.900329
1353,"ALMA BANK","2820 DITMARS BLVD","LONG ISLAND CITY",40.768811,-73.900329
1354,"CHASE","7701 31ST AVE","FLUSHING",40.758061,-73.897188
1355,"SOVEREIGN BANK","7515 31ST AVE","FLUSHING",40.758061,-73.897188
1356,"CITIBANK","3818 QUEENS BLVD","LONG ISLAND CITY",40.743882,-73.92619
1357,"STERLING NATIONAL BANK","3000 47TH AVE # 107","LONG ISLAND CITY",40.742022,-73.926546
1358,"WOORI AMERICA BANK","4322 50TH ST # 1A","FLUSHING",40.740733,-73.915386
1359,"CHASE","4610 QUEENS BLVD","LONG ISLAND CITY",40.742802,-73.916899
1360,"CAPITAL ONE BANK","4020 QUEENS BLVD","SUNNYSIDE",40.742802,-73.916899
1361,"CHASE","4711 QUEENS BLVD","LONG ISLAND CITY",40.742802,-73.916899
1362,"DIME SAVINGS BANK","4514 46TH ST","LONG ISLAND CITY",40.743012,-73.918709
1363,"FIRST CENTRAL SAVINGS","4508 46TH ST","SUNNYSIDE",40.743012,-73.918709
1364,"BBCN BANK","5015 ROOSEVELT AVE","WOODSIDE",40.743052,-73.916141
1365,"PHILIPPINE NATIONAL BANK","6918 ROOSEVELT AVE","FLUSHING",40.743052,-73.916141
1366,"METROPOLITAN BANK & TRUST CO","6911 ROOSEVELT AVE","FLUSHING",40.743052,-73.916141
1367,"BANK OF AMERICA","3018 36TH AVE","ASTORIA",40.754341,-73.924959
1368,"HSBC BANK","2215 43RD AVE","LONG ISLAND CITY",40.7457639,-73.925798
1369,"RBC","2310 43RD AVE","LONG ISLAND CITY",40.7457639,-73.925798
1370,"CHASE","3818 BROADWAY","ASTORIA",40.7556039,-73.91181
1371,"SOVEREIGN BANK","3710 BROADWAY","LONG ISLAND CITY",40.7556039,-73.91181
1372,"ALMA BANK","4102 BROADWAY","ASTORIA",40.7556039,-73.91181
1373,"CITIBANK","5131 NORTHERN BLVD","FLUSHING",40.752963,-73.910249
1374,"HSBC BANK","5120 NORTHERN BLVD","FLUSHING",40.752963,-73.910249
1375,"TD BANK","9415 NORTHERN BLVD","FLUSHING",40.75439,-73.896518
1376,"SOVEREIGN BANK","8901 NORTHERN BLVD","FLUSHING",40.75439,-73.896518
1377,"TD BANK","7005 NORTHERN BLVD","FLUSHING",40.75439,-73.896518
1378,"QUEENS COUNTY BANK","7602 NORTHERN BLVD","FLUSHING",40.75439,-73.896518
1379,"CHASE","5926 WOODSIDE AVE","FLUSHING",40.749083,-73.90991
1380,"BANCO POPULAR","8322 BAXTER AVE","FLUSHING",40.743953,-73.885078
1381,"QUEENS COUNTY SAVINGS BANK","6010 QUEENS BLVD","FLUSHING",40.7389529,-73.889847
1382,"BANK OF AMERICA","3741 82ND ST","JACKSON HEIGHTS",40.747633,-73.883928
1383,"CHASE","3715 82ND ST","FLUSHING",40.747633,-73.883928
1384,"CAPITAL ONE BANK","3702 82ND ST","FLUSHING",40.747633,-73.883928
1385,"CHASE","3770 82ND ST","FLUSHING",40.747633,-73.883928
1386,"PONCE DE LEON FEDERAL BANK","3760 82ND ST","FLUSHING",40.747633,-73.883928
1387,"CHASE","3767 75TH ST","FLUSHING",40.746951,-73.890488
1388,"CITIBANK","3757 74TH ST","FLUSHING",40.746674,-73.89139
1389,"CITIBANK","8019 ROOSEVELT AVE","FLUSHING",40.74654,-73.89432
1390,"BBCN BANK","7814 ROOSEVELT AVE # A","FLUSHING",40.74654,-73.89432
1391,"SOVEREIGN BANK","8320 ROOSEVELT AVE","FLUSHING",40.74654,-73.89432
1392,"REMESAS QUISQUEYANA INC","9548 ROOSEVELT AVE","FLUSHING",40.74654,-73.89432
1393,"SIGNATURE BANK","7827 37TH AVE # 2","FLUSHING",40.748583,-73.895507
1394,"DIME SAVINGS BANK","7523 37TH AVE","FLUSHING",40.748583,-73.895507
1395,"AMALGAMATED BANK","7801 37TH AVE","JACKSON HEIGHTS",40.748583,-73.895507
1396,"HABIB AMERICAN BANK","7409 37TH AVE","FLUSHING",40.748583,-73.895507
1397,"HSBC BANK","7627 37TH AVE","FLUSHING",40.748583,-73.895507
1398,"TD BANK","7314 37TH AVE","FLUSHING",40.748583,-73.895507
1399,"CHASE","7906 BROADWAY","ELMHURST",40.736781,-73.877588
1400,"HSBC BANK","8626 BROADWAY","FLUSHING",40.736781,-73.877588
1401,"HSBC BANK","8257 BROADWAY","FLUSHING",40.736781,-73.877588
1402,"ASIA BANK","8262 BROADWAY","FLUSHING",40.736781,-73.877588
1403,"AMERASIA BANK","8626 BROADWAY","FLUSHING",40.736781,-73.877588
1404,"VALLEY NATIONAL BANK","7520 ASTORIA BLVD # 160A","EAST ELMHURST",40.76427,-73.88316
1405,"BANK OF AMERICA","1415 COLLEGE POINT BLVD","COLLEGE POINT",40.776661,-73.846218
1406,"QUEENS COUNTY SAVINGS BANK","1501 COLLEGE POINT BLVD","FLUSHING",40.776661,-73.846218
1407,"WILSHIRE STATE BANK","15024 NORTHERN BLVD # G4","FLUSHING",40.762571,-73.83736
1408,"BANK OF AMERICA","14161 NORTHERN BLVD","FLUSHING",40.762571,-73.83736
1409,"CHASE","15408 NORTHERN BLVD","FLUSHING",40.762571,-73.83736
1410,"BBCN BANK","13802 NORTHERN BLVD","FLUSHING",40.762571,-73.83736
1411,"FLUSHING SAVINGS BANK","14451 NORTHERN BLVD","FLUSHING",40.762571,-73.83736
1412,"HSBC BANK","14461 NORTHERN BLVD","FLUSHING",40.762571,-73.83736
1413,"BNB BANK","15038 NORTHERN BLVD","FLUSHING",40.762571,-73.83736
1414,"SHINHAN BANK AMERICA","15029 NORTHERN BLVD","FLUSHING",40.762571,-73.83736
1415,"ROYAL ASIAN BANK","15408 NORTHERN BLVD","FLUSHING",40.762571,-73.83736
1416,"NEWBANK","14601 NORTHERN BLVD","FLUSHING",40.762571,-73.83736
1417,"CAPITAL ONE BANK","13621 ROOSEVELT AVE","FLUSHING",40.757134,-73.838347
1418,"FLUSHING SAVINGS BANK","13641 ROOSEVELT AVE","FLUSHING",40.757134,-73.838347
1419,"QUEENS COUNTY SAVINGS BANK","13665 ROOSEVELT AVE","FLUSHING",40.757134,-73.838347
1420,"ASIA BANK NA","13534 ROOSEVELT AVE","FLUSHING",40.757134,-73.838347
1421,"EAST BANK","13681 ROOSEVELT AVE # 2","FLUSHING",40.757134,-73.838347
1422,"SHINHAN BANK AMERICA","13617 39TH AVE","FLUSHING",40.758802,-73.835348
1423,"WOORI AMERICA BANK","13688 39TH AVE","FLUSHING",40.758802,-73.835348
1424,"ASIA BANK","13511 ROOSEVELT AVE","FLUSHING",40.757134,-73.838347
1425,"HANVIT AMERICA BANK","13688 39TH AVE","FLUSHING",40.758802,-73.835348
1426,"CHASE","3747 JUNCTION BLVD","CORONA",40.734203,-73.864587
1427,"BANCO POPULAR","3747 JUNCTION BLVD","FLUSHING",40.734203,-73.864587
1428,"HSBC BANK","3548 JUNCTION BLVD","FLUSHING",40.734203,-73.864587
1429,"WASHINGTON MUTUAL","3747 JUNCTION BLVD","CORONA",40.734203,-73.864587
1430,"BANCO POPULAR","3530 JUNCTION BLVD","CORONA",40.734203,-73.864587
1431,"CHASE","5702 99TH ST","FLUSHING",40.735924,-73.858829
1432,"QUEENS COUNTY SAVINGS BANK","5113 108TH ST","FLUSHING",40.737423,-73.851928
1433,"CHASE","3794 103RD ST","FLUSHING",40.740371,-73.85646
1434,"QUEENS COUNTY SAVINGS BANK","3797 103RD ST","FLUSHING",40.740371,-73.85646
1435,"CHASE","9900 METROPOLITAN AVE","FLUSHING",40.709211,-73.84311
1436,"TD BANK","10110 METROPOLITAN AVE","FLUSHING",40.709211,-73.84311
1437,"VALLEY NATIONAL BANK","6920 80TH ST","MIDDLE VILLAGE",40.709251,-73.870118
1438,"CHASE","6694 FRESH POND RD","RIDGEWOOD",40.700794,-73.894557
1439,"ROSLYN SAVINGS BANK","6677 FRESH POND RD","FLUSHING",40.700794,-73.894557
1440,"QUEENS COUNTY SAVINGS BANK","6677 FRESH POND RD","FLUSHING",40.700794,-73.894557
1441,"CAPITAL ONE BANK","6709 FRESH POND RD","FLUSHING",40.700794,-73.894557
1442,"TD BANK","6266 FRESH POND RD","FLUSHING",40.700794,-73.894557
1443,"VALLEY NATIONAL BANK","7119 80TH ST # 8201","GLENDALE",40.702971,-73.86824
1444,"QUEENS COUNTY SAVINGS BANK","8035 JAMAICA AVE","JAMAICA",40.691182,-73.868057
1445,"CHASE","9014 JAMAICA AVE","JAMAICA",40.691182,-73.868057
1446,"CHASE","8401 JAMAICA AVE # 1","JAMAICA",40.691182,-73.868057
1447,"QUEENS COUNTY SAVINGS BANK","9322 JAMAICA AVE","JAMAICA",40.691182,-73.868057
1448,"COMMUNITY FEDERAL SAVINGS BANK","8907 JAMAICA AVE","JAMAICA",40.691182,-73.868057
1449,"RIDGEWOOD SAVINGS BANK","7425 GRAND AVE # 2","FLUSHING",40.73009,-73.888058
1450,"VALLEY NATIONAL BANK","9405 63RD DR","FLUSHING",40.722383,-73.86725
1451,"HSBC BANK","9501 63RD DR","FLUSHING",40.722383,-73.86725
1452,"CITIBANK","8711 QUEENS BLVD","FLUSHING",40.732561,-73.868321
1453,"CAPITAL ONE BANK","8901 QUEENS BLVD","FLUSHING",40.732561,-73.868321
1454,"CHASE","8921 QUEENS BLVD","FLUSHING",40.732561,-73.868321
1455,"TD BANK","7801 QUEENS BLVD","FLUSHING",40.732561,-73.868321
1456,"EMIGRANT SAVINGS BANK","9131 QUEENS BLVD # 6","FLUSHING",40.732561,-73.868321
1457,"HSBC BANK","8703 QUEENS BLVD","FLUSHING",40.732561,-73.868321
1458,"FIRST AMERICAN INTL BANK","8603 QUEENS BLVD","ELMHURST",40.732561,-73.868321
1459,"CHASE","6363 108TH ST","FLUSHING",40.721624,-73.843899
1460,"HSBC BANK","6402 108TH ST","FLUSHING",40.721624,-73.843899
1461,"TD BANK","6354 108TH ST","FOREST HILLS",40.721624,-73.843899
1462,"QUEENS COUNTY SAVINGS BANK","10619 CONTINENTAL AVE","FLUSHING",40.710482,-73.85092
1463,"CHASE","7403 METROPOLITAN AVE","FLUSHING",40.712213,-73.862058
1464,"CAPITAL ONE BANK","7411 METROPOLITAN AVE","FLUSHING",40.712213,-73.862058
1465,"CHASE","7802 METROPOLITAN AVE # 8","FLUSHING",40.712213,-73.862058
1466,"CROSS COUNTY SAVINGS BANK","7921 METROPOLITAN AVE","MIDDLE VILLAGE",40.712213,-73.862058
1467,"TD BANK","7955 METROPOLITAN AVE","FLUSHING",40.712213,-73.862058
1468,"CITIBANK","9512 63RD RD","FLUSHING",40.730273,-73.862201
1469,"BANK OF AMERICA","9901 QUEENS BLVD","REGO PARK",40.726834,-73.8539
1470,"NEW YORK COMMERCIAL BANK","9777 QUEENS BLVD","FLUSHING",40.726834,-73.8539
1471,"CHASE","9741 QUEENS BLVD","FLUSHING",40.726834,-73.8539
1472,"CHASE","9538 QUEENS BLVD","FLUSHING",40.726834,-73.8539
1473,"CAPITAL ONE BANK","9525 QUEENS BLVD # 1","FLUSHING",40.726834,-73.8539
1474,"TD BANK","9525 QUEENS BLVD # G","REGO PARK",40.726834,-73.8539
1475,"CITIBANK","10701 71ST AVE","FLUSHING",40.707913,-73.851117
1476,"CAPITAL ONE BANK","10718 71ST AVE","FLUSHING",40.707913,-73.851117
1477,"CHASE","10736 71ST AVE","FLUSHING",40.707913,-73.851117
1478,"FLUSHING SAVINGS BANK","10711 71ST AVE","FOREST HILLS",40.707913,-73.851117
1479,"BANK OF AMERICA","10726 71ST AVE","FOREST HILLS",40.707913,-73.851117
1480,"HSBC BANK","10715 71ST AVE","FLUSHING",40.707913,-73.851117
1481,"CHASE","8989 UNION TPKE # 5","GLENDALE",40.702712,-73.862388
1482,"RBS CITIZENS","8989 UNION TPKE","GLENDALE",40.702712,-73.862388
1483,"CHASE","7104 WOODHAVEN BLVD","GLENDALE",40.700562,-73.854627
1484,"CAPITAL ONE BANK","8324 WOODHAVEN BLVD","GLENDALE",40.700562,-73.854627
1485,"SOVEREIGN BANK","11811 101ST AVE","JAMAICA",40.687252,-73.835519
1486,"CHASE","11420 JAMAICA AVE","JAMAICA",40.695022,-73.846438
1487,"CAPITAL ONE BANK","11520 JAMAICA AVE","JAMAICA",40.695022,-73.846438
1488,"CITIBANK","3002 MERMAID AVE","BROOKLYN",40.5749599,-73.996891
1489,"RIDGEWOOD SAVINGS BANK","20216 ROCKAWAY POINT BLVD","FAR ROCKAWAY",40.557021,-73.93119
1490,"ATLAS SAVINGS BANK","339 SAND LN","STATEN ISLAND",40.591457,-74.067507
1491,"CHASE","2909 W 17TH ST","BROOKLYN",40.576495,-73.984672
1492,"CHASE","290 AVENUE X","BROOKLYN",40.58988,-73.97227
1493,"CHASE","2730 CONEY ISLAND AVE","BROOKLYN",40.5901569,-73.960637
1494,"TD BANK","2700 CONEY ISLAND AVE","BROOKLYN",40.5908359,-73.960698
1495,"CAPITAL ONE BANK","504 NEPTUNE AVE","BROOKLYN",40.5797359,-73.972321
1496,"APPLE BANK FOR SAVINGS","486 NEPTUNE AVE","BROOKLYN",40.57926,-73.97307
1497,"CHASE","128 BRIGHTON BEACH AVE","BROOKLYN",40.57611,-73.967081
1498,"VALLEY NATIONAL BANK","207 BRIGHTON BEACH AVE","BROOKLYN",40.5767699,-73.966831
1499,"BANK OF AMERICA","501 BRIGHTON BEACH AVE","BROOKLYN",40.577471,-73.962383
1500,"CHASE","722 BRIGHTON BEACH AVE","BROOKLYN",40.577776,-73.960457
1501,"APPLE BANK FOR SAVINGS","405 BRIGHTON BEACH AVE","BROOKLYN",40.57754,-73.963171
1502,"HSBC BANK","320 BRIGHTON BEACH AVE","BROOKLYN",40.5768499,-73.96343
1503,"CHASE","100 OCEANA DR W","BROOKLYN",40.57609,-73.95836
1504,"CHASE","1002 BRIGHTON BEACH AVE","BROOKLYN",40.5778,-73.95908
1505,"CHASE","621 BAY ST","STATEN ISLAND",40.626835,-74.075673
1506,"CITIBANK","577 BAY ST","STATEN ISLAND",40.627775,-74.076218
1507,"S I BANK & TRUST","81 WATER ST","STATEN ISLAND",40.6271659,-74.076545
1508,"QUEENS COUNTY SAVINGS BANK","1 EDGEWATER ST","STATEN ISLAND",40.6190649,-74.068653
1509,"VICTORY STATE BANK","1065 BAY ST","STATEN ISLAND",40.616907,-74.068118
1510,"TD BANK","9904 4TH AVE","BROOKLYN",40.613386,-74.033253
1511,"NORTHFIELD BANK","1158 HYLAN BLVD","STATEN ISLAND",40.598562,-74.081016
1512,"CHASE","1151 HYLAN BLVD","STATEN ISLAND",40.598676,-74.081239
1513,"QUEENS COUNTY SAVINGS BANK","1100 HYLAN BLVD","STATEN ISLAND",40.598429,-74.078466
1514,"RICHMOND COUNTY SAVINGS BANK","1100 HYLAN BLVD","STATEN ISLAND",40.598429,-74.078466
1515,"NEW YORK COMMUNITY BANK","1100 HYLAN BLVD","STATEN ISLAND",40.598429,-74.078466
1516,"DIME SAVINGS BANK","7524 3RD AVE","BROOKLYN",40.63091,-74.028301
1517,"CITIBANK","7501 3RD AVE","BROOKLYN",40.6314259,-74.027729
1518,"VALLEY NATIONAL BANK","7726 3RD AVE","BROOKLYN",40.62945,-74.0289
1519,"FLUSHING SAVINGS BANK","7102 3RD AVE","BROOKLYN",40.63415,-74.027
1520,"MARATHON NATIONAL BANK OF NY","7123 3RD AVE","BROOKLYN",40.634459,-74.026487
1521,"CAPITAL ONE BANK","7110 5TH AVE","BROOKLYN",40.632478,-74.021473
1522,"CHASE","7427 5TH AVE","BROOKLYN",40.630071,-74.022327
1523,"APPLE BANK FOR SAVINGS","7415 5TH AVE","BROOKLYN",40.62974,-74.02217
1524,"SOVEREIGN BANK","7500 5TH AVE","BROOKLYN",40.6294749,-74.022725
1525,"BANK OF AMERICA","6901 5TH AVE","BROOKLYN",40.63321,-74.020791
1526,"BANK OF AMERICA","438 86TH ST","BROOKLYN",40.62195,-74.027541
1527,"CAPITAL ONE BANK","9502 3RD AVE","BROOKLYN",40.61714,-74.033951
1528,"CHASE","9313 3RD AVE","BROOKLYN",40.61822,-74.032831
1529,"HSBC BANK","9201 3RD AVE","BROOKLYN",40.61916,-74.03239
1530,"MARATHON NATIONAL BANK OF NY","8724 4TH AVE","BROOKLYN",40.62161,-74.029171
1531,"SOVEREIGN BANK","9512 3RD AVE","BROOKLYN",40.617153,-74.033717
1532,"CITIBANK","8721 5TH AVE","BROOKLYN",40.620691,-74.026823
1533,"SOVEREIGN BANK","8808 5TH AVE","BROOKLYN",40.62029,-74.027332
1534,"CITIBANK","512 86TH ST","BROOKLYN",40.6212259,-74.025895
1535,"NORTHFIELD BANK","8512 3RD AVE","BROOKLYN",40.62405,-74.031121
1536,"CAPITAL ONE BANK","413 86TH ST","BROOKLYN",40.62274,-74.027761
1537,"RIDGEWOOD SAVINGS BANK","8522 3RD AVE","BROOKLYN",40.624138,-74.030861
1538,"AMALGAMATED BANK","426 86TH ST","BROOKLYN",40.62212,-74.027811
1539,"DIME SAVINGS BANK-WLLMSBRGH","8520 4TH AVE","BROOKLYN",40.623415,-74.028155
1540,"HSBC BANK","447 86TH ST","BROOKLYN",40.6222399,-74.026941
1541,"ROSLYN SAVINGS BANK","8110 5TH AVE","BROOKLYN",40.62491,-74.024851
1542,"CHASE","8515 5TH AVE","BROOKLYN",40.621989,-74.025689
1543,"M&T BANK","7807 5TH AVE","BROOKLYN",40.6268499,-74.023391
1544,"ATLANTIC BANK OF NEW YORK","8010 5TH AVE","BROOKLYN",40.62564,-74.024581
1545,"MARATHON NATIONAL BANK OF NY","7826 5TH AVE","BROOKLYN",40.62676,-74.02406
1546,"TD BANK","8206 5TH AVE","BROOKLYN",40.62424,-74.02508
1547,"ALMA BANK","8424 5TH AVE","BROOKLYN",40.62238,-74.025871
1548,"RICHMOND COUNTY SAVINGS BANK","75 RICHMOND TER","STATEN ISLAND",40.644593,-74.076857
1549,"VICTORY STATE BANK","1 HYATT ST","STATEN ISLAND",40.6423239,-74.076461
1550,"QUEENS COUNTY SAVINGS BANK","75 RICHMOND TER","STATEN ISLAND",40.644593,-74.076857
1551,"S I BANK & TRUST","15 HYATT ST","STATEN ISLAND",40.642056,-74.076961
1552,"ALMA BANK","140 58TH ST # 5","BROOKLYN",40.644966,-74.022332
1553,"CARVER FEDERAL SAVINGS BANK","140 58TH ST # 35","BROOKLYN",40.644966,-74.022332
1554,"SOVEREIGN BANK","498 COLUMBIA ST # C","BROOKLYN",40.674592,-74.007755
1555,"INDEPENDENCE SAVINGS BANK","498 COLUMBIA ST","BROOKLYN",40.674592,-74.007755
1556,"TD BANK","2 OCEAN AVE","BROOKLYN",40.663183,-73.962487
1557,"CAPITAL ONE BANK","856 WASHINGTON AVE","BROOKLYN",40.67247,-73.963091
1558,"CAPITAL ONE BANK","5001 5TH AVE","BROOKLYN",40.64489,-74.010201
1559,"CITIBANK","5324 5TH AVE","BROOKLYN",40.6431,-74.01277
1560,"BANCO POPULAR","5216 5TH AVE","BROOKLYN",40.64377,-74.012151
1561,"CHASE","5323 5TH AVE","BROOKLYN",40.64288,-74.01208
1562,"CHASE","5101 4TH AVE","BROOKLYN",40.64562,-74.01301
1563,"AIT TRIMMINGS INC BANK","219 36TH ST","BROOKLYN",40.656035,-74.00715
1564,"TD BANK","987 4TH AVE","BROOKLYN",40.65258,-74.005631
1565,"CHASE","79 HAMILTON AVE","BROOKLYN",40.68296,-74.005371
1566,"CHASE","390 COURT ST","BROOKLYN",40.6809599,-73.99678
1567,"CAPITAL ONE BANK","420 COURT ST","BROOKLYN",40.679794,-73.997198
1568,"RIDGEWOOD SAVINGS BANK","244 COURT ST","BROOKLYN",40.68569,-73.994541
1569,"APPLE BANK FOR SAVINGS","326 COURT ST","BROOKLYN",40.68302,-73.995851
1570,"CHASE","192 SMITH ST # 194","BROOKLYN",40.68519,-73.991741
1571,"PONCE DE LEON FEDERAL BANK","169 SMITH ST","BROOKLYN",40.686029,-73.990876
1572,"ROOSEVELT SAVINGS BANK","137 12TH ST","BROOKLYN",40.6703199,-73.993371
1573,"INDEPENDENCE COMMUNITY BANK","551 5TH AVE","NEW YORK",40.665664,-73.989147
1574,"BANK OF AMERICA","534 5TH AVE","BROOKLYN",40.66617,-73.989231
1575,"CHASE","533 5TH AVE","BROOKLYN",40.66615,-73.988734
1576,"CAPITAL ONE BANK","516 5TH AVE","BROOKLYN",40.66695,-73.98842
1577,"NEW YORK COMMERCIAL BANK","478 5TH AVE","BROOKLYN",40.6682,-73.98746
1578,"BANK OF AMERICA","274 7TH AVE","BROOKLYN",40.66864,-73.980501
1579,"TD BANK","269 5TH AVE","BROOKLYN",40.6740299,-73.981861
1580,"HSBC BANK","325 9TH ST","BROOKLYN",40.66908,-73.985491
1581,"CAPITAL ONE BANK","100 8TH AVE","BROOKLYN",40.67278,-73.97376
1582,"CITIBANK","114 7TH AVE","BROOKLYN",40.67378,-73.97625
1583,"BANK OF AMERICA","138 7TH AVE # A","BROOKLYN",40.67296,-73.97691
1584,"CHASE","127 7TH AVE","BROOKLYN",40.6731259,-73.976268
1585,"CITI PWM","114 7TH AVE","BROOKLYN",40.67378,-73.97625
1586,"CHASE","444 5TH AVE","BROOKLYN",40.66966,-73.980871
1587,"BANK OF NEW YORK MELLON","139 FLATBUSH AVE","BROOKLYN",40.68461,-73.97737
1588,"CHASE","139 FLATBUSH AVE","BROOKLYN",40.68461,-73.97737
1589,"CARVER FEDERAL SAVINGS BANK","4 HANSON PL","BROOKLYN",40.685151,-73.977012
1590,"ROOSEVELT SAVINGS BANK","625 ATLANTIC AVE # B5","BROOKLYN",40.6842,-73.975271
1591,"HSBC BANK","2 HANSON PL # 14","BROOKLYN",40.685084,-73.977448
1592,"CHASE","20 FLATBUSH AVE # 1","BROOKLYN",40.681962,-73.978531
1593,"CHASE","159 5TH AVE","BROOKLYN",40.67768,-73.979251
1594,"CHASE","290 FLATBUSH AVE","BROOKLYN",40.678304,-73.973351
1595,"CHASE","401 FLATBUSH AVE","BROOKLYN",40.675756,-73.971344
1596,"M&T BANK","354 FLATBUSH AVE","BROOKLYN",40.675967,-73.971662
1597,"CAPITAL ONE BANK","858 FULTON ST","BROOKLYN",40.6832899,-73.96706
1598,"SOVEREIGN BANK","234 PROSPECT PARK W","BROOKLYN",40.65965,-73.98135
1599,"CARVER FEDERAL SAVINGS BANK","833 FLATBUSH AVE","BROOKLYN",40.65199,-73.958751
1600,"BANK OF AMERICA","515 OCEAN AVE","BROOKLYN",40.6503,-73.96063
1601,"CAPITAL ONE BANK","927 FLATBUSH AVE","BROOKLYN",40.64912,-73.958316
1602,"CITIBANK","885 FLATBUSH AVE # 1","BROOKLYN",40.6502,-73.958261
1603,"CHASE","883 FLATBUSH AVE","BROOKLYN",40.650416,-73.958633
1604,"CITI PWN","885 FLATBUSH AVE","BROOKLYN",40.6502,-73.958261
1605,"CHASE","1640 86TH ST","BROOKLYN",40.60949,-74.006406
1606,"NORTHFIELD BANK","1501 86TH ST","BROOKLYN",40.61146,-74.00903
1607,"DIME SAVINGS BANK","1545 86TH ST","BROOKLYN",40.610815,-74.008343
1608,"CHASE","1901 86TH ST","BROOKLYN",40.6060799,-73.999921
1609,"SOVEREIGN BANK","1769 86TH ST","BROOKLYN",40.607583,-74.003051
1610,"CHASE","8523 20TH AVE","BROOKLYN",40.60473,-73.997831
1611,"APPLE BANK FOR SAVINGS","1971 86TH ST","BROOKLYN",40.60506,-73.998451
1612,"RIDGEWOOD SAVINGS BANK","7124 18TH AVE","BROOKLYN",40.615565,-73.993866
1613,"TD BANK","1630 SHORE PKWY","BROOKLYN",40.594389,-73.998086
1614,"HSBC BANK","1628 SHORE PKWY","BROOKLYN",40.594362,-73.998045
1615,"PONCE DE LEON FEDERAL BANK","2047 86TH ST","BROOKLYN",40.60411,-73.996841
1616,"HSBC BANK","2301 86TH ST","BROOKLYN",40.600592,-73.991541
1617,"CHASE","8418 BAY PKWY","BROOKLYN",40.60284,-73.993241
1618,"NEW YORK COMMERCIAL BANK","8622 BAY PKWY # 3","BROOKLYN",40.60162,-73.99456
1619,"CAPITAL ONE BANK","2150 86TH ST","BROOKLYN",40.6025,-73.994893
1620,"CITIBANK","2173 86TH ST","BROOKLYN",40.6022769,-73.994287
1621,"SOVEREIGN BANK","2357 86TH ST","BROOKLYN",40.599777,-73.990173
1622,"TD BANK","2173 86TH ST","BROOKLYN",40.6022769,-73.994287
1623,"CAPITAL ONE BANK","7401 13TH AVE","BROOKLYN",40.62059,-74.006671
1624,"ATLANTIC BANK OF NEW YORK","7709 13TH AVE","BROOKLYN",40.61875,-74.008651
1625,"CHASE","7702 13TH AVE","BROOKLYN",40.61919,-74.009001
1626,"RIDGEWOOD SAVINGS BANK","7020 13TH AVE","BROOKLYN",40.6230509,-74.004664
1627,"HSBC BANK","7424 13TH AVE","BROOKLYN",40.62056,-74.00754
1628,"CHASE","5423 8TH AVE # 1","BROOKLYN",40.63828,-74.006161
1629,"CATHAY BANK","5402 8TH AVE","BROOKLYN",40.63893,-74.00634
1630,"EAST WEST BANK","5801 8TH AVE","BROOKLYN",40.63641,-74.008241
1631,"HSBC BANK","5515 8TH AVE # A","BROOKLYN",40.63777,-74.00682
1632,"HSBC BANK","5518 8TH AVE","BROOKLYN",40.63806,-74.007231
1633,"HSBC BANK","6102 8TH AVE","BROOKLYN",40.635,-74.010681
1634,"CHINATRUST BANK USA","5418 8TH AVE","BROOKLYN",40.6386199,-74.006651
1635,"ABACUS FEDERAL SAVINGS BANK","5518 8TH AVE","BROOKLYN",40.63806,-74.007231
1636,"CHINATOWN FEDERAL SAVINGS BANK","5512 8TH AVE","BROOKLYN",40.63819,-74.007091
1637,"FIRST AMERICAN INTL BANK","5902 8TH AVE","BROOKLYN",40.6361,-74.009241
1638,"BANK OF EAST ASIA","5714 8TH AVE","BROOKLYN",40.63701,-74.008291
1639,"FIRST AMERICAN INTL BANK","5417 8TH AVE","BROOKLYN",40.638752,-74.006065
1640,"CHINA TRUST BANK","5413 8TH AVE","BROOKLYN",40.63844,-74.00612
1641,"FIRST AMERICAN NATIONAL BANK","5503 8TH AVE","BROOKLYN",40.63804,-74.006531
1642,"CHASE","6501 FORT HAMILTON PKWY","BROOKLYN",40.63026,-74.009121
1643,"CAPITAL ONE BANK","6501 11TH AVE","BROOKLYN",40.62833,-74.0058
1644,"SCHICKS TCF FOOD GROUP LLC","859 63RD ST","BROOKLYN",40.6330289,-74.009978
1645,"ROOSEVELT SAVINGS BANK","1245 61ST ST","BROOKLYN",40.629039,-74.000295
1646,"HERALD NATIONAL BANK","1333 60TH ST","BROOKLYN",40.628481,-73.997818
1647,"BERKSHIRE BANK","5010 13TH AVE","BROOKLYN",40.634437,-73.992846
1648,"DIME SAVINGS BANK","5003 13TH AVE","BROOKLYN",40.63415,-73.992581
1649,"VALLEY NATIONAL BANK","4501 13TH AVE","BROOKLYN",40.63702,-73.9896
1650,"APPLE BANK FOR SAVINGS","4519 13TH AVE","BROOKLYN",40.637115,-73.989839
1651,"TD BANK","4526 13TH AVE","BROOKLYN",40.63714,-73.989997
1652,"HSBC BANK","4410 13TH AVE","BROOKLYN",40.637794,-73.989328
1653,"NORTHFIELD BANK","4602 13TH AVE","BROOKLYN",40.6367699,-73.990701
1654,"CHASE","4901 13TH AVE","BROOKLYN",40.63475,-73.991951
1655,"BANK OF AMERICA","4701 13TH AVE","BROOKLYN",40.6359,-73.990751
1656,"CAPITAL ONE BANK","4612 13TH AVE","BROOKLYN",40.63658,-73.9909
1657,"VALLEY NATIONAL BANK","4616 13TH AVE","BROOKLYN",40.63649,-73.99098
1658,"CHASE","4724 13TH AVE","BROOKLYN",40.63602,-73.991801
1659,"SOVEREIGN BANK","4823 13TH AVE","BROOKLYN",40.635431,-73.991615
1660,"FLUSHING BANK","4616 13TH AVE","BROOKLYN",40.63649,-73.99098
1661,"INVESTOR SAVINGS BANK","4624 13TH AVE","BROOKLYN",40.636595,-73.990568
1662,"CITIBANK","5420 13TH AVE","BROOKLYN",40.631864,-73.995482
1663,"TD BANK","1301 65TH ST","BROOKLYN",40.62599,-74.00097
1664,"CITIBANK","6414 18TH AVE","BROOKLYN",40.61953,-73.99013
1665,"CHASE","6501 18TH AVE","BROOKLYN",40.619092,-73.99014
1666,"SOVEREIGN BANK","6424 18TH AVE","BROOKLYN",40.619619,-73.989784
1667,"HSBC BANK","6912 18TH AVE","BROOKLYN",40.61668,-73.993031
1668,"CAPITAL ONE BANK","7120 NEW UTRECHT AVE","BROOKLYN",40.61861,-73.999481
1669,"SIGNATURE BANK","6321 NEW UTRECHT AVE","BROOKLYN",40.62449,-73.997061
1670,"CAPITAL ONE BANK","6521 18TH AVE","BROOKLYN",40.61848,-73.99042
1671,"APPLE BANK FOR SAVINGS","6701 18TH AVE","BROOKLYN",40.61762,-73.991271
1672,"TD BANK","6628 18TH AVE","BROOKLYN",40.618384,-73.991025
1673,"VALLEY NATIONAL BANK","6117 18TH AVE","BROOKLYN",40.62089,-73.98802
1674,"SOVEREIGN BANK","4514 16TH AVE","BROOKLYN",40.633215,-73.983323
1675,"INDEPENDENCE COMMUNITY BANK","4514 16TH AVE","BROOKLYN",40.633215,-73.983323
1676,"BERKSHIRE BANK","4917 16TH AVE","BROOKLYN",40.6308869,-73.985558
1677,"APPLE BANK FOR SAVINGS","1575 50TH ST # A","BROOKLYN",40.6308,-73.986191
1678,"CHASE","4323 18TH AVE","BROOKLYN",40.631081,-73.976275
1679,"SOVEREIGN BANK","23 NEWKIRK PLZ","BROOKLYN",40.635455,-73.962708
1680,"CHASE","1509 FOSTER AVE","BROOKLYN",40.634323,-73.962692
1681,"CHASE","1101 AVENUE J","BROOKLYN",40.62502,-73.964841
1682,"BERKSHIRE BANK","1119 AVENUE J","BROOKLYN",40.62502,-73.964461
1683,"VALLEY NATIONAL BANK","1505 AVENUE J","BROOKLYN",40.62546,-73.961141
1684,"FLUSHING SAVINGS BANK","1402 AVENUE J","BROOKLYN",40.62484,-73.962081
1685,"AMALGAMATED BANK","1201 AVENUE J","BROOKLYN",40.62511,-73.964061
1686,"APPLE BANK FOR SAVINGS","1401 AVENUE J","BROOKLYN",40.625129,-73.962304
1687,"SOVEREIGN BANK","1302 AVENUE J","BROOKLYN",40.62473,-73.963011
1688,"TD BANK","1104 AVENUE J","BROOKLYN",40.62455,-73.964751
1689,"FIDELITY FLUSHING SAVINGS BANK","1402 AVENUE J","BROOKLYN",40.62484,-73.962081
1690,"INVESTORS BANK","1415 AVENUE M","BROOKLYN",40.617963,-73.960799
1691,"DIME SAVINGS BANK","1600 AVENUE M # 1","BROOKLYN",40.61788,-73.958901
1692,"CHASE","1501 AVENUE M","BROOKLYN",40.618057,-73.960024
1693,"EMIGRANT SAVINGS BANK","1617 AVENUE M","BROOKLYN",40.61851,-73.95852
1694,"INVESTORS SAVINGS BANK","1490 AVENUE M","BROOKLYN",40.617936,-73.960113
1695,"RICHMOND COUNTY SAVINGS BANK","81 AVENUE U","BROOKLYN",40.596152,-73.981377
1696,"ROOSEVELT SAVINGS BANK","132 AVENUE U","BROOKLYN",40.59603,-73.979541
1697,"CAPITAL ONE BANK","179 AVENUE U","BROOKLYN",40.59668,-73.977751
1698,"NORTHFIELD SAVINGS BANK","247 AVENUE U","BROOKLYN",40.59701,-73.975171
1699,"CHASE","6701 BAY PKWY # 1","BROOKLYN",40.61229,-73.982671
1700,"HSBC BANK","6702 BAY PKWY","BROOKLYN",40.61276,-73.983101
1701,"NORTHFIELD BANK","283 KINGS HWY","BROOKLYN",40.605225,-73.980115
1702,"HOME SAVINGS","6513 20TH AVE","BROOKLYN",40.61602,-73.98596
1703,"VALLEY NATIONAL BANK","1212 AVENUE M","BROOKLYN",40.61513,-73.961791
1704,"HSBC BANK","481 KINGS HWY # 1","BROOKLYN",40.6043999,-73.971821
1705,"SOVEREIGN BANK","440 AVENUE P","BROOKLYN",40.60874,-73.97117
1706,"CITIBANK","1220 AVENUE J","BROOKLYN",40.6151499,-73.961681
1707,"SOVEREIGN BANK","961 KINGS HWY","BROOKLYN",40.607127,-73.962736
1708,"CHASE","1100 KINGS HWY","BROOKLYN",40.607295,-73.961815
1709,"TD BANK","1122 KINGS HWY","BROOKLYN",40.607375,-73.961608
1710,"BERKSHIRE BANK","1421 KINGS HWY","BROOKLYN",40.6089,-73.958501
1711,"CITIBANK","1501 KINGS HWY","BROOKLYN",40.60906,-73.95814
1712,"CAPITAL ONE BANK","1226 KINGS HWY","BROOKLYN",40.6077099,-73.96009
1713,"BANK OF AMERICA","1502 KINGS HWY","BROOKLYN",40.60854,-73.958081
1714,"ALMA BANK","1218 KINGS HWY","BROOKLYN",40.60765,-73.960301
1715,"APPLE BANK FOR SAVINGS","1321 KINGS HWY","BROOKLYN",40.60815,-73.959884
1716,"SOVEREIGN BANK","301 AVENUE U","BROOKLYN",40.5972,-73.972891
1717,"BANK OF AMERICA","465 KINGS HWY","BROOKLYN",40.6042769,-73.972545
1718,"CHASE","506 KINGS HWY","BROOKLYN",40.6042539,-73.971001
1719,"CHASE","2500 CONEY ISLAND AVE","BROOKLYN",40.59585,-73.961391
1720,"CHASE","1764 ROCKAWAY PKWY","BROOKLYN",40.638667,-73.895199
1721,"HSBC BANK","2001 ROCKAWAY PKWY","BROOKLYN",40.6341509,-73.890004
1722,"ROSLYN SAVINGS BANK","2925 AVENUE U","BROOKLYN",40.60093,-73.942331
1723,"DIME SAVINGS BANK","2172 COYLE ST","BROOKLYN",40.600393,-73.937106
1724,"BANK OF AMERICA","2022 AVENUE U","BROOKLYN",40.60386,-73.951491
1725,"EAST WEST BANK","1322 AVENUE U","BROOKLYN",40.59848,-73.957491
1726,"CAPITAL ONE BANK","1620 AVENUE U","BROOKLYN",40.59876,-73.954681
1727,"CHASE","2560 OCEAN AVE","BROOKLYN",40.599093,-73.951425
1728,"CHASE","1722 AVENUE U","BROOKLYN",40.59868,-73.953761
1729,"HSBC BANK","1702 AVENUE U","BROOKLYN",40.59881,-73.95419
1730,"TD BANK","1602 AVENUE U","BROOKLYN",40.5987,-73.95521
1731,"UNITED COMMERCIAL BANK","1322 AVENUE U","BROOKLYN",40.59848,-73.957491
1732,"CAPITAL ONE BANK","2123 AVENUE U","BROOKLYN",40.5998,-73.94963
1733,"VALLEY NATIONAL BANK","2902 AVENUE U","BROOKLYN",40.60011,-73.942561
1734,"CITIGROUP","1600 E 26TH ST","BROOKLYN",40.6117099,-73.948201
1735,"CHASE","1521 KINGS HWY","BROOKLYN",40.60943,-73.957631
1736,"DIME SAVINGS BANK","1902 KINGS HWY","BROOKLYN",40.61005,-73.954441
1737,"CHASE","1663 E 17TH ST","BROOKLYN",40.60924,-73.956081
1738,"HSBC BANK","1602 KINGS HWY","BROOKLYN",40.609124,-73.957328
1739,"INSTABANK","1813 KINGS HWY","BROOKLYN",40.6103,-73.955121
1740,"CHASE","2512 AVENUE U","BROOKLYN",40.60667,-73.94746
1741,"APPLE BANK FOR SAVINGS","1817 AVENUE M","BROOKLYN",40.61621,-73.956111
1742,"CHASE","2125 NOSTRAND AVE","BROOKLYN",40.63355,-73.94741
1743,"HSBC BANK","1545 FLATBUSH AVE","BROOKLYN",40.633104,-73.947875
1744,"FLATBUSH FEDERAL SAVINGS","2146 NOSTRAND AVE","BROOKLYN",40.6325099,-73.947871
1745,"BANK OF AMERICA","1580 FLATBUSH AVE","BROOKLYN",40.632323,-73.947234
1746,"CHASE","1599 FLATBUSH AVE","BROOKLYN",40.6314699,-73.945831
1747,"UNITED NATIONAL BANKCARD SVC","1266 E 37TH ST","BROOKLYN",40.625866,-73.940265
1748,"CHASE","1987 FLATBUSH AVE","BROOKLYN",40.62149,-73.93521
1749,"EMIGRANT SAVINGS BANK","1954 FLATBUSH AVE","BROOKLYN",40.621893,-73.936198
1750,"HSBC BANK","2030 FLATBUSH AVE","BROOKLYN",40.620188,-73.93433
1751,"CHASE","5230 KINGS PLZ","BROOKLYN",40.63676,-73.926841
1752,"BANCO POPULAR","8020 FLATLANDS AVE","BROOKLYN",40.63558,-73.913092
1753,"CITIBANK","1992 RALPH AVE","BROOKLYN",40.628904,-73.918374
1754,"CHASE","6510 AVENUE U","BROOKLYN",40.61694,-73.911141
1755,"HSBC BANK","5929 FLATLANDS AVE","BROOKLYN",40.631676,-73.91932
1756,"HSBC BANK","5920 FLATLANDS AVE","BROOKLYN",40.631545,-73.9193
1757,"PONCE DE LEON FEDERAL BANK","1900 RALPH AVE","BROOKLYN",40.63026,-73.918961
1758,"CHASE","2110 RALPH AVE","BROOKLYN",40.626172,-73.91805
1759,"CAPITAL ONE BANK","2102 RALPH AVE","BROOKLYN",40.62597,-73.918301
1760,"CHASE","2401 RALPH AVE","BROOKLYN",40.61909,-73.916801
1761,"BANCO POPULAR","2095 RALPH AVE","BROOKLYN",40.626359,-73.917925
1762,"HSBC BANK","2145 RALPH AVE","BROOKLYN",40.6253479,-73.917814
1763,"CITIBANK","2576 FLATBUSH AVE","BROOKLYN",40.6074499,-73.920781
1764,"HSBC BANK","815 FLATBUSH AVE # 1","BROOKLYN",40.647281,-73.957318
1765,"CHASE","1462 NOSTRAND AVE","BROOKLYN",40.65031,-73.94984
1766,"WASHINGTON MUTUAL","1462 NOSTRAND AVE","BROOKLYN",40.65031,-73.94984
1767,"MERCHANTS","3104 NEWKIRK AVE # 4H","BROOKLYN",40.639991,-73.947346
1768,"CITIBANK","1871 NOSTRAND AVE","BROOKLYN",40.64024,-73.948121
1769,"CHASE","891 UTICA AVE","BROOKLYN",40.651286,-73.930283
1770,"CAPITAL ONE BANK","5102 CHURCH AVE","BROOKLYN",40.65177,-73.928891
1771,"CHASE","5015 CHURCH AVE","BROOKLYN",40.65213,-73.929731
1772,"CITIBANK","702 UTICA AVE","BROOKLYN",40.6558999,-73.93118
1773,"HSBC BANK","4201 AVENUE D","BROOKLYN",40.64191,-73.936771
1774,"CHASE","391 EASTERN PKWY # 2","BROOKLYN",40.67061,-73.955361
1775,"CARVER FEDERAL SAVINGS BANK","1009 NOSTRAND AVE","BROOKLYN",40.66369,-73.950701
1776,"CHASE","1000 NOSTRAND AVE","BROOKLYN",40.66415,-73.95131
1777,"BANCO POPULAR","539 EASTERN PKWY","BROOKLYN",40.67024,-73.950151
1778,"BANK OF AMERICA","781 EASTERN PKWY","BROOKLYN",40.6698799,-73.942431
1779,"CHASE","1380 FULTON ST","BROOKLYN",40.67991,-73.945611
1780,"CITIBANK","1398 FULTON ST","BROOKLYN",40.680076,-73.944832
1781,"APPLE BANK FOR SAVINGS","318 ALBANY AVE","BROOKLYN",40.6690019,-73.939525
1782,"CHASE","257 UTICA AVE","BROOKLYN",40.669755,-73.930955
1783,"BANCO POPULAR","1117 EASTERN PKWY","BROOKLYN",40.6693,-73.93131
1784,"CHASE","1128 EASTERN PKWY","BROOKLYN",40.66832,-73.93088
1785,"BANCO POPULAR","1620 PITKIN AVE","BROOKLYN",40.66866,-73.913701
1786,"CITIBANK","80 JAMAICA AVE","BROOKLYN",40.67809,-73.896851
1787,"CHASE","1697 PITKIN AVE","BROOKLYN",40.66995,-73.910631
1788,"AMALGAMATED","152 E 89TH ST","BROOKLYN",40.64953,-73.918011
1789,"CHASE","9601 FOSTER AVE","BROOKLYN",40.647801,-73.906611
1790,"CAPITAL ONE BANK","1425 ROCKAWAY PKWY","BROOKLYN",40.64546,-73.90216
1791,"ROOSEVELT SAVINGS BANK","11110 FLATLANDS AVE","BROOKLYN",40.65062,-73.889811
1792,"CHASE","2100 LINDEN BLVD","BROOKLYN",40.660742,-73.885027
1793,"CITIBANK","1388 PENNSYLVANIA AVE","BROOKLYN",40.647626,-73.881722
1794,"CITY NATIONAL BANK-NEW JERSEY","2815 ATLANTIC AVE","BROOKLYN",40.67671,-73.890369
1795,"CHASE","3380 FULTON ST","BROOKLYN",40.6839449,-73.870894
1796,"CAPITAL ONE BANK","3345 FULTON ST","BROOKLYN",40.68391,-73.87193
1797,"QUEENS COUNTY SAVINGS BANK","9210 ATLANTIC AVE","JAMAICA",40.683131,-73.866299
1798,"CHASE","8239 153RD AVE # B","JAMAICA",40.665512,-73.85609
1799,"QUEENS COUNTY SAVINGS BANK","8210 153RD AVE","JAMAICA",40.665512,-73.85609
1800,"CITIBANK","1200 LIBERTY AVE","BROOKLYN",40.6787399,-73.86475
1801,"CHASE","1240 LIBERTY AVE","BROOKLYN",40.67868,-73.863481
1802,"CHASE","9619 101ST AVE","JAMAICA",40.679353,-73.863347
1803,"QUEENS COUNTY SAVINGS BANK","9816 101ST AVE","JAMAICA",40.679353,-73.863347
1804,"VALLEY NATIONAL BANK","10701 LIBERTY AVE","OZONE PARK",40.6791609,-73.862348
1805,"BANK OF AMERICA","15116 84TH ST","HOWARD BEACH",40.647934,-73.845778
1806,"CITIBANK","15619 CROSSBAY BLVD","JAMAICA",40.645494,-73.836317
1807,"CAPITAL ONE BANK","15514 CROSSBAY BLVD","JAMAICA",40.645494,-73.836317
1808,"CHASE","15633 CROSSBAY BLVD","JAMAICA",40.645494,-73.836317
1809,"QUEENS COUNTY SAVINGS BANK","15602 CROSSBAY BLVD","JAMAICA",40.645494,-73.836317
1810,"TD BANK","16202 CROSSBAY BLVD","HOWARD BEACH",40.645494,-73.836317
1811,"SOVEREIGN BANK","16238 CROSSBAY BLVD # 1","JAMAICA",40.645494,-73.836317
1812,"CHASE","3804 NOSTRAND AVE","BROOKLYN",40.591087,-73.940148
1813,"BANCO POPULAR","3851 NOSTRAND AVE","BROOKLYN",40.589861,-73.939775
1814,"INVESTORS BANK","3780 NOSTRAND AVE","BROOKLYN",40.59165,-73.940244
1815,"VALLEY NATIONAL BANK","1633 SHEEPSHEAD BAY RD","BROOKLYN",40.58689,-73.952091
1816,"BANK OF AMERICA","1415 AVENUE Z","BROOKLYN",40.58817,-73.95473
1817,"CHASE","1519 SHEEPSHEAD BAY RD","BROOKLYN",40.587379,-73.954012
1818,"CITIBANK","1528 SHEEPSHEAD BAY RD","BROOKLYN",40.587255,-73.953957
1819,"CHASE","2623 E 17TH ST","BROOKLYN",40.588008,-73.952352
1820,"BANCO POPULAR","1619 SHEEPSHEAD BAY RD","BROOKLYN",40.587111,-73.952676
1821,"RIDGEWOOD SAVINGS BANK","2520 E 17TH ST","BROOKLYN",40.589815,-73.952841
1822,"CAPITAL ONE BANK","3090 OCEAN AVE","BROOKLYN",40.585918,-73.948943
1823,"CITIBANK","11301 BEACH CHANNEL DR","FAR ROCKAWAY",40.567811,-73.881287
1824,"CHASE","257 BEACH 116TH ST","FAR ROCKAWAY",40.580263,-73.83763
1825,"CAPITAL ONE BANK","11601 ROCKAWAY BEACH BLVD","FAR ROCKAWAY",40.568101,-73.867121
1826,"QUEENS COUNTY SAVINGS BANK","10408 ROCKAWAY BEACH BLVD","FAR ROCKAWAY",40.568101,-73.867121
1827,"CROSS COUNTY SAVINGS BANK","455 BEACH 129TH ST","FAR ROCKAWAY",40.57921,-73.85017
1828,"CITIBANK","72 N SERVICE RD","JAMAICA",40.64474,-73.796869
1829,"CHASE","16540 BAISLEY BLVD","JAMAICA",40.667073,-73.78694
1830,"CITIBANK","16921 137TH AVE","JAMAICA",40.668612,-73.781668
1831,"CHASE","6820 ROCKAWAY BEACH BLVD","ARVERNE",40.5883019,-73.804309
1832,"BANK OF AMERICA","6603 BEACH CHANNEL DR","ARVERNE",40.58985,-73.805419
1833,"CHASE","10348 LEFFERTS BLVD","JAMAICA",40.682243,-73.822209
1834,"CAPITAL ONE BANK","10342 LEFFERTS BLVD","JAMAICA",40.682243,-73.822209
1835,"NEW YORK COMMERCIAL BANK","11613 LIBERTY AVE","JAMAICA",40.683443,-73.834297
1836,"CHASE","11118 LIBERTY AVE","JAMAICA",40.683443,-73.834297
1837,"CITIBANK","12111 LIBERTY AVE","JAMAICA",40.683443,-73.834297
1838,"CAPITAL ONE BANK","11419 LIBERTY AVE","JAMAICA",40.683443,-73.834297
1839,"TD BANK","11925 LIBERTY AVE","S RICHMOND HILL",40.683443,-73.834297
1840,"CITIBANK","13307 ROCKAWAY BLVD","JAMAICA",40.674411,-73.802057
1841,"BANK OF AMERICA","9053 SUTPHIN BLVD","JAMAICA",40.6862929,-73.793899
1842,"SIGNATURE BANK","8936 SUTPHIN BLVD # 1","JAMAICA",40.6862929,-73.793899
1843,"STERLING NATIONAL BANK","8904 SUTPHIN BLVD","JAMAICA",40.6862929,-73.793899
1844,"CHASE","9059 SUTPHIN BLVD","JAMAICA",40.6862929,-73.793899
1845,"QUEENS COUNTY SAVINGS BANK","13440 SPRINGFIELD BLVD","JAMAICA",40.661212,-73.7609
1846,"CHASE","13440 SPRINGFIELD BLVD","JAMAICA",40.661212,-73.7609
1847,"CARVER FEDERAL SAVINGS BANK","11502 MERRICK BLVD","JAMAICA",40.679442,-73.757368
1848,"BANK OF AMERICA","24142 S CONDUIT AVE","ROSEDALE",40.665311,-73.742277
1849,"BANK OF AMERICA","21602 MERRICK BLVD","LAURELTON",40.6748839,-73.736917
1850,"RIDGEWOOD SAVINGS BANK","23022 MERRICK BLVD","LAURELTON",40.6748839,-73.736917
1851,"CAPITAL ONE BANK","14515 243RD ST","JAMAICA",40.652153,-73.740917
1852,"CAPITAL ONE BANK","1739 SEAGIRT BLVD","FAR ROCKAWAY",40.596202,-73.767488
1853,"CAPITAL ONE BANK","2010 MOTT AVE","FAR ROCKAWAY",40.600461,-73.746988
1854,"BANK OF AMERICA","231 BEACH 20TH ST","FAR ROCKAWAY",40.5950639,-73.753999
1855,"CHASE","1912 MOTT AVE","FAR ROCKAWAY",40.600461,-73.746988
1856,"CHASE","335 ROCKAWAY TPKE","FAR ROCKAWAY",40.600733,-73.754137
1857,"CHASE","11036 MERRICK BLVD","JAMAICA",40.691632,-73.779268
1858,"CHASE","21516 73RD AVE","FLUSHING",40.736321,-73.772786
1859,"CHASE","15617 73RD AVE","FLUSHING",40.723984,-73.822981
1860,"CAPITAL ONE BANK","7009 PARSONS BLVD","FLUSHING",40.727173,-73.810897
1861,"CAPITAL ONE BANK","6909 164TH ST","FLUSHING",40.721504,-73.804599
1862,"QUEENS COUNTY SAVINGS BANK","15515 AGUILAR AVE","FLUSHING",40.727454,-73.811018
1863,"HSBC BANK","15602 AGUILAR AVE","FLUSHING",40.727454,-73.811018
1864,"CHASE","2398 BELL BLVD","BAYSIDE",40.773673,-73.774829
1865,"SOVEREIGN BANK","2356 BELL BLVD","FLUSHING",40.773673,-73.774829
1866,"CAPITAL ONE BANK","20412 HILLSIDE AVE","JAMAICA",40.715121,-73.77355
1867,"CHASE","20519 HILLSIDE AVE","JAMAICA",40.715121,-73.77355
1868,"TD BANK","18810 HILLSIDE AVE","JAMAICA",40.715121,-73.77355
1869,"RIDGEWOOD SAVINGS BANK","20511 HILLSIDE AVE","JAMAICA",40.715121,-73.77355
1870,"CAPITAL ONE BANK","11901 METROPOLITAN AVE # 1","JAMAICA",40.7036439,-73.822426
1871,"CHASE","8135 LEFFERTS BLVD","JAMAICA",40.701414,-73.831526
1872,"HSBC BANK","14702 HILLSIDE AVE","JAMAICA",40.70401,-73.817538
1873,"TD BANK","11624 METROPOLITAN AVE","RICHMOND HILL",40.702431,-73.817377
1874,"CAPITAL ONE BANK","14621 JAMAICA AVE","JAMAICA",40.7024439,-73.816846
1875,"STERLING NATIONAL BANK","13821 QUEENS BLVD","JAMAICA",40.7025509,-73.814278
1876,"CHASE","13802 QUEENS BLVD","JAMAICA",40.7025509,-73.814278
1877,"HSBC BANK","13761 QUEENS BLVD","BRIARWOOD",40.7025509,-73.814278
1878,"CHASE","17562 HILLSIDE AVE","JAMAICA",40.7066329,-73.80657
1879,"CITIBANK","16848 HILLSIDE AVE","JAMAICA",40.7066329,-73.80657
1880,"CHASE","18401 HILLSIDE AVE","JAMAICA",40.7066329,-73.80657
1881,"BANK OF AMERICA","17557 HILLSIDE AVE","JAMAICA",40.7066329,-73.80657
1882,"EMIGRANT SAVINGS BANK","16842 HILLSIDE AVE","JAMAICA",40.7066329,-73.80657
1883,"CHASE","16110 JAMAICA AVE","JAMAICA",40.702141,-73.804447
1884,"CARVER FEDERAL SAVINGS BANK","15845 ARCHER AVE","JAMAICA",40.701481,-73.80417
1885,"SOVEREIGN BANK","7244 AUSTIN ST","FLUSHING",40.712931,-73.833578
1886,"FIRST CENTRAL SAVINGS BANK","7166 AUSTIN ST","FLUSHING",40.712931,-73.833578
1887,"CHASE","11830 QUEENS BLVD","FOREST HILLS",40.7140239,-73.830559
1888,"M&T BANK","10125 QUEENS BLVD","FLUSHING",40.7140239,-73.830559
1889,"CHASE","11835 QUEENS BLVD # 1500","FLUSHING",40.7140239,-73.830559
1890,"CHASE","10026 QUEENS BLVD","FLUSHING",40.7140239,-73.830559
1891,"QUEENS COUNTY SAVINGS BANK","10740 QUEENS BLVD # 1","FOREST HILLS",40.7140239,-73.830559
1892,"BANK OF AMERICA","10510 QUEENS BLVD","FOREST HILLS",40.7140239,-73.830559
1893,"CHASE","10417 QUEENS BLVD","FLUSHING",40.7140239,-73.830559
1894,"STERLING NATIONAL BANK","10801 QUEENS BLVD","FLUSHING",40.7140239,-73.830559
1895,"RIDGEWOOD SAVINGS BANK","10755 QUEENS BLVD","FLUSHING",40.7140239,-73.830559
1896,"APPLE BANK FOR SAVINGS","10229 QUEENS BLVD","FLUSHING",40.7140239,-73.830559
1897,"TD BANK","10836 QUEENS BLVD","FLUSHING",40.7140239,-73.830559
1898,"HSBC BANK","10470 QUEENS BLVD # 1","FLUSHING",40.7140239,-73.830559
1899,"EMIGRANT SAVINGS BANK","10235 QUEENS BLVD","FLUSHING",40.7140239,-73.830559
1900,"PONCE DE LEON FEDERAL BANK","10020 QUEENS BLVD","FLUSHING",40.7140239,-73.830559
1901,"STERLING SAFE DEPOSIT CO","10801 QUEENS BLVD","FLUSHING",40.7140239,-73.830559
1902,"SOVEREIGN BANK","15028 UNION TPKE # 1","FLUSHING",40.715313,-73.826388
1903,"CHASE","12422 QUEENS BLVD","JAMAICA",40.7100939,-73.821067
1904,"CAPITAL ONE BANK","12032 QUEENS BLVD","JAMAICA",40.7100939,-73.821067
1905,"VALLEY NATIONAL BANK","7609 MAIN ST","FLUSHING",40.717601,-73.81716
1906,"NEW YORK COMMUNITY BANK","7544 MAIN ST","FLUSHING",40.717601,-73.81716
1907,"QUEENS COUNTY SAVINGS BANK","7544 MAIN ST","FLUSHING",40.717601,-73.81716
1908,"CAPITAL ONE BANK","7521 MAIN ST","FLUSHING",40.717601,-73.81716
1909,"CHASE","7141 MAIN ST","FLUSHING",40.717601,-73.81716
1910,"FIRST CENTRAL SAVINGS BANK","7276 MAIN ST","FLUSHING",40.717601,-73.81716
1911,"CHASE","18603 UNION TPKE","FLUSHING",40.71988,-73.809028
1912,"CHASE","18715 UNION TPKE","FLUSHING",40.71988,-73.809028
1913,"CHASE","17670 UNION TPKE","FLUSHING",40.71988,-73.809028
1914,"CITIBANK","17650 UNION TPKE","FLUSHING",40.71988,-73.809028
1915,"DIME SAVINGS BANK","17647 UNION TPKE","FLUSHING",40.71988,-73.809028
1916,"TD BANK","16406 UNION TPKE","FLUSHING",40.71988,-73.809028
1917,"AMALGAMATED BANK","15811 JEWEL AVE # 1","FLUSHING",40.730813,-73.79108
1918,"CITIBANK","6980 188TH ST","FLUSHING",40.733132,-73.783019
1919,"QUEENS COUNTY SAVINGS BANK","6149 188TH ST","FLUSHING",40.733132,-73.783019
1920,"CAPITAL ONE BANK","6124 188TH ST","FLUSHING",40.733132,-73.783019
1921,"CITIBANK","8950 164TH ST","JAMAICA",40.705161,-73.795687
1922,"BANK OF AMERICA","9116 168TH ST","JAMAICA",40.706392,-73.79256
1923,"CHASE","3536 154TH ST","FLUSHING",40.763053,-73.811227
1924,"AMERASIA BANK","4106 MAIN ST","FLUSHING",40.742173,-73.825367
1925,"CHASE","5727 MAIN ST","FLUSHING",40.742173,-73.825367
1926,"DIME SAVINGS BANK","5923 MAIN ST","FLUSHING",40.742173,-73.825367
1927,"CAPITAL ONE BANK","4160 MAIN ST # 3","FLUSHING",40.742173,-73.825367
1928,"CATHAY BANK","4148 MAIN ST","FLUSHING",40.742173,-73.825367
1929,"EAST WEST BANK","4180 MAIN ST","FLUSHING",40.742173,-73.825367
1930,"CHINATRUST BANK USA","4199 MAIN ST","FLUSHING",40.742173,-73.825367
1931,"TD BANK","5650 MAIN ST","FLUSHING",40.742173,-73.825367
1932,"UNITED INTERNATIONAL BANK","4160 MAIN ST # 2","FLUSHING",40.742173,-73.825367
1933,"FIRST AMERICAN INTL BANK","4208 MAIN ST","FLUSHING",40.742173,-73.825367
1934,"METROPOLITAN BANK & TRUST CO","4170 MAIN ST # A4","FLUSHING",40.742173,-73.825367
1935,"CAPHAY BANK","4148 MAIN ST","FLUSHING",40.742173,-73.825367
1936,"FLUSHING SAVINGS BANK","4443 KISSENA BLVD","FLUSHING",40.73885,-73.815027
1937,"APPLE BANK FOR SAVINGS","4373 KISSENA BLVD","FLUSHING",40.73885,-73.815027
1938,"HSBC BANK","4177 KISSENA BLVD","FLUSHING",40.73885,-73.815027
1939,"HSBC BANK","4404 KISSENA BLVD","FLUSHING",40.73885,-73.815027
1940,"QUEENS COUNTY SAVINGS BANK","25409 HORACE HARDING EXPY","FLUSHING",40.738873,-73.810357
1941,"CHASE","18708 HORACE HARDING EXPY","FLUSHING",40.738873,-73.810357
1942,"NATIONAL BANK OF NEW YORK CITY","13629 38TH AVE","FLUSHING",40.760162,-73.832611
1943,"QUEENS COUNTY SAVINGS BANK","3106 FARRINGTON ST","FLUSHING",40.76328,-73.83129
1944,"CHASE","3663 MAIN ST","FLUSHING",40.758213,-73.82947
1945,"CHASE","3910 MAIN ST","FLUSHING",40.758213,-73.82947
1946,"BANK OF AMERICA","3912 MAIN ST","FLUSHING",40.758213,-73.82947
1947,"CITIBANK","3817 MAIN ST","FLUSHING",40.758213,-73.82947
1948,"CHASE","3901 MAIN ST # 1","FLUSHING",40.758213,-73.82947
1949,"CATHAY BANK","4014 MAIN ST","FLUSHING",40.758213,-73.82947
1950,"BANK OF AMERICA","3636 MAIN ST # 5","FLUSHING",40.758213,-73.82947
1951,"CATHAY BANK","3654 MAIN ST","FLUSHING",40.758213,-73.82947
1952,"HSBC BANK","3910 MAIN ST # 303","FLUSHING",40.758213,-73.82947
1953,"ABACUS FEDERAL SAVINGS BANK","3630 MAIN ST","FLUSHING",40.758213,-73.82947
1954,"TD BANK","3819 MAIN ST","FLUSHING",40.758213,-73.82947
1955,"FIRST AMERICAN INTL BANK","4048 MAIN ST","FLUSHING",40.758213,-73.82947
1956,"CHIC KA WAH BANK","3701 MAIN ST # 3A","FLUSHING",40.758213,-73.82947
1957,"BANK OF EAST ASIA","3902 MAIN ST # A","FLUSHING",40.758213,-73.82947
1958,"CITIC KA WAH BANK","3701 MAIN ST # 3A","FLUSHING",40.758213,-73.82947
1959,"CITIBANK","2547 PARSONS BLVD","FLUSHING",40.760532,-73.821558
1960,"CAPITAL ONE BANK","2940 UNION ST","FLUSHING",40.759333,-73.825959
1961,"EAST WEST BANK","3805 UNION ST","FLUSHING",40.759333,-73.825959
1962,"RIDGEWOOD SAVINGS BANK","2529 PARSONS BLVD","FLUSHING",40.760532,-73.821558
1963,"CAPITAL ONE BANK","1901 UTOPIA PKWY","FLUSHING",40.774021,-73.792818
1964,"DIME SAVINGS BANK","2444 FRANCIS LEWIS BLVD","FLUSHING",40.774413,-73.797788
1965,"CAPITAL ONE BANK","2002 FRANCIS LEWIS BLVD","FLUSHING",40.774413,-73.797788
1966,"FIRST CENTRAL SAVINGS BANK","1919 FRANCIS LEWIS BLVD","FLUSHING",40.774413,-73.797788
1967,"CAPITAL ONE BANK","21147 26TH AVE","FLUSHING",40.774244,-73.791636
1968,"CAPITAL ONE BANK","3202 FRANCIS LEWIS BLVD","FLUSHING",40.762892,-73.78562
1969,"CHASE","3245 FRANCIS LEWIS BLVD","FLUSHING",40.762892,-73.78562
1970,"HSBC BANK","3415 FRANCIS LEWIS BLVD","FLUSHING",40.762892,-73.78562
1971,"QUEENS COUNTY SAVINGS BANK","19402 NORTHERN BLVD # L1","FLUSHING",40.757771,-73.783537
1972,"QUEENS COUNTY SAVINGS BANK","19301 NORTHERN BLVD","FLUSHING",40.757771,-73.783537
1973,"ATLANTIC BANK OF NEW YORK","19621 NORTHERN BLVD","FLUSHING",40.757771,-73.783537
1974,"CHASE","19603 NORTHERN BLVD","FLUSHING",40.757771,-73.783537
1975,"CHASE","16320 NORTHERN BLVD","FLUSHING",40.757771,-73.783537
1976,"FLUSHING SAVINGS BANK","15918 NORTHERN BLVD # 1","FLUSHING",40.757771,-73.783537
1977,"TD BANK","19641 NORTHERN BLVD","FLUSHING",40.757771,-73.783537
1978,"CAPITAL ONE BANK","21401 NORTHERN BLVD","FLUSHING",40.757771,-73.783537
1979,"WILSHIRE STATE BANK","21016 NORTHERN BLVD","FLUSHING",40.757771,-73.783537
1980,"BBCN BANK","20907 NORTHERN BLVD","BAYSIDE",40.757771,-73.783537
1981,"WOORI AMERICA BANK","21510 NORTHERN BLVD # 201","FLUSHING",40.757771,-73.783537
1982,"ALMA BANK","21311 NORTHERN BLVD","FLUSHING",40.757771,-73.783537
1983,"TD BANK","21610 NORTHERN BLVD","FLUSHING",40.757771,-73.783537
1984,"SHINHAN BANK","21111 NORTHERN BLVD","BAYSIDE",40.757771,-73.783537
1985,"FLUSHING SAVINGS BANK","18808 HOLLIS COURT BLVD","FLUSHING",40.750131,-73.786191
1986,"CHASE","6729 223RD PL","FLUSHING",40.744934,-73.751506
1987,"DIME SAVINGS BANK","6138 SPRINGFIELD BLVD","FLUSHING",40.735741,-73.74647
1988,"CAPITAL ONE BANK","7316 BELL BLVD","FLUSHING",40.734274,-73.755169
1989,"FLUSHING SAVINGS BANK","6154 SPRINGFIELD BLVD","FLUSHING",40.735741,-73.74647
1990,"CHASE","6103 SPRINGFIELD BLVD","FLUSHING",40.735741,-73.74647
1991,"COMMUNITY NATIONAL BANK","4301 BELL BLVD","BAYSIDE",40.755644,-73.76714
1992,"FLUSHING SAVINGS BANK","4211 BELL BLVD","FLUSHING",40.755644,-73.76714
1993,"CHASE","4122 BELL BLVD","FLUSHING",40.755644,-73.76714
1994,"CHASE","3839 BELL BLVD # B","FLUSHING",40.755644,-73.76714
1995,"CITIBANK","3901 BELL BLVD","FLUSHING",40.755644,-73.76714
1996,"MARATHON NATIONAL BANK OF NY","4308 BELL BLVD","FLUSHING",40.755644,-73.76714
1997,"FIRST CENTRAL SAVINGS BANK","4212 BELL BLVD","FLUSHING",40.755644,-73.76714
1998,"FIRST CELLULAR SAVINGS","4212 BELL BLVD","FLUSHING",40.755644,-73.76714
1999,"BANK OF AMERICA","42-39 BELL-BLVD","BAYSIDE",40.762205,-73.770215
2000,"SHINHAN BANK AMERICA","211 NORTHERN BLVD # 11","BAYSIDE",40.7598549,-73.771522
2001,"RIDGEWOOD SAVINGS BANK","20824 CROSS ISLAND PKWY","FLUSHING",40.775301,-73.76669
2002,"QUEENS COUNTY SAVINGS BANK","25131 NORTHERN BLVD","FLUSHING",40.762513,-73.755819
2003,"CHASE","25234 NORTHERN BLVD","FLUSHING",40.762513,-73.755819
2004,"CAPITAL ONE BANK","24840 NORTHERN BLVD","FLUSHING",40.762513,-73.755819
2005,"SHINHAN BANK AMERICA","25220 NORTHERN BLVD # 1","FLUSHING",40.762513,-73.755819
2006,"CHASE","27258 GRAND CENTRAL PKWY","FLORAL PARK",40.7562819,-73.7211
2007,"CHASE","5621 MARATHON PKWY","LITTLE NECK",40.752593,-73.726229
2008,"CHASE","25315 UNION TPKE","FLORAL PARK",40.743971,-73.717656
2009,"DIME SAVINGS BANK","25315 UNION TPKE","GLEN OAKS",40.743971,-73.717656
2010,"CAPITAL ONE BANK","25703 HILLSIDE AVE","FLORAL PARK",40.736143,-73.713847
2011,"CHASE","25621 UNION TPKE","GLEN OAKS",40.743971,-73.717656
2012,"HSBC BANK","25715 UNION TPKE","GLEN OAKS",40.743971,-73.717656
2013,"CAPITAL ONE BANK","25225 UNION TPKE","JAMAICA",40.740661,-73.72717
2014,"QUEENS COUNTY SAVINGS BANK","22404 UNION TPKE","OAKLAND GARDENS",40.73174,-73.770009
2015,"ROSLYN SAVINGS BANK","22404 UNION TPKE","FLUSHING",40.73174,-73.770009
2016,"CAPITAL ONE BANK","23315 HILLSIDE AVE","JAMAICA",40.721071,-73.759419
2017,"HSBC BANK","22005 HILLSIDE AVE","QUEENS VILLAGE",40.721071,-73.759419
2018,"BANK OF AMERICA","20502 LINDEN BLVD","ST ALBANS",40.6920829,-73.765379
2019,"CHASE","20532 LINDEN BLVD","ST ALBANS",40.6920829,-73.765379
2020,"CAPITAL ONE BANK","18902 LINDEN BLVD","JAMAICA",40.6920829,-73.765379
2021,"CHASE","18839 LINDEN BLVD","JAMAICA",40.6920829,-73.765379
2022,"CHASE","21901 JAMAICA AVE","JAMAICA",40.713894,-73.754027
2023,"CAPITAL ONE BANK","21619 JAMAICA AVE","JAMAICA",40.713894,-73.754027
2024,"CITIBANK","21710 JAMAICA AVE","JAMAICA",40.713894,-73.754027
2025,"TD BANK","21432 JAMAICA AVE","QUEENS VILLAGE",40.713894,-73.754027
2026,"COMMUNITY FEDERAL SAVINGS BANK","21624 JAMAICA AVE","JAMAICA",40.713894,-73.754027
2027,"QUEENS COUNTY SAVINGS BANK","24419 BRADDOCK AVE","JAMAICA",40.724733,-73.723469
2028,"QUEENS COUNTY SAVINGS BANK","24753 JERICHO TPKE","JAMAICA",40.725273,-73.721188
2029,"NEW YORK COMMUNITY BANK","24419 BRADDOCK AVE","JAMAICA",40.724733,-73.723469
2030,"CHASE","207 CITY ISLAND AVE","BRONX",40.84418,-73.785601
2031,"BANK LEUMI USA","139 CENTRE ST","BRONX",40.844284,-73.786366
2032,"CITIBANK","3924 E TREMONT AVE","BRONX",40.82177,-73.819321
2033,"CAPITAL ONE BANK","3780 E TREMONT AVE","BRONX",40.82518,-73.82104
2034,"TD BANK","3755 E TREMONT AVE","BRONX",40.82613,-73.82115
2035,"AMALGAMATED BANK","3770 E TREMONT AVE","BRONX",40.82564,-73.8215
2036,"CITIBANK","15316 10TH AVE","WHITESTONE",40.7890429,-73.830919
2037,"SOVEREIGN BANK","14937 14TH AVE","FLUSHING",40.7862509,-73.830907
2038,"MARATHON NATIONAL BANK OF NY","15007 14TH AVE","FLUSHING",40.7862509,-73.830907
2039,"CHASE","15315 CROSS ISLAND PKWY","FLUSHING",40.785533,-73.79579
2040,"CHASE","3217 WESTCHESTER AVE","BRONX",40.8519409,-73.829431
2041,"BANK OF AMERICA","2136 BARTOW AVE","BRONX",40.8692229,-73.825193
2042,"NEW YORK COMMUNITY BANK","2136 BARTOW AVE","BRONX",40.8692229,-73.825193
2043,"CHASE","2130 BARTOW AVE","BRONX",40.869249,-73.825329
2044,"EMIGRANT SAVINGS BANK","2021 BARTOW AVE # 1","BRONX",40.86935,-73.831071
2045,"AMALGAMATED BANK","2067 BARTOW AVE","BRONX",40.869636,-73.828233
2046,"CAPITAL ONE BANK","3049 BUHRE AVE","BRONX",40.84788,-73.830891
2047,"CHASE","3008 BUHRE AVE","BRONX",40.84701,-73.831521
2048,"CITIBANK","1766 CROSBY AVE","BRONX",40.84643,-73.831875
2049,"ALMA BANK","1705 CROSBY AVE","BRONX",40.84544,-73.83162
2050,"RIDGEWOOD SAVINGS BANK","1745 CROSBY AVE","BRONX",40.8462399,-73.83202
2051,"CHASE","3492 E TREMONT AVE","BRONX",40.831233,-73.826775
2052,"CHASE","3528 E TREMONT AVE","BRONX",40.83055,-73.826611
2053,"ROSLYN SAVINGS BANK","3681 E TREMONT AVE","BRONX",40.827419,-73.822942
2054,"CITIBANK","27206 UNION TPKE","NEW HYDE PARK",40.749212,-73.707928
2055,"CHASE","675 CO OP CITY BLVD","BRONX",40.879606,-73.824895
2056,"CAPITAL ONE BANK","725 CO OP CITY BLVD","BRONX",40.87971,-73.825511
2057,"CITIZENS BANK","691 CO OP CITY BLVD","BRONX",40.879504,-73.825214
